{"type":"FeatureCollection","features":[{"type":"Feature","properties":{"lit":"yes","ref":"A105","name":"Green Lanes","highway":"primary","cycleway":"track","tfl_id":"RWG149180","osm_id":867311262},"geometry":{"type":"LineString","coordinates":[[-0.09439909998686,51.6332541947733],[-0.094414269242123,51.6331980588681]]}},{"type":"Feature","properties":{"lit":"yes","ref":"A105","name":"Green Lanes","highway":"primary","cycleway:left":"track","cycleway:right":"separate","tfl_id":"RWG149180","osm_id":867311266},"geometry":{"type":"LineString","coordinates":[[-0.09432689998687,51.6335199947733],[-0.09439909998686,51.6332541947733]]}},{"type":"Feature","properties":{"lit":"yes","ref":"A105","name":"Green Lanes","highway":"primary","cycleway":"track","tfl_id":"RWG149180","osm_id":867311263},"geometry":{"type":"LineString","coordinates":[[-0.094308665839207,51.6335835716501],[-0.09432689998687,51.6335199947733]]}},{"type":"Feature","properties":{"lit":"yes","ref":"A105","name":"Green Lanes","highway":"primary","cycleway":"track","tfl_id":"RWG187320","osm_id":867311263},"geometry":{"type":"LineString","coordinates":[[-0.094271799986877,51.6337122947733],[-0.094287342970726,51.6336580022949]]}},{"type":"Feature","properties":{"lit":"yes","ref":"A105","name":"Green Lanes","highway":"primary","cycleway:left":"lane","cycleway:right":"separate","tfl_id":"RWG187320","osm_id":867311258},"geometry":{"type":"LineString","coordinates":[[-0.094246699986881,51.6337916947733],[-0.094271799986877,51.6337122947733]]}},{"type":"Feature","properties":{"lit":"yes","ref":"A105","name":"Green Lanes","highway":"primary","cycleway":"separate","tfl_id":"RWG187320","osm_id":867303928},"geometry":{"type":"LineString","coordinates":[[-0.09418169998689,51.6340101947733],[-0.094246699986881,51.6337916947733]]}},{"type":"Feature","properties":{"lit":"yes","ref":"A105","name":"Green Lanes","highway":"primary","cycleway:left":"separate","cycleway:right":"track","tfl_id":"RWG187320","osm_id":867303967},"geometry":{"type":"LineString","coordinates":[[-0.094175099986891,51.6340334947733],[-0.09418169998689,51.6340101947733]]}},{"type":"Feature","properties":{"lit":"yes","ref":"A105","name":"Green Lanes","highway":"primary","cycleway:left":"lane","cycleway:right":"track","tfl_id":"RWG187320","osm_id":867303965},"geometry":{"type":"LineString","coordinates":[[-0.094151065309841,51.6341124658584],[-0.094175099986891,51.6340334947733]]}},{"type":"Feature","properties":{"lit":"yes","ref":"A105","name":"Green Lanes","highway":"primary","cycleway:left":"lane","cycleway:right":"separate","tfl_id":"RWG276316","osm_id":867303976},"geometry":{"type":"LineString","coordinates":[[-0.092051199987186,51.6354518947733],[-0.09209769693792,51.635427096403]]}},{"type":"Feature","properties":{"lit":"yes","ref":"A105","name":"Green Lanes","highway":"primary","cycleway":"separate","tfl_id":"RWG276316","osm_id":867303970},"geometry":{"type":"LineString","coordinates":[[-0.091957099987199,51.6355104947732],[-0.092051199987186,51.6354518947733]]}},{"type":"Feature","properties":{"lit":"yes","ref":"A105","name":"Green Lanes","highway":"primary","cycleway":"separate","tfl_id":"RWG276316","osm_id":8122362},"geometry":{"type":"LineString","coordinates":[[-0.091746699987229,51.6356533947732],[-0.091957099987199,51.6355104947732]]}},{"type":"Feature","properties":{"lit":"yes","ref":"A105","name":"Green Lanes","highway":"primary","cycleway:left":"track","cycleway:right":"separate","tfl_id":"RWG276316","osm_id":867303989},"geometry":{"type":"LineString","coordinates":[[-0.091653899987242,51.6357280947732],[-0.091746699987229,51.6356533947732]]}},{"type":"Feature","properties":{"lit":"yes","ref":"A105","name":"Green Lanes","highway":"primary","cycleway":"track","tfl_id":"RWG276316","osm_id":867303956},"geometry":{"type":"LineString","coordinates":[[-0.091618499987247,51.6357558947732],[-0.091653899987242,51.6357280947732]]}},{"type":"Feature","properties":{"lit":"yes","ref":"A105","name":"Green Lanes","highway":"primary","cycleway:left":"lane","cycleway:right":"track","tfl_id":"RWG276316","osm_id":867303988},"geometry":{"type":"LineString","coordinates":[[-0.091578699987252,51.6357900947733],[-0.091618499987247,51.6357558947732]]}},{"type":"Feature","properties":{"lit":"yes","ref":"A105","name":"Green Lanes","highway":"primary","cycleway:left":"lane","cycleway:right":"separate","tfl_id":"RWG276316","osm_id":867303937},"geometry":{"type":"LineString","coordinates":[[-0.091536199987258,51.6358297947732],[-0.091578699987252,51.6357900947733]]}},{"type":"Feature","properties":{"lit":"yes","ref":"A105","name":"Green Lanes","highway":"primary","cycleway:left":"track","cycleway:right":"separate","tfl_id":"RWG276316","osm_id":605945842},"geometry":{"type":"LineString","coordinates":[[-0.091505789076971,51.6358581737372],[-0.091536199987258,51.6358297947732]]}},{"type":"Feature","properties":{"lit":"yes","ref":"A406","name":"Bowes Road","lanes":"2","oneway":"yes","highway":"trunk","alt_name":"North Circular Road","maxspeed":"30 mph","operator":"Transport for London","tfl_id":"RWG149749","osm_id":674419461},"geometry":{"type":"LineString","coordinates":[[-0.126126183255491,51.6144331620134],[-0.125838599982483,51.6143200947738],[-0.125079187194063,51.6140329476855]]}},{"type":"Feature","properties":{"lit":"yes","ref":"A298","name":"Bushey Road","lanes":"2","oneway":"yes","highway":"primary","surface":"asphalt","maxspeed":"40 mph","sidewalk":"separate","postal_code":"SW20","tfl_id":"RWG124334","osm_id":708250524},"geometry":{"type":"LineString","coordinates":[[-0.220444497396242,51.4075295463027],[-0.220355199969326,51.4075403947788]]}},{"type":"Feature","properties":{"lit":"yes","ref":"A298","name":"Bushey Road","lanes":"2","oneway":"yes","highway":"primary","surface":"asphalt","maxspeed":"40 mph","sidewalk":"separate","postal_code":"SW20","tfl_id":"RWG124334","osm_id":153920215},"geometry":{"type":"LineString","coordinates":[[-0.220355199969326,51.4075403947788],[-0.220316054162896,51.4075471082386]]}},{"type":"Feature","properties":{"lit":"yes","psv":"designated","foot":"yes","name":"Eastern Road","access":"no","oneway":"yes","bicycle":"yes","highway":"residential","surface":"asphalt","cycleway:right":"lane","cycleway:right:width":"1.75","tfl_id":"RWG123024","osm_id":4863703},"geometry":{"type":"LineString","coordinates":[[0.184071990280261,51.5754909957659],[0.183962594596048,51.5754497405345]]}},{"type":"Feature","properties":{"lit":"yes","ref":"A307","name":"Portsmouth Road","lanes":"2","highway":"primary","maxspeed":"30 mph","cycleway:left":"separate","cycleway:left:oneway":"no","tfl_id":"RWG123798","osm_id":124096510},"geometry":{"type":"LineString","coordinates":[[-0.311166883362078,51.3968020698531],[-0.311080860229882,51.3969010818367]]}},{"type":"Feature","properties":{"lit":"yes","ref":"A307","name":"Portsmouth Road","lanes":"2","highway":"primary","maxspeed":"30 mph","cycleway:left":"separate","cycleway:left:oneway":"no","tfl_id":"RWG123799","osm_id":124096510},"geometry":{"type":"LineString","coordinates":[[-0.311080698460358,51.396901268032],[-0.311077199956698,51.3969052947791],[-0.311007622853384,51.3969883743079]]}},{"type":"Feature","properties":{"lit":"yes","name":"Canbury Park Road","oneway":"yes","highway":"residential","maxspeed":"20 mph","sidewalk":"right","tfl_id":"RWG123789","osm_id":183126002},"geometry":{"type":"LineString","coordinates":[[-0.300350227632242,51.4131232394715],[-0.299046690841746,51.4130938233347]]}},{"properties":{"oneway":"yes","highway":"unclassified","tfl_id":"RWG220405","osm_id":23070553},"geometry":{"type":"LineString","coordinates":[[0.170001783840891,51.5207744130011],[0.170156899976314,51.520720094776],[0.17032899997629,51.520665994776],[0.170489399976268,51.520633094776],[0.170773399976228,51.520612494776],[0.171136499976178,51.520644094776],[0.17133159997615,51.520698694776],[0.171436111912224,51.5207490927622]]}},{"properties":{"oneway":"yes","highway":"unclassified","tfl_id":"RWG220405","osm_id":23070553},"geometry":{"type":"LineString","coordinates":[[0.171715056036167,51.5210010776977],[0.171737699976094,51.521059794776],[0.171815799976083,51.521244194776],[0.171850873871588,51.5213270685398]]}},{"type":"Feature","properties":{"lit":"yes","psv":"yes","name":"Surbiton Crescent","lanes":"1","highway":"tertiary","surface":"asphalt","maxspeed":"20 mph","priority":"forward","motor_vehicle:forward":"destination","tfl_id":"RWG123875","osm_id":556777518},"geometry":{"type":"LineString","coordinates":[[-0.304536868475182,51.4003986066564],[-0.304491434409365,51.4004518894302]]}},{"type":"Feature","properties":{"lit":"yes","ref":"A307","name":"Portsmouth Road","lanes":"2","highway":"primary","maxspeed":"30 mph","cycleway:left":"separate","cycleway:left:oneway":"no","tfl_id":"RWG123796","osm_id":124096510},"geometry":{"type":"LineString","coordinates":[[-0.311348795294985,51.3965931552086],[-0.311283799956669,51.3966630947791],[-0.311228199956677,51.3967314947791],[-0.311166627399217,51.3968023644647]]}},{"type":"Feature","properties":{"lit":"yes","psv":"yes","name":"Surbiton Crescent","lanes":"1","highway":"tertiary","surface":"asphalt","maxspeed":"20 mph","priority":"forward","motor_vehicle:forward":"destination","tfl_id":"RWG123874","osm_id":556777518},"geometry":{"type":"LineString","coordinates":[[-0.304534414226829,51.4004014848763],[-0.304485392181868,51.4004589754443]]}},{"type":"Feature","properties":{"lit":"yes","name":"Manor Road","oneway":"yes","highway":"residential","maxspeed":"20 mph","postal_code":"E10","cycleway:right":"lane","oneway:bicycle":"no","cycleway:right:oneway":"-1","tfl_id":"RWG149505","osm_id":757744176},"geometry":{"type":"LineString","coordinates":[[-0.020509882145583,51.5718074721958],[-0.020521699997143,51.5718220947748]]}},{"type":"Feature","properties":{"lit":"yes","name":"Manor Road","oneway":"yes","highway":"residential","maxspeed":"20 mph","postal_code":"E10","cycleway:right":"lane","oneway:bicycle":"no","cycleway:right:oneway":"-1","tfl_id":"RWG149505","osm_id":655489897},"geometry":{"type":"LineString","coordinates":[[-0.020579799997135,51.5718622947748],[-0.02059763602455,51.5718844546942]]}},{"type":"Feature","properties":{"lit":"yes","ref":"A307","name":"Portsmouth Road","lanes":"2","highway":"primary","maxspeed":"30 mph","cycleway:left":"separate","cycleway:left:oneway":"no","tfl_id":"RWG123800","osm_id":124096510},"geometry":{"type":"LineString","coordinates":[[-0.311007449203555,51.3969885816567],[-0.31098959995671,51.3970098947791],[-0.310966736611981,51.3970384983657]]}},{"type":"Feature","properties":{"lit":"yes","ref":"A1006","name":"Markhouse Road","oneway":"no","highway":"primary","surface":"asphalt","maxspeed":"30 mph","sidewalk":"both","tfl_id":"RWG187701","osm_id":655488400},"geometry":{"type":"LineString","coordinates":[[-0.029806203228034,51.5757267499665],[-0.02981049999585,51.5757966947747],[-0.029810574040569,51.5758322826542]]}},{"type":"Feature","properties":{"name":"Cedars Avenue","oneway":"yes","highway":"residential","postal_code":"E17","cycleway:right":"lane","oneway:bicycle":"no","cycleway:right:oneway":"-1","tfl_id":"RWG187702","osm_id":683257323},"geometry":{"type":"LineString","coordinates":[[-0.018537418963541,51.5817328686615],[-0.018519099997422,51.5817366947745],[-0.018493399997426,51.5817401947745],[-0.018458499997431,51.5817465947746]]}},{"type":"Feature","properties":{"lit":"yes","name":"Peterborough Road","oneway":"yes","highway":"residential","surface":"asphalt","maxspeed":"20 mph","postal_code":"E10","tfl_id":"RWG187575","osm_id":683599802},"geometry":{"type":"LineString","coordinates":[[-0.003504099999512,51.5797747947746],[-0.003483399999515,51.5797609947746],[-0.003463499999518,51.5797425947746],[-0.003448433732579,51.5797187398522]]}},{"type":"Feature","properties":{"lit":"yes","name":"Peterborough Road","oneway":"yes","highway":"residential","surface":"asphalt","maxspeed":"20 mph","postal_code":"E10","cycleway:right":"lane","oneway:bicycle":"no","cycleway:right:oneway":"-1","tfl_id":"RWG187575","osm_id":683600133},"geometry":{"type":"LineString","coordinates":[[-0.003556799999505,51.5798277947746],[-0.003527799999509,51.5797998947746],[-0.003504099999512,51.5797747947746]]}},{"type":"Feature","properties":{"lit":"yes","ref":"A1006","name":"Markhouse Road","oneway":"no","highway":"primary","surface":"asphalt","maxspeed":"30 mph","sidewalk":"both","tfl_id":"RWG187699","osm_id":655488400},"geometry":{"type":"LineString","coordinates":[[-0.029780335513759,51.5755080899357],[-0.029788899995853,51.5755473947747],[-0.029795311642501,51.5756038828256]]}},{"type":"Feature","properties":{"lit":"yes","ref":"A106","name":"Ruckholt Road","oneway":"yes","highway":"primary","surface":"asphalt","maxspeed":"30 mph","sidewalk":"both","cycleway:left":"track","tfl_id":"RWG149674","osm_id":10803959},"geometry":{"type":"LineString","coordinates":[[-0.00898567072991,51.5576090538544],[-0.008953899998754,51.5576267947751]]}},{"type":"Feature","properties":{"lit":"yes","ref":"A106","name":"Ruckholt Road","oneway":"yes","highway":"primary","maxspeed":"30 mph","sidewalk":"both","tfl_id":"RWG149674","osm_id":633085124},"geometry":{"type":"LineString","coordinates":[[-0.008953899998754,51.5576267947751],[-0.008718499998786,51.5577271947751]]}},{"type":"Feature","properties":{"lit":"yes","ref":"A106","foot":"yes","name":"Ruckholt Road","oneway":"yes","highway":"primary","maxspeed":"30 mph","sidewalk":"both","tfl_id":"RWG149674","osm_id":390841773},"geometry":{"type":"LineString","coordinates":[[-0.008718499998786,51.5577271947751],[-0.008631899998798,51.5577631947751]]}},{"type":"Feature","properties":{"lit":"yes","ref":"A106","name":"Ruckholt Road","oneway":"yes","highway":"primary","maxspeed":"30 mph","sidewalk":"both","tfl_id":"RWG149674","osm_id":232721961},"geometry":{"type":"LineString","coordinates":[[-0.008631899998798,51.5577631947751],[-0.007568299998946,51.5581969947751]]}},{"type":"Feature","properties":{"lit":"yes","ref":"A106","name":"Ruckholt Road","oneway":"yes","bicycle":"designated","highway":"primary","surface":"asphalt","maxspeed":"30 mph","sidewalk":"both","cycleway:left":"lane","tfl_id":"RWG149674","osm_id":577334338},"geometry":{"type":"LineString","coordinates":[[-0.007568299998946,51.5581969947751],[-0.007539121675204,51.5582093375992]]}},{"type":"Feature","properties":{"lit":"yes","ref":"A106","name":"Ruckholt Road","layer":"1","highway":"primary","surface":"asphalt","maxspeed":"30 mph","sidewalk":"left","cycleway:left":"shared_lane","cycleway:right":"separate","tfl_id":"RWG149537","osm_id":232721482},"geometry":{"type":"LineString","coordinates":[[-0.015712846780273,51.5558968064559],[-0.015648899997822,51.5559562947752],[-0.015610939125779,51.5559869466365]]}},{"type":"Feature","properties":{"lit":"yes","ref":"A307","name":"Portsmouth Road","lanes":"2","highway":"primary","maxspeed":"30 mph","cycleway:left":"separate","cycleway:left:oneway":"no","tfl_id":"RWG206798","osm_id":491844466},"geometry":{"type":"LineString","coordinates":[[-0.307858895137857,51.4039652368065],[-0.307873099957144,51.4041033947789],[-0.307948199957133,51.4044659947789],[-0.307964799957131,51.4045287947789],[-0.308138099957107,51.4052914947789]]}},{"type":"Feature","properties":{"lit":"yes","ref":"A307","name":"High Street","highway":"primary","maxspeed":"30 mph","cycleway:left":"separate","cycleway:left:oneway":"no","tfl_id":"RWG206798","osm_id":124096675},"geometry":{"type":"LineString","coordinates":[[-0.308138099957107,51.4052914947789],[-0.308229199957094,51.4055537947789]]}},{"type":"Feature","properties":{"lit":"yes","name":"Oliver Road","highway":"tertiary","surface":"asphalt","cycleway":"separate","sidewalk":"both","tfl_id":"RWG149100","osm_id":670587278},"geometry":{"type":"LineString","coordinates":[[-0.010531098199341,51.5571321810574],[-0.010516949396292,51.557110110917]]}},{"type":"Feature","properties":{"lit":"yes","ref":"A106","name":"Gainsborough Road","highway":"primary","surface":"asphalt","maxspeed":"20 mph","sidewalk":"both","cycleway:right":"shared","tfl_id":"RWG149705","osm_id":10807514},"geometry":{"type":"LineString","coordinates":[[0.011534989800139,51.5709004131511],[0.011693196512951,51.5708098497631]]}},{"type":"Feature","properties":{"lit":"yes","ref":"A104","name":"Lea Bridge Road","oneway":"no","highway":"primary","surface":"asphalt","cycleway":"separate","maxspeed":"20 mph","sidewalk":"separate","parking:lane:left":"no_stopping","tfl_id":"RWG150140","osm_id":37886703},"geometry":{"type":"LineString","coordinates":[[-0.031169477378973,51.5681855149447],[-0.031159199995663,51.5681893947749],[-0.030573788585574,51.5683978205588]]}},{"type":"Feature","properties":{"lit":"yes","name":"Coulgate Street","oneway":"yes","highway":"unclassified","surface":"asphalt","maxspeed":"20 mph","sidewalk":"left","tfl_id":"RWG291031","osm_id":4411955},"geometry":{"type":"LineString","coordinates":[[-0.036264457951563,51.4636769131192],[-0.036262799994952,51.4636760947774],[-0.036162899994966,51.4636736947774],[-0.036159625424339,51.4636736170172]]}},{"type":"Feature","properties":{"lit":"yes","ref":"A207","name":"Albion Road","oneway":"yes","highway":"primary","tfl_id":"RWG185049","osm_id":584805203},"geometry":{"type":"LineString","coordinates":[[0.143415153212871,51.455466645819],[0.143282299980055,51.4554835947776],[0.142577699980153,51.4556133947777],[0.142410999980176,51.4556522947776],[0.142368599980182,51.4556670947776],[0.142336533719954,51.4556783118937]]}},{"type":"Feature","properties":{"lit":"yes","ref":"A118","name":"High Street","lanes":"3","oneway":"yes","highway":"primary","old_ref":"A11","surface":"asphalt","maxspeed":"30 mph","sidewalk":"no","turn:lanes":"through|through|right","cycleway:left":"separate","tfl_id":"RWG156177","osm_id":244387420},"geometry":{"type":"LineString","coordinates":[[-0.003513070769743,51.5367435953716],[-0.003669901453473,51.5366235184049]]}},{"type":"Feature","properties":{"lit":"yes","ref":"A118","name":"High Street","lanes":"2","oneway":"yes","highway":"primary","old_ref":"A11","surface":"asphalt","abutters":"mixed","maxspeed":"30 mph","sidewalk":"no","cycleway:left":"separate","tfl_id":"RWG156219","osm_id":23181814},"geometry":{"type":"LineString","coordinates":[[-0.001089455783554,51.538806441639],[-0.000835580134517,51.5390141203727]]}},{"type":"Feature","properties":{"name":"Stanstead Road","oneway":"yes","highway":"residential","maxspeed":"20 mph","tfl_id":"RWG278535","osm_id":588515232},"geometry":{"type":"LineString","coordinates":[[-0.051406655216385,51.441269484265],[-0.051406299992844,51.441350694778],[-0.051399161627355,51.4413781215387]]}},{"type":"Feature","properties":{"lit":"yes","ref":"A118","name":"Broadway","lanes":"3","highway":"primary","old_ref":"A11","surface":"asphalt","cycleway":"separate","maxspeed":"20 mph","sidewalk":"left","lanes:forward":"1","lanes:backward":"2","tfl_id":"RWG156226","osm_id":100485812},"geometry":{"type":"LineString","coordinates":[[0.001148484918651,51.5405787426934],[0.001060899999852,51.5405278947756],[0.000978899999864,51.5404843947755],[0.000876499999878,51.5404316947755],[0.00078709999989,51.5403755947755],[0.000769380346415,51.5403651807717]]}},{"type":"Feature","properties":{"lit":"yes","name":"Church Road","lanes":"1","oneway":"yes","highway":"residential","sidewalk":"left","tfl_id":"RWG237772","osm_id":157419955},"geometry":{"type":"LineString","coordinates":[[-0.387238973931001,51.5386057525322],[-0.387380132955566,51.5385179296295]]}},{"type":"Feature","properties":{"lit":"yes","ref":"A118","name":"High Street","lanes":"2","oneway":"yes","highway":"primary","old_ref":"A11","surface":"asphalt","maxspeed":"30 mph","sidewalk":"no","cycleway:left":"separate","tfl_id":"RWG156214","osm_id":239939401},"geometry":{"type":"LineString","coordinates":[[-0.0014386999998,51.5383417947756],[-0.001521779485693,51.5382750546433]]}},{"type":"Feature","properties":{"lit":"yes","ref":"A118","foot":"yes","name":"High Street","lanes":"2","layer":"1","bridge":"yes","oneway":"yes","highway":"primary","old_ref":"A11","surface":"asphalt","maxspeed":"30 mph","sidewalk":"no","cycleway:left":"separate","maxweight:signed":"no","tfl_id":"RWG156214","osm_id":23181826},"geometry":{"type":"LineString","coordinates":[[-0.001200125793033,51.5385381859734],[-0.0014386999998,51.5383417947756]]}},{"type":"Feature","properties":{"lit":"yes","name":"Idmiston Road","highway":"residential","surface":"asphalt","maxspeed":"30 mph","ref:GB:usrn":"22200075","tfl_id":"RWG289792","osm_id":28458889},"geometry":{"type":"LineString","coordinates":[[0.012802199998218,51.5482365947754],[0.012868976028264,51.5482489002284]]}},{"type":"Feature","properties":{"lit":"yes","ref":"A118","foot":"no","name":"Broadway","lanes":"3","highway":"primary","old_ref":"A11","surface":"asphalt","cycleway":"separate","maxspeed":"20 mph","sidewalk":"no","lanes:forward":"1","lanes:backward":"2","tfl_id":"RWG156225","osm_id":316303980},"geometry":{"type":"LineString","coordinates":[[0.000590537427791,51.5402503890688],[0.00057399999992,51.5402397947756],[0.000518138014638,51.5402014950842]]}},{"type":"Feature","properties":{"name":"Cross Road","oneway":"yes","highway":"residential","surface":"asphalt","maxspeed":"20 mph","tfl_id":"RWG219759","osm_id":13950362},"geometry":{"type":"LineString","coordinates":[[-0.090768395300995,51.3798572489829],[-0.090842499987355,51.3800991947795],[-0.090855199987353,51.3801915947795],[-0.090818199987358,51.3802903947795],[-0.090462099987408,51.3805311947795],[-0.090158965219127,51.3806606264786]]}},{"type":"Feature","properties":{"lit":"yes","name":"Regina Road","highway":"residential","surface":"asphalt","maxspeed":"20 mph","tfl_id":"RWG233634","osm_id":4961882},"geometry":{"type":"LineString","coordinates":[[-0.325688951517643,51.5078373716023],[-0.325615148951645,51.5078646481579]]}},{"type":"Feature","properties":{"lit":"yes","name":"Regina Road","highway":"residential","surface":"asphalt","maxspeed":"20 mph","tfl_id":"RWG233635","osm_id":4961882},"geometry":{"type":"LineString","coordinates":[[-0.325696014354539,51.5078347612604],[-0.325620162656669,51.5078627951524]]}},{"type":"Feature","properties":{"name":"Cross Road","oneway":"yes","highway":"residential","surface":"asphalt","maxspeed":"20 mph","tfl_id":"RWG219764","osm_id":13950362},"geometry":{"type":"LineString","coordinates":[[-0.089979576655965,51.3807628279647],[-0.089901499987486,51.3808245947795],[-0.089803099987499,51.3809243947795],[-0.089789199987501,51.3809383947795]]}},{"type":"Feature","properties":{"lit":"yes","ref":"A4020","name":"High Street","lanes":"1","oneway":"yes","highway":"primary","surface":"asphalt","alt_name":"Uxbridge Road","maxspeed":"20 mph","sidewalk":"no","smoothness":"excellent","tfl_id":"RWG234423","osm_id":319195785},"geometry":{"type":"LineString","coordinates":[[-0.274528699961785,51.5082904947763],[-0.274599199961776,51.5083085947764],[-0.274671899961765,51.5083228947763],[-0.274746299961755,51.5083331947763],[-0.274821899961744,51.5083394947763],[-0.274897999961734,51.5083418947763]]}},{"type":"Feature","properties":{"lit":"yes","lanes":"2","oneway":"yes","highway":"primary","surface":"asphalt","alt_name":"Uxbridge Road","junction":"roundabout","maxspeed":"20 mph","sidewalk":"no","smoothness":"excellent","turn:lanes":"left|right","tfl_id":"RWG234423","osm_id":319195787},"geometry":{"type":"LineString","coordinates":[[-0.274483099961792,51.5082779947763],[-0.274511699961788,51.5082857947763],[-0.274528699961785,51.5082904947763]]}},{"type":"Feature","properties":{"name":"Poplar Walk","lanes":"1","oneway":"yes","highway":"unclassified","maxspeed":"20 mph","tfl_id":"RWG292680","osm_id":640612907},"geometry":{"type":"LineString","coordinates":[[-0.100845312912998,51.378072222875],[-0.100410399986023,51.3782241947796],[-0.100257150513852,51.3782751536417]]}},{"type":"Feature","properties":{"lit":"yes","ref":"A4020","name":"Uxbridge Road","highway":"primary","surface":"asphalt","maxspeed":"30 mph","sidewalk":"both","cycleway:right":"lane","tfl_id":"RWG235136","osm_id":304118959},"geometry":{"type":"LineString","coordinates":[[-0.297487299958589,51.5133281947762],[-0.297593340845255,51.5133637997477]]}},{"type":"Feature","properties":{"lit":"yes","ref":"A4020","name":"Uxbridge Road","lanes":"3","highway":"primary","maxspeed":"30 mph","sidewalk":"left","tfl_id":"RWG235136","osm_id":304118949},"geometry":{"type":"LineString","coordinates":[[-0.296538852268976,51.512962214455],[-0.296936999958666,51.5131124947762],[-0.297487299958589,51.5133281947762]]}},{"type":"Feature","properties":{"lit":"yes","ref":"A232","name":"Croydon Road","highway":"trunk","maxspeed":"30 mph","operator":"Transport for London","tfl_id":"RWG219778","osm_id":17530763},"geometry":{"type":"LineString","coordinates":[[-0.130332295306573,51.3676416561118],[-0.130302809779368,51.3676415306176]]}},{"type":"Feature","properties":{"lit":"yes","ref":"A217","name":"Holborn Way","oneway":"yes","highway":"primary","surface":"asphalt","maxspeed":"30 mph","tfl_id":"RWG218728","osm_id":649600553},"geometry":{"type":"LineString","coordinates":[[-0.165040699977026,51.4068240947789],[-0.165247999976997,51.4066489947789],[-0.165338399976985,51.4065258947789],[-0.165386299976978,51.4064234947789],[-0.165389387559107,51.4064070870627]]}},{"type":"Feature","properties":{"name":"Melbourne Road","oneway":"yes","highway":"residential","tfl_id":"RWG219808","osm_id":5039354},"geometry":{"type":"LineString","coordinates":[[-0.148370459755452,51.3614998302411],[-0.148295560642926,51.3615114933636]]}},{"type":"Feature","properties":{"name":"Bridgwater Road","oneway":"yes","highway":"residential","surface":"asphalt","maxspeed":"30 mph","maxheight":"3.58","tfl_id":"RWG237464","osm_id":23577511},"geometry":{"type":"LineString","coordinates":[[-0.40734115048332,51.5596852491733],[-0.407057674039451,51.5598148926241]]}},{"type":"Feature","properties":{"lit":"yes","ref":"B413","name":"Salusbury Road","oneway":"yes","highway":"secondary","maxspeed":"20 mph","sidewalk":"right","cycleway:left":"lane","tfl_id":"RWG275495","osm_id":4217249},"geometry":{"type":"LineString","coordinates":[[-0.203868599971621,51.5334062947757],[-0.203796099971631,51.5333513947757],[-0.203764838132662,51.5333330462793]]}},{"type":"Feature","properties":{"lit":"yes","ref":"A217","name":"Holborn Way","oneway":"yes","highway":"primary","surface":"asphalt","maxspeed":"30 mph","tfl_id":"RWG218651","osm_id":4776144},"geometry":{"type":"LineString","coordinates":[[-0.165552804711253,51.4062751043137],[-0.165426899976972,51.4065515947788],[-0.165341899976984,51.4066793947788],[-0.165104199977017,51.4068889947788]]}},{"properties":{"lit":"yes","ref":"A217","name":"Holborn Way","oneway":"yes","highway":"primary","surface":"asphalt","maxspeed":"30 mph","tfl_id":"RWG218658","osm_id":649599382},"geometry":{"type":"LineString","coordinates":[[-0.164849164427547,51.4070070711233],[-0.164770403239828,51.4070361943495]]}},{"properties":{"lit":"yes","ref":"A217","name":"Holborn Way","oneway":"yes","highway":"primary","surface":"asphalt","maxspeed":"30 mph","tfl_id":"RWG218658","osm_id":649599382},"geometry":{"type":"LineString","coordinates":[[-0.164686038681689,51.4070673894922],[-0.16457919997709,51.4071068947788],[-0.164260399977135,51.4072053947789],[-0.164093699977158,51.4072585947788]]}},{"type":"Feature","properties":{"lit":"yes","ref":"A217","name":"Holborn Way","oneway":"yes","highway":"primary","surface":"asphalt","maxspeed":"30 mph","cycleway:left":"lane","tfl_id":"RWG218658","osm_id":649600562},"geometry":{"type":"LineString","coordinates":[[-0.164093699977158,51.4072585947788],[-0.163977064666138,51.4072980578642]]}},{"type":"Feature","properties":{"lit":"yes","name":"Palmerston Road","highway":"residential","surface":"asphalt","maxspeed":"30 mph","lane_markings":"no","tfl_id":"RWG274229","osm_id":766371680},"geometry":{"type":"LineString","coordinates":[[-0.331323699953879,51.5932137947743],[-0.331264520417684,51.5932120871593]]}},{"type":"Feature","properties":{"lit":"yes","ref":"A1080","name":"The Roundway","oneway":"yes","highway":"primary","surface":"asphalt","maxspeed":"30 mph","operator":"London Borough of Haringey","smoothness":"excellent","tfl_id":"RWG279403","osm_id":595141520},"geometry":{"type":"LineString","coordinates":[[-0.091204523343332,51.6015411944987],[-0.091116399987316,51.6016253947741],[-0.090987699987334,51.6017321947741],[-0.090850699987353,51.6018358947741],[-0.090684599987377,51.6019472947741],[-0.090397599987417,51.602130194774],[-0.090089799987459,51.6022807947741],[-0.08972389998751,51.602430694774],[-0.08929319998757,51.602585494774],[-0.088984599987613,51.602673494774],[-0.088691399987654,51.602740194774],[-0.088471899888258,51.6027806271858]]}},{"type":"Feature","properties":{"lit":"yes","ref":"A5202","name":"Royal College Street","lanes":"2","oneway":"yes","highway":"primary","surface":"asphalt","maxspeed":"20 mph","sidewalk":"both","cycleway:right":"separate","traffic_calming":"cushion","tfl_id":"RWG150956","osm_id":11266300},"geometry":{"type":"LineString","coordinates":[[-0.136772712534546,51.5399245350706],[-0.136797199980958,51.5399564947756]]}},{"type":"Feature","properties":{"lit":"yes","ref":"A5202","name":"Royal College Street","lanes":"2","oneway":"yes","highway":"primary","surface":"asphalt","cycleway":"separate","maxspeed":"20 mph","sidewalk":"both","traffic_calming":"cushion","tfl_id":"RWG150956","osm_id":642635291},"geometry":{"type":"LineString","coordinates":[[-0.136797199980958,51.5399564947756],[-0.136874399980947,51.5400542947756],[-0.137280407117626,51.5405474775188]]}},{"type":"Feature","properties":{"lit":"yes","name":"Purchese Street","highway":"residential","surface":"asphalt","maxspeed":"20 mph","tfl_id":"RWG003599","osm_id":166366049},"geometry":{"type":"LineString","coordinates":[[-0.130268900722367,51.5328713299794],[-0.130180499981879,51.5327271947757],[-0.130158799981882,51.5326918947757],[-0.130151174183723,51.5326634087389]]}},{"type":"Feature","properties":{"lit":"yes","name":"Purchese Street","highway":"residential","surface":"asphalt","maxspeed":"20 mph","traffic_calming":"cushion","tfl_id":"RWG003600","osm_id":17896746},"geometry":{"type":"LineString","coordinates":[[-0.130725399981803,51.5336334947757],[-0.130324599981859,51.5329634947757]]}},{"type":"Feature","properties":{"lit":"yes","name":"Goldington Street","highway":"residential","surface":"asphalt","maxspeed":"20 mph","traffic_calming":"cushion","tfl_id":"RWG003600","osm_id":207115848},"geometry":{"type":"LineString","coordinates":[[-0.130840936470692,51.5338196043233],[-0.130725399981803,51.5336334947757]]}},{"type":"Feature","properties":{"lit":"yes","name":"Purchese Street","highway":"residential","surface":"asphalt","maxspeed":"20 mph","tfl_id":"RWG003600","osm_id":166366049},"geometry":{"type":"LineString","coordinates":[[-0.130324599981859,51.5329634947757],[-0.130309234014168,51.5329378402995]]}},{"type":"Feature","properties":{"lit":"yes","ref":"A5202","name":"Royal College Street","highway":"primary","cycleway":"separate","maxspeed":"20 mph","sidewalk":"both","tfl_id":"RWG003565","osm_id":502802555},"geometry":{"type":"LineString","coordinates":[[-0.140792120737794,51.5443548013625],[-0.14109049998036,51.5447295947754],[-0.14116189998035,51.5448211947754]]}},{"type":"Feature","properties":{"lit":"yes","ref":"A5202","name":"Royal College Street","oneway":"no","highway":"primary","cycleway":"separate","maxspeed":"20 mph","sidewalk":"both","tfl_id":"RWG003565","osm_id":502802543},"geometry":{"type":"LineString","coordinates":[[-0.14116189998035,51.5448211947754],[-0.141246891021542,51.5449058085027]]}},{"type":"Feature","properties":{"lit":"yes","ref":"A5202","name":"Royal College Street","lanes":"1","oneway":"yes","highway":"primary","surface":"asphalt","cycleway":"separate","maxspeed":"20 mph","sidewalk":"both","traffic_calming":"cushion","tfl_id":"RWG003558","osm_id":835622321},"geometry":{"type":"LineString","coordinates":[[-0.137964746711442,51.5413550112177],[-0.138178599980765,51.5416031947755],[-0.138198599980763,51.5416321947755],[-0.138240884841448,51.5416730320521]]}},{"type":"Feature","properties":{"lit":"yes","name":"Gordon Square","oneway":"yes","highway":"tertiary","name:ja":"ゴードン・スクエア","surface":"asphalt","abutters":"mixed","cycleway":"separate","maxspeed":"20 mph","sidewalk":"both","tfl_id":"RWG066088","osm_id":8173099},"geometry":{"type":"LineString","coordinates":[[-0.129746435556529,51.5239001852289],[-0.129745099981939,51.5239006947759],[-0.129611299981958,51.523950594776],[-0.129344199981995,51.524067794776],[-0.129301099982001,51.5240993947759]]}},{"type":"Feature","properties":{"lit":"yes","name":"Gordon Square","oneway":"yes","highway":"tertiary","surface":"asphalt","cycleway":"separate","maxspeed":"20 mph","sidewalk":"both","tfl_id":"RWG066088","osm_id":587309226},"geometry":{"type":"LineString","coordinates":[[-0.129301099982001,51.5240993947759],[-0.129111399982028,51.5241804947759],[-0.129108700441388,51.5241816668188]]}},{"type":"Feature","properties":{"lit":"yes","name":"Torrington Place","oneway":"yes","bicycle":"designated","highway":"tertiary","surface":"asphalt","cycleway":"opposite","maxspeed":"20 mph","sidewalk":"right","oneway:bicycle":"no","tfl_id":"RWG066115","osm_id":605078470},"geometry":{"type":"LineString","coordinates":[[-0.132513020218883,51.5225155759843],[-0.132478699981559,51.522529294776]]}},{"type":"Feature","properties":{"lit":"yes","name":"Torrington Place","oneway":"yes","bicycle":"designated","highway":"tertiary","surface":"asphalt","maxspeed":"20 mph","sidewalk":"right","cycleway:right":"track","oneway:bicycle":"no","cycleway:est_width":"2","cycleway:right:oneway":"-1","tfl_id":"RWG066115","osm_id":758462266},"geometry":{"type":"LineString","coordinates":[[-0.132478699981559,51.522529294776],[-0.132311199981582,51.522596294776],[-0.131899299981639,51.522759394776]]}},{"type":"Feature","properties":{"lit":"yes","name":"Torrington Place","oneway":"yes","bicycle":"designated","highway":"tertiary","surface":"asphalt","maxspeed":"20 mph","sidewalk":"right","cycleway:right":"lane","oneway:bicycle":"no","cycleway:est_width":"2","cycleway:right:oneway":"-1","tfl_id":"RWG066115","osm_id":758462268},"geometry":{"type":"LineString","coordinates":[[-0.131899299981639,51.522759394776],[-0.131799099981653,51.522796594776],[-0.131769299981658,51.522808494776]]}},{"type":"Feature","properties":{"lit":"yes","name":"Torrington Place","oneway":"yes","bicycle":"designated","highway":"tertiary","surface":"asphalt","abutters":"mixed","maxspeed":"20 mph","sidewalk":"both","cycleway:right":"lane","oneway:bicycle":"no","cycleway:est_width":"2","cycleway:right:oneway":"-1","tfl_id":"RWG066115","osm_id":3087832},"geometry":{"type":"LineString","coordinates":[[-0.131769299981658,51.522808494776],[-0.131752964335785,51.5228150290376]]}},{"type":"Feature","properties":{"lit":"yes","name":"Tavistock Square","lanes":"1","oneway":"yes","highway":"tertiary","surface":"asphalt","abutters":"mixed","cycleway":"separate","maxspeed":"20 mph","sidewalk":"both","tfl_id":"RWG066086","osm_id":3241842},"geometry":{"type":"LineString","coordinates":[[-0.1282227986445,51.5245384084333],[-0.128076399982172,51.5246020947759],[-0.128029630747201,51.5246290137148]]}},{"type":"Feature","properties":{"lit":"yes","ref":"A5202","name":"Royal College Street","oneway":"yes","highway":"primary","surface":"asphalt","cycleway":"separate","maxspeed":"20 mph","sidewalk":"right","traffic_calming":"cushion","tfl_id":"RWG003346","osm_id":552732632},"geometry":{"type":"LineString","coordinates":[[-0.133248701988595,51.5356251107192],[-0.133294999981445,51.5356672947757],[-0.133341199981439,51.5357247947757],[-0.133411999981429,51.5358133947757],[-0.134011899981345,51.5365647947757],[-0.13412479998133,51.5366997947757],[-0.134469199981282,51.5371031947756],[-0.134560499981269,51.5372141947756],[-0.134574477258369,51.5372255797127]]}},{"type":"Feature","properties":{"lit":"yes","ref":"A5202","name":"Royal College Street","oneway":"yes","highway":"primary","surface":"asphalt","cycleway":"separate","maxspeed":"20 mph","sidewalk":"right","traffic_calming":"cushion","tfl_id":"RWG003350","osm_id":552732632},"geometry":{"type":"LineString","coordinates":[[-0.134101488493131,51.5366719201326],[-0.13412479998133,51.5366997947757],[-0.134429749538886,51.5370569861635]]}},{"type":"Feature","properties":{"lit":"yes","ref":"A5202","name":"Royal College Street","oneway":"yes","highway":"primary","surface":"asphalt","cycleway":"separate","maxspeed":"20 mph","sidewalk":"right","traffic_calming":"cushion","tfl_id":"RWG003345","osm_id":552732632},"geometry":{"type":"LineString","coordinates":[[-0.133261077349207,51.5356363864367],[-0.133294999981445,51.5356672947757],[-0.133341199981439,51.5357247947757],[-0.133411999981429,51.5358133947757],[-0.133424233094083,51.535828717388]]}},{"type":"Feature","properties":{"lit":"yes","ref":"A5202","name":"Royal College Street","lanes":"2","oneway":"yes","highway":"primary","surface":"asphalt","maxspeed":"20 mph","sidewalk":"both","cycleway:right":"separate","traffic_calming":"cushion","tfl_id":"RWG030486","osm_id":835622324},"geometry":{"type":"LineString","coordinates":[[-0.137590636818837,51.5409240692539],[-0.137630799980842,51.5409702947755]]}},{"type":"Feature","properties":{"lit":"yes","ref":"A5202","name":"Royal College Street","lanes":"2","oneway":"yes","highway":"primary","surface":"asphalt","cycleway":"separate","maxspeed":"20 mph","sidewalk":"both","traffic_calming":"cushion","tfl_id":"RWG030486","osm_id":835622320},"geometry":{"type":"LineString","coordinates":[[-0.137630799980842,51.5409702947755],[-0.137823808664259,51.5411923893146]]}},{"type":"Feature","properties":{"lit":"yes","ref":"A5202","name":"Royal College Street","oneway":"yes","highway":"primary","surface":"asphalt","cycleway":"separate","maxspeed":"20 mph","sidewalk":"right","traffic_calming":"cushion","tfl_id":"RWG030491","osm_id":552732632},"geometry":{"type":"LineString","coordinates":[[-0.134012983070724,51.53656608988],[-0.134100792396564,51.5366710877769]]}},{"type":"Feature","properties":{"lit":"yes","ref":"A5202","name":"Pancras Road","lanes":"2","highway":"primary","surface":"asphalt","maxspeed":"20 mph","sidewalk":"both","tfl_id":"RWG003352","osm_id":665451882},"geometry":{"type":"LineString","coordinates":[[-0.132427969556171,51.5354234154201],[-0.13239699998157,51.5354111947757]]}},{"type":"Feature","properties":{"lit":"yes","ref":"A5202","name":"Pancras Road","lanes":"2","highway":"primary","rcn_ref":"C","surface":"asphalt","maxspeed":"20 mph","sidewalk":"both","cycleway:left":"separate","tfl_id":"RWG003352","osm_id":665451888},"geometry":{"type":"LineString","coordinates":[[-0.13239699998157,51.5354111947757],[-0.13225499998159,51.5353497947757]]}},{"type":"Feature","properties":{"lit":"yes","ref":"A5202","name":"Pancras Road","lanes":"3","highway":"primary","surface":"asphalt","cycleway":"separate","maxspeed":"20 mph","sidewalk":"both","turn:lanes":"through;right|right","bicycle:lanes":"yes|designated","lanes:forward":"2","cyclestreets_id":"21997","tfl_id":"RWG003352","osm_id":235155193},"geometry":{"type":"LineString","coordinates":[[-0.13225499998159,51.5353497947757],[-0.13182499998165,51.5351787947757],[-0.131637670214778,51.5351018548616]]}},{"type":"Feature","properties":{"lit":"yes","ref":"A5202","name":"Pancras Road","highway":"primary","surface":"asphalt","cycleway":"separate","maxspeed":"20 mph","sidewalk":"both","lane_markings":"no","tfl_id":"RWG026466","osm_id":166369347},"geometry":{"type":"LineString","coordinates":[[-0.131141999981745,51.5348906947757],[-0.130700899981806,51.5346904947757],[-0.129984999981906,51.5343721947757],[-0.12989197552453,51.5343249995594]]}},{"type":"Feature","properties":{"lit":"yes","ref":"A5202","name":"Pancras Road","lanes":"2","highway":"primary","surface":"asphalt","cycleway":"separate","maxspeed":"20 mph","sidewalk":"both","tfl_id":"RWG026466","osm_id":882535451},"geometry":{"type":"LineString","coordinates":[[-0.131358299981715,51.5349844947757],[-0.131141999981745,51.5348906947757]]}},{"type":"Feature","properties":{"lit":"yes","ref":"A5202","name":"Pancras Road","lanes":"2","highway":"primary","surface":"asphalt","cycleway":"separate","maxspeed":"20 mph","sidewalk":"both","tfl_id":"RWG026466","osm_id":882535450},"geometry":{"type":"LineString","coordinates":[[-0.131396160383675,51.5350008859577],[-0.131358299981715,51.5349844947757]]}},{"type":"Feature","properties":{"lit":"yes","ref":"A5202","name":"Pancras Road","lanes":"3","highway":"primary","surface":"asphalt","cycleway":"separate","maxspeed":"20 mph","sidewalk":"both","turn:lanes":"through;right|right","bicycle:lanes":"yes|designated","lanes:forward":"2","cyclestreets_id":"21997","tfl_id":"RWG025543","osm_id":235155193},"geometry":{"type":"LineString","coordinates":[[-0.132063377187555,51.5352735913718],[-0.13182499998165,51.5351787947757],[-0.131642678768931,51.5351039119722]]}},{"type":"Feature","properties":{"lit":"yes","ref":"A5202","name":"Pancras Road","highway":"primary","surface":"asphalt","maxspeed":"20 mph","sidewalk":"both","tfl_id":"RWG151022","osm_id":11266299},"geometry":{"type":"LineString","coordinates":[[-0.133092799611931,51.5355488724387],[-0.13304549998148,51.5355460947757]]}},{"type":"Feature","properties":{"lit":"yes","ref":"A5202","name":"Crowndale Road","oneway":"yes","highway":"primary","maxspeed":"20 mph","sidewalk":"left","tfl_id":"RWG151022","osm_id":253354178},"geometry":{"type":"LineString","coordinates":[[-0.13304549998148,51.5355460947757],[-0.132946999981494,51.5355639947757],[-0.132713399981526,51.5355297947757]]}},{"type":"Feature","properties":{"lit":"yes","ref":"A5202","name":"Royal College Street","lanes":"1","oneway":"yes","highway":"primary","surface":"asphalt","cycleway":"separate","maxspeed":"20 mph","sidewalk":"separate","traffic_calming":"cushion","tfl_id":"RWG030482","osm_id":374914321},"geometry":{"type":"LineString","coordinates":[[-0.139122783443903,51.5426709073508],[-0.139190999980624,51.5427484947755],[-0.139373699980599,51.5429569947755],[-0.139397289993364,51.5429839003192]]}},{"type":"Feature","properties":{"lit":"yes","ref":"A5202","name":"Pancras Road","highway":"primary","surface":"asphalt","cycleway":"separate","maxspeed":"20 mph","sidewalk":"both","lane_markings":"no","tfl_id":"RWG030519","osm_id":166369347},"geometry":{"type":"LineString","coordinates":[[-0.131141999981745,51.5348906947757],[-0.130700899981806,51.5346904947757],[-0.130395229265079,51.5345545892104]]}},{"type":"Feature","properties":{"lit":"yes","ref":"A5202","name":"Pancras Road","lanes":"2","highway":"primary","surface":"asphalt","cycleway":"separate","maxspeed":"20 mph","sidewalk":"both","tfl_id":"RWG030519","osm_id":882535451},"geometry":{"type":"LineString","coordinates":[[-0.131358299981715,51.5349844947757],[-0.131141999981745,51.5348906947757]]}},{"type":"Feature","properties":{"lit":"yes","ref":"A5202","name":"Pancras Road","lanes":"2","highway":"primary","surface":"asphalt","cycleway":"separate","maxspeed":"20 mph","sidewalk":"both","tfl_id":"RWG030519","osm_id":882535450},"geometry":{"type":"LineString","coordinates":[[-0.131405480692804,51.5350049210666],[-0.131358299981715,51.5349844947757]]}},{"type":"Feature","properties":{"lit":"yes","ref":"A5202","name":"Royal College Street","oneway":"yes","highway":"primary","surface":"asphalt","cycleway":"separate","maxspeed":"20 mph","sidewalk":"right","traffic_calming":"cushion","tfl_id":"RWG003578","osm_id":253353304},"geometry":{"type":"LineString","coordinates":[[-0.135556520342888,51.5384556313128],[-0.135575799981128,51.5384792947756],[-0.13562859998112,51.5385440947756],[-0.135740199981105,51.5386809947756],[-0.135859699981088,51.5388095947756],[-0.135926699981079,51.5388726947756]]}},{"type":"Feature","properties":{"lit":"yes","ref":"A5202","name":"Royal College Street","oneway":"yes","highway":"primary","surface":"asphalt","maxspeed":"20 mph","sidewalk":"right","cycleway:left":"lane","cycleway:right":"separate","traffic_calming":"cushion","tfl_id":"RWG003578","osm_id":642635290},"geometry":{"type":"LineString","coordinates":[[-0.135926699981079,51.5388726947756],[-0.135969011613232,51.5389249504174]]}},{"type":"Feature","properties":{"lit":"yes","ref":"A5202","name":"Royal College Street","oneway":"yes","highway":"primary","surface":"asphalt","cycleway":"separate","maxspeed":"20 mph","sidewalk":"right","traffic_calming":"cushion","tfl_id":"RWG003579","osm_id":253353304},"geometry":{"type":"LineString","coordinates":[[-0.134847847828681,51.5375642183866],[-0.135104799981193,51.5379011947756],[-0.135552964105202,51.5384512664527]]}},{"type":"Feature","properties":{"lit":"yes","ref":"A5202","name":"Royal College Street","oneway":"yes","highway":"primary","surface":"asphalt","cycleway":"separate","maxspeed":"20 mph","sidewalk":"right","traffic_calming":"cushion","tfl_id":"RWG030490","osm_id":253353304},"geometry":{"type":"LineString","coordinates":[[-0.13479224283307,51.5374897316073],[-0.134804899981235,51.5375078947756],[-0.134918690853821,51.5376571247529]]}},{"type":"Feature","properties":{"lit":"yes","ref":"A5202","name":"St Pancras Way","lanes":"1","oneway":"yes","highway":"primary","surface":"asphalt","maxspeed":"20 mph","sidewalk":"left","maxheight":"4.6","tfl_id":"RWG003546","osm_id":722371172},"geometry":{"type":"LineString","coordinates":[[-0.135623691606282,51.5418540400132],[-0.135603158888481,51.5418361701752]]}},{"type":"Feature","properties":{"lit":"yes","ref":"A5202","name":"Royal College Street","lanes":"2","layer":"1","bridge":"yes","oneway":"yes","highway":"primary","surface":"asphalt","cycleway":"separate","maxspeed":"20 mph","sidewalk":"both","bridge_ref":"28","traffic_calming":"cushion","tfl_id":"RWG150980","osm_id":48379512},"geometry":{"type":"LineString","coordinates":[[-0.137375999980877,51.5406635947755],[-0.137447099980867,51.5407449947755]]}},{"type":"Feature","properties":{"lit":"yes","ref":"A5202","name":"Royal College Street","lanes":"2","layer":"1","bridge":"yes","oneway":"yes","highway":"primary","surface":"asphalt","maxspeed":"20 mph","sidewalk":"both","bridge_ref":"28","cycleway:left":"lane","cycleway:right":"separate","traffic_calming":"cushion","tfl_id":"RWG150980","osm_id":835622326},"geometry":{"type":"LineString","coordinates":[[-0.137447099980867,51.5407449947755],[-0.137472799980864,51.5407747947755],[-0.137492324727758,51.5408008874851]]}},{"type":"Feature","properties":{"lit":"yes","ref":"A5202","name":"Royal College Street","lanes":"2","oneway":"yes","highway":"primary","surface":"asphalt","cycleway":"separate","maxspeed":"20 mph","sidewalk":"both","traffic_calming":"cushion","tfl_id":"RWG150980","osm_id":642635291},"geometry":{"type":"LineString","coordinates":[[-0.137324826692664,51.5406014342949],[-0.137375999980877,51.5406635947755]]}},{"type":"Feature","properties":{"lit":"yes","ref":"A5202","name":"Royal College Street","oneway":"yes","highway":"primary","surface":"asphalt","cycleway":"separate","maxspeed":"20 mph","sidewalk":"right","traffic_calming":"cushion","tfl_id":"RWG003580","osm_id":253353304},"geometry":{"type":"LineString","coordinates":[[-0.135839190882484,51.5387875239221],[-0.135859699981088,51.5388095947756],[-0.135886002938195,51.5388343666755]]}},{"type":"Feature","properties":{"lit":"yes","ref":"A5202","name":"Royal College Street","lanes":"1","oneway":"yes","highway":"primary","surface":"asphalt","cycleway":"separate","maxspeed":"20 mph","sidewalk":"separate","traffic_calming":"cushion","tfl_id":"RWG000087","osm_id":374914321},"geometry":{"type":"LineString","coordinates":[[-0.138587132758771,51.5420616698721],[-0.139161248490871,51.5427146563476]]}},{"type":"Feature","properties":{"lit":"yes","ref":"A5202","name":"Royal College Street","lanes":"1","oneway":"yes","highway":"primary","surface":"asphalt","cycleway":"separate","maxspeed":"20 mph","sidewalk":"separate","traffic_calming":"cushion","tfl_id":"RWG000088","osm_id":374914321},"geometry":{"type":"LineString","coordinates":[[-0.139212256901773,51.5427727535442],[-0.139373699980599,51.5429569947755],[-0.139663999980559,51.5432880947755]]}},{"type":"Feature","properties":{"lit":"yes","ref":"A5202","name":"Royal College Street","lanes":"1","oneway":"yes","highway":"primary","surface":"asphalt","maxspeed":"20 mph","sidewalk":"both","cycleway:left":"track","cycleway:right":"lane","oneway:bicycle":"no","traffic_calming":"cushion","cycleway:right:oneway":"-1","tfl_id":"RWG000088","osm_id":502802556},"geometry":{"type":"LineString","coordinates":[[-0.139663999980559,51.5432880947755],[-0.139692199980555,51.5433126947755],[-0.139714009530273,51.5433352749969]]}},{"type":"Feature","properties":{"lit":"yes","ref":"A5202","name":"Royal College Street","lanes":"2","layer":"1","bridge":"yes","oneway":"yes","highway":"primary","surface":"asphalt","cycleway":"separate","maxspeed":"20 mph","sidewalk":"both","bridge_ref":"28","traffic_calming":"cushion","tfl_id":"RWG038313","osm_id":48379512},"geometry":{"type":"LineString","coordinates":[[-0.137375999980877,51.5406635947755],[-0.137417058700085,51.5407106015407]]}},{"type":"Feature","properties":{"lit":"yes","ref":"A5202","name":"Royal College Street","lanes":"2","oneway":"yes","highway":"primary","surface":"asphalt","cycleway":"separate","maxspeed":"20 mph","sidewalk":"both","traffic_calming":"cushion","tfl_id":"RWG038313","osm_id":642635291},"geometry":{"type":"LineString","coordinates":[[-0.136797199980958,51.5399564947756],[-0.136874399980947,51.5400542947756],[-0.137375999980877,51.5406635947755]]}},{"type":"Feature","properties":{"lit":"yes","ref":"A5202","name":"Royal College Street","lanes":"1","oneway":"yes","highway":"primary","surface":"asphalt","cycleway":"separate","maxspeed":"20 mph","sidewalk":"separate","traffic_calming":"cushion","tfl_id":"RWG030481","osm_id":374914321},"geometry":{"type":"LineString","coordinates":[[-0.139399007063402,51.5429858587195],[-0.139633898769883,51.5432537631242]]}},{"type":"Feature","properties":{"lit":"yes","ref":"A5202","name":"St. Pancras Way","oneway":"yes","highway":"primary","maxspeed":"20 mph","sidewalk":"left","tfl_id":"RWG025586","osm_id":8217863},"geometry":{"type":"LineString","coordinates":[[-0.140606699980427,51.5441390947755],[-0.140554121314357,51.5441017736506]]}},{"properties":{"lit":"yes","ref":"A5202","name":"Royal College Street","oneway":"no","highway":"primary","maxspeed":"20 mph","sidewalk":"both","cycleway:left":"separate","tfl_id":"RWG025586","osm_id":11266297},"geometry":{"type":"LineString","coordinates":[[-0.140606699980427,51.5441390947755],[-0.140649267780448,51.5441884549029]]}},{"properties":{"lit":"yes","ref":"A5202","name":"Royal College Street","oneway":"no","highway":"primary","maxspeed":"20 mph","sidewalk":"both","cycleway:left":"separate","tfl_id":"RWG025586","osm_id":11266297},"geometry":{"type":"LineString","coordinates":[[-0.14070707019471,51.5442554804689],[-0.140789699980402,51.5443512947755]]}},{"type":"Feature","properties":{"lit":"yes","ref":"A5202","name":"Royal College Street","oneway":"yes","highway":"primary","surface":"asphalt","maxspeed":"20 mph","sidewalk":"left","cycleway:left":"separate","tfl_id":"RWG025586","osm_id":835618254},"geometry":{"type":"LineString","coordinates":[[-0.14058225648155,51.5440893316705],[-0.140606699980427,51.5441390947755]]}},{"type":"Feature","properties":{"lit":"yes","ref":"A5202","name":"Royal College Street","highway":"primary","cycleway":"separate","maxspeed":"20 mph","sidewalk":"both","tfl_id":"RWG025586","osm_id":502802555},"geometry":{"type":"LineString","coordinates":[[-0.140787099980402,51.5443484947755],[-0.14109049998036,51.5447295947754],[-0.14116189998035,51.5448211947754]]}},{"type":"Feature","properties":{"lit":"yes","ref":"A5202","name":"Royal College Street","oneway":"no","highway":"primary","cycleway":"separate","maxspeed":"20 mph","sidewalk":"both","tfl_id":"RWG025586","osm_id":502802543},"geometry":{"type":"LineString","coordinates":[[-0.14116189998035,51.5448211947754],[-0.141207883896543,51.5448669745676]]}},{"type":"Feature","properties":{"lit":"yes","ref":"A5202","name":"Royal College Street","lanes":"1","oneway":"yes","highway":"primary","surface":"asphalt","cycleway":"separate","maxspeed":"20 mph","sidewalk":"separate","maxheight":"4.8","traffic_calming":"cushion","tfl_id":"RWG030483","osm_id":722085255},"geometry":{"type":"LineString","coordinates":[[-0.138538585635533,51.5419961409306],[-0.138567899980711,51.5420397947755]]}},{"type":"Feature","properties":{"lit":"yes","ref":"A5202","name":"Royal College Street","lanes":"1","oneway":"yes","highway":"primary","surface":"asphalt","cycleway":"separate","maxspeed":"20 mph","sidewalk":"separate","traffic_calming":"cushion","tfl_id":"RWG030483","osm_id":374914321},"geometry":{"type":"LineString","coordinates":[[-0.138567899980711,51.5420397947755],[-0.139122230167182,51.5426702780701]]}},{"type":"Feature","properties":{"lit":"yes","name":"Tavistock Place","oneway":"yes","highway":"tertiary","surface":"asphalt","cycleway":"separate","maxspeed":"20 mph","sidewalk":"both","tfl_id":"RWG153074","osm_id":743693922},"geometry":{"type":"LineString","coordinates":[[-0.125293153228006,51.5257302702573],[-0.125282399982561,51.5257330947759],[-0.124960085407648,51.5258082842747]]}},{"type":"Feature","properties":{"lit":"yes","name":"Tavistock Square","lanes":"1","oneway":"yes","highway":"tertiary","surface":"asphalt","abutters":"mixed","cycleway":"separate","maxspeed":"20 mph","sidewalk":"both","tfl_id":"RWG153080","osm_id":3241842},"geometry":{"type":"LineString","coordinates":[[-0.128744824841248,51.5243157790666],[-0.128696599982085,51.5243322947759],[-0.128403806872829,51.5244596661149]]}},{"type":"Feature","properties":{"lit":"yes","ref":"A5202","name":"Royal College Street","lanes":"2","oneway":"yes","highway":"primary","surface":"asphalt","maxspeed":"20 mph","sidewalk":"right","cycleway:left":"lane","cycleway:right":"separate","tfl_id":"RWG003576","osm_id":166369355},"geometry":{"type":"LineString","coordinates":[[-0.136441144401134,51.5395041110667],[-0.136579199980988,51.5396688947756]]}},{"type":"Feature","properties":{"lit":"yes","ref":"A5202","name":"Royal College Street","lanes":"2","oneway":"yes","highway":"primary","surface":"asphalt","maxspeed":"20 mph","sidewalk":"both","cycleway:right":"separate","tfl_id":"RWG003576","osm_id":253352352},"geometry":{"type":"LineString","coordinates":[[-0.136579199980988,51.5396688947756],[-0.136597299980986,51.5396903947756],[-0.136704799980971,51.5398316947756],[-0.136742799980965,51.5398854947755]]}},{"type":"Feature","properties":{"lit":"yes","ref":"A5202","name":"Royal College Street","lanes":"2","oneway":"yes","highway":"primary","surface":"asphalt","maxspeed":"20 mph","sidewalk":"both","cycleway:right":"separate","traffic_calming":"cushion","tfl_id":"RWG003576","osm_id":11266300},"geometry":{"type":"LineString","coordinates":[[-0.136742799980965,51.5398854947755],[-0.136772654849168,51.5399244597827]]}},{"type":"Feature","properties":{"lit":"yes","name":"Maple Street","oneway":"yes","highway":"unclassified","surface":"asphalt","maxspeed":"20 mph","sidewalk":"left","postal_code":"W1","tfl_id":"RWG152163","osm_id":770901750},"geometry":{"type":"LineString","coordinates":[[-0.137420246910963,51.5226867375318],[-0.137389107918635,51.5227001385347]]}},{"type":"Feature","properties":{"lit":"yes","name":"Tavistock Place","oneway":"yes","highway":"tertiary","surface":"asphalt","maxspeed":"20 mph","sidewalk":"both","tfl_id":"RWG153075","osm_id":2876128},"geometry":{"type":"LineString","coordinates":[[-0.126554289730608,51.5252494033184],[-0.126419399982402,51.5253064947759],[-0.125772399982492,51.5255787947759],[-0.125671599982506,51.5256188947759],[-0.125664731035268,51.5256203678756]]}},{"type":"Feature","properties":{"lit":"yes","name":"Tavistock Place","oneway":"yes","highway":"tertiary","surface":"asphalt","maxspeed":"20 mph","sidewalk":"both","tfl_id":"RWG153077","osm_id":2876128},"geometry":{"type":"LineString","coordinates":[[-0.127621612998195,51.5247983767227],[-0.12744199998226,51.5248757947759],[-0.127376899982269,51.5249010947759],[-0.126756202259725,51.5251639316136]]}},{"type":"Feature","properties":{"lit":"yes","ref":"A501","foot":"yes","name":"Euston Road","horse":"yes","lanes":"2","oneway":"yes","bicycle":"yes","highway":"trunk","surface":"asphalt","maxspeed":"30 mph","operator":"Transport for London","sidewalk":"no","smoothness":"excellent","tfl_id":"RWG066712","osm_id":367808661},"geometry":{"type":"LineString","coordinates":[[-0.122581299982937,51.5305599947758],[-0.122667499982925,51.5305328947758],[-0.122783051537847,51.5304898354757]]}},{"type":"Feature","properties":{"lit":"yes","ref":"A501","foot":"yes","name":"Gray's Inn Road","horse":"yes","lanes":"2","oneway":"yes","bicycle":"yes","highway":"trunk","surface":"asphalt","maxspeed":"30 mph","operator":"Transport for London","sidewalk":"no","smoothness":"excellent","tfl_id":"RWG066712","osm_id":36814928},"geometry":{"type":"LineString","coordinates":[[-0.122432175559335,51.530588225802],[-0.122453599982954,51.5305860947758],[-0.122506499982947,51.5305772947758],[-0.122581299982937,51.5305599947758]]}},{"type":"Feature","properties":{"lit":"yes","name":"Boundary Road","oneway":"yes","highway":"tertiary","maxspeed":"20 mph","operator":"City of Westminster","sidewalk":"both","tfl_id":"RWG152064","osm_id":764111181},"geometry":{"type":"LineString","coordinates":[[-0.176320317453628,51.539641757826],[-0.17629089997546,51.5396395947756]]}},{"type":"Feature","properties":{"lit":"yes","name":"Boundary Road","oneway":"yes","highway":"tertiary","maxspeed":"20 mph","operator":"City of Westminster","sidewalk":"left","cycleway:right":"lane","tfl_id":"RWG152064","osm_id":497285546},"geometry":{"type":"LineString","coordinates":[[-0.17629089997546,51.5396395947756],[-0.176026499975497,51.5396274947756],[-0.175981899975503,51.5396244947756],[-0.175873978695798,51.5396187228665]]}},{"type":"Feature","properties":{"lit":"yes","ref":"A219","foot":"no","name":"Wood Lane","horse":"no","lanes":"1","oneway":"yes","bicycle":"no","highway":"primary_link","surface":"asphalt","maxspeed":"20 mph","sidewalk":"separate","tfl_id":"RWG102621","osm_id":313508696},"geometry":{"type":"LineString","coordinates":[[-0.225923085452773,51.5148580255964],[-0.22592959996855,51.5148441947762],[-0.22593774641347,51.5148169703356]]}},{"type":"Feature","properties":{"lit":"yes","name":"Torrington Place","oneway":"yes","highway":"tertiary","surface":"asphalt","maxspeed":"20 mph","sidewalk":"left","tfl_id":"RWG066106","osm_id":681757489},"geometry":{"type":"LineString","coordinates":[[-0.133967499981352,51.521938194776],[-0.134468599981282,51.521737894776],[-0.134767824049852,51.5216191589519]]}},{"type":"Feature","properties":{"lit":"yes","name":"Torrington Place","oneway":"yes","highway":"tertiary","surface":"asphalt","maxspeed":"20 mph","sidewalk":"left","cycleway:left":"lane","cycleway:est_width":"2","tfl_id":"RWG066106","osm_id":681757485},"geometry":{"type":"LineString","coordinates":[[-0.133919167772572,51.5219582349636],[-0.133967499981352,51.521938194776]]}},{"type":"Feature","properties":{"lit":"yes","ref":"B126","name":"Cable Street","oneway":"yes","highway":"secondary","maxspeed":"20 mph","sidewalk":"left","cycleway:right":"separate","cycleway:right:oneway":"no","tfl_id":"RWG135079","osm_id":5148716},"geometry":{"type":"LineString","coordinates":[[-0.056584580277654,51.5111094565258],[-0.056704417273407,51.5111094063638]]}},{"type":"Feature","properties":{"lit":"yes","name":"Tavistock Place","oneway":"yes","highway":"tertiary","surface":"asphalt","cycleway":"separate","maxspeed":"20 mph","sidewalk":"both","tfl_id":"RWG108308","osm_id":743693922},"geometry":{"type":"LineString","coordinates":[[-0.124823570029401,51.5258394282498],[-0.124662399982647,51.5258756947759],[-0.124001499982739,51.5260297947759],[-0.123963599982744,51.5260388947759]]}},{"type":"Feature","properties":{"lit":"yes","name":"Tavistock Place","oneway":"yes","highway":"tertiary","surface":"asphalt","cycleway":"separate","maxspeed":"20 mph","sidewalk":"both","tfl_id":"RWG108308","osm_id":743705606},"geometry":{"type":"LineString","coordinates":[[-0.123963599982744,51.5260388947759],[-0.123900299982753,51.5260499947759],[-0.123842284733077,51.5260634530979]]}},{"properties":{"lit":"yes","ref":"B126","name":"Cable Street","oneway":"yes","highway":"secondary","maxspeed":"20 mph","sidewalk":"left","cycleway:right":"separate","cycleway:right:oneway":"no","tfl_id":"RWG066954","osm_id":10370860},"geometry":{"type":"LineString","coordinates":[[-0.048544584853857,51.5112545161241],[-0.049434470062864,51.5111734291725]]}},{"properties":{"lit":"yes","ref":"B126","name":"Cable Street","oneway":"yes","highway":"secondary","maxspeed":"20 mph","sidewalk":"left","cycleway:right":"separate","cycleway:right:oneway":"no","tfl_id":"RWG066954","osm_id":10370860},"geometry":{"type":"LineString","coordinates":[[-0.049616843450928,51.5111575799244],[-0.050089002921963,51.5111256418293]]}},{"type":"Feature","properties":{"lit":"yes","ref":"B126","name":"Cable Street","oneway":"yes","highway":"secondary","sidewalk":"left","cycleway:right":"separate","cycleway:right:oneway":"no","tfl_id":"RWG066955","osm_id":232178248},"geometry":{"type":"LineString","coordinates":[[-0.044174131660625,51.511530775346],[-0.043977599993878,51.5115454947763],[-0.04360589999393,51.5115597947763],[-0.042923699994025,51.5116091947762],[-0.042692266891256,51.5116129352467]]}},{"properties":{"lit":"yes","ref":"B126","name":"Cable Street","oneway":"yes","highway":"secondary","surface":"asphalt","maxspeed":"20 mph","sidewalk":"left","cycleway:right":"separate","cycleway:right:oneway":"no","tfl_id":"RWG066961","osm_id":226429029},"geometry":{"type":"LineString","coordinates":[[-0.064372227677568,51.5110888542253],[-0.064761399990985,51.5110738947763],[-0.064765069245733,51.511073689435]]}},{"properties":{"lit":"yes","ref":"B126","name":"Cable Street","oneway":"yes","highway":"secondary","surface":"asphalt","maxspeed":"20 mph","sidewalk":"left","cycleway:right":"separate","cycleway:right:oneway":"no","tfl_id":"RWG066961","osm_id":226429029},"geometry":{"type":"LineString","coordinates":[[-0.066184561457233,51.5109753796737],[-0.066253359952856,51.5109697577556]]}},{"type":"Feature","properties":{"lit":"yes","ref":"B126","name":"Cable Street","oneway":"yes","highway":"secondary","sidewalk":"left","cycleway:right":"separate","cycleway:right:oneway":"no","tfl_id":"RWG108351","osm_id":232178248},"geometry":{"type":"LineString","coordinates":[[-0.04473235450885,51.5115202446276],[-0.044371592654706,51.5115230683044]]}},{"properties":{"lit":"yes","ref":"B126","name":"Cable Street","oneway":"yes","highway":"secondary","surface":"asphalt","maxspeed":"20 mph","sidewalk":"left","cycleway:right":"separate","cycleway:right:oneway":"no","tfl_id":"RWG066030","osm_id":226429029},"geometry":{"type":"LineString","coordinates":[[-0.061160273293802,51.5110329701028],[-0.061559199991431,51.5110334947763],[-0.062910699991243,51.5110892947763],[-0.063004797097803,51.5110911786024]]}},{"properties":{"lit":"yes","ref":"B126","name":"Cable Street","oneway":"yes","highway":"secondary","surface":"asphalt","maxspeed":"20 mph","sidewalk":"left","cycleway:right":"separate","cycleway:right:oneway":"no","tfl_id":"RWG066030","osm_id":226429029},"geometry":{"type":"LineString","coordinates":[[-0.063182093323218,51.5110947280765],[-0.063317809576964,51.5110974451185]]}},{"type":"Feature","properties":{"lit":"yes","ref":"B126","name":"Cable Street","oneway":"yes","highway":"secondary","maxspeed":"20 mph","sidewalk":"left","cycleway:right":"separate","cycleway:right:oneway":"no","tfl_id":"RWG066664","osm_id":226429031},"geometry":{"type":"LineString","coordinates":[[-0.053417448889616,51.5108273135017],[-0.053453428717842,51.5108331580307]]}},{"type":"Feature","properties":{"lit":"yes","ref":"B126","name":"Cable Street","oneway":"yes","highway":"secondary","maxspeed":"20 mph","sidewalk":"left","cycleway:right":"separate","cycleway:right:oneway":"no","tfl_id":"RWG108314","osm_id":226429031},"geometry":{"type":"LineString","coordinates":[[-0.05061715951747,51.511070495314],[-0.050955699992907,51.5110272947763],[-0.051288099992861,51.5109819947763],[-0.052350786912508,51.5108289715669]]}},{"type":"Feature","properties":{"lit":"yes","ref":"A106","name":"Victoria Park Road","oneway":"yes","highway":"primary","surface":"asphalt","maxspeed":"20 mph","tfl_id":"RWG008836","osm_id":294423310},"geometry":{"type":"LineString","coordinates":[[-0.038540237635095,51.5407955685184],[-0.038561699994632,51.5407536947755],[-0.038606370696578,51.5407224478534]]}},{"type":"Feature","properties":{"lit":"yes","ref":"A202","name":"Kennington Oval","lanes":"2","highway":"trunk","maxspeed":"20 mph","operator":"Transport for London","postal_code":"SE11","cycleway:left":"separate","cycleway:left:oneway":"no","tfl_id":"RWG055964","osm_id":10430408},"geometry":{"type":"LineString","coordinates":[[-0.116764263493696,51.4836837416982],[-0.11680829998374,51.4837345947769],[-0.116840799983736,51.4837903947769],[-0.116952733858482,51.4840305689968]]}},{"type":"Feature","properties":{"name":"Cowthorpe Road","FIXME":"Check name: OSM has Cawthorpe Road, OS has Cowthorpe Road.","oneway":"yes","highway":"residential","surface":"asphalt","maxspeed":"20 mph","sidewalk":"left","tfl_id":"RWG056430","osm_id":749089529},"geometry":{"type":"LineString","coordinates":[[-0.130810719750759,51.4765299057197],[-0.130771799981796,51.4765238947771],[-0.130548514528134,51.4764631276471]]}},{"type":"Feature","properties":{"lit":"yes","ref":"A202","name":"Harleyford Road","lanes":"2","highway":"trunk","maxspeed":"20 mph","operator":"Transport for London","postal_code":"SE11","cycleway:left":"separate","cycleway:left:oneway":"no","tfl_id":"RWG056110","osm_id":11910018},"geometry":{"type":"LineString","coordinates":[[-0.118131870771671,51.4845873371815],[-0.118430199983514,51.4847086947769]]}},{"type":"Feature","properties":{"lit":"yes","ref":"A202","name":"Harleyford Road","lanes":"2","oneway":"yes","highway":"trunk","maxspeed":"20 mph","operator":"Transport for London","sidewalk":"both","postal_code":"SE11","cycleway:left":"separate","cycleway:left:oneway":"no","tfl_id":"RWG056110","osm_id":232676128},"geometry":{"type":"LineString","coordinates":[[-0.118740299983471,51.4848312947769],[-0.118974726199483,51.4849343564829]]}},{"type":"Feature","properties":{"lit":"yes","ref":"A202","name":"Harleyford Road","lanes":"2","oneway":"yes","highway":"trunk","maxspeed":"20 mph","operator":"Transport for London","postal_code":"SE11","cycleway:left":"separate","cycleway:left:oneway":"no","tfl_id":"RWG056110","osm_id":59439984},"geometry":{"type":"LineString","coordinates":[[-0.118430199983514,51.4847086947769],[-0.118518099983502,51.4847197947769],[-0.118589999983492,51.4847489947769],[-0.118671099983481,51.4847874947769],[-0.118740299983471,51.4848312947769]]}},{"type":"Feature","properties":{"lit":"yes","name":"Constitution Hill","highway":"residential","surface":"asphalt","cycleway":"separate","maxspeed":"20 mph","maxspeed:type":"GB:zone20","tfl_id":"RWG152191","osm_id":48049629},"geometry":{"type":"LineString","coordinates":[[-0.141493208998382,51.5021947453249],[-0.141361628845476,51.5021969623209]]}},{"properties":{"lit":"yes","ref":"A23","name":"Brixton Road","highway":"trunk","surface":"asphalt","cycleway":"separate","maxspeed":"30 mph","operator":"Transport for London","sidewalk":"both","class:bicycle:commute":"1","tfl_id":"RWG056511","osm_id":744514098},"geometry":{"type":"LineString","coordinates":[[-0.111456299984485,51.482365394777],[-0.111411899984491,51.482156094777],[-0.111395522555581,51.482094952406]]}},{"properties":{"lit":"yes","ref":"A23","name":"Brixton Road","highway":"trunk","surface":"asphalt","cycleway":"separate","maxspeed":"30 mph","operator":"Transport for London","sidewalk":"both","class:bicycle:commute":"1","tfl_id":"RWG056511","osm_id":744514098},"geometry":{"type":"LineString","coordinates":[[-0.111366964029289,51.4820170503832],[-0.111325599984503,51.481934894777],[-0.111250999984514,51.481825394777],[-0.111212442452747,51.4817685310562]]}},{"type":"Feature","properties":{"lit":"yes","ref":"A23","name":"Brixton Road","highway":"trunk","surface":"asphalt","cycleway":"separate","maxspeed":"30 mph","operator":"Transport for London","sidewalk":"both","class:bicycle:commute":"1","tfl_id":"RWG056511","osm_id":744514104},"geometry":{"type":"LineString","coordinates":[[-0.111459199984485,51.482395894777],[-0.111456299984485,51.482365394777]]}},{"type":"Feature","properties":{"lit":"yes","ref":"A23","name":"Brixton Road","oneway":"yes","highway":"trunk","surface":"asphalt","cycleway":"separate","maxspeed":"30 mph","operator":"Transport for London","sidewalk":"both","class:bicycle:commute":"1","tfl_id":"RWG056511","osm_id":4061599},"geometry":{"type":"LineString","coordinates":[[-0.111436811908767,51.4825959962017],[-0.111414999984491,51.482431394777],[-0.111459199984485,51.482395894777]]}},{"type":"Feature","properties":{"name":"Elsham Road","oneway":"yes","highway":"residential","surface":"asphalt","maxspeed":"20 mph","cycleway:right":"lane","oneway:bicycle":"no","cycleway:right:oneway":"-1","tfl_id":"RWG153038","osm_id":679610485},"geometry":{"type":"LineString","coordinates":[[-0.211481122326682,51.5001670638331],[-0.211467899970563,51.5001572947765]]}},{"type":"Feature","properties":{"lit":"yes","name":"Margery Street","oneway":"yes","bicycle":"designated","highway":"tertiary","surface":"asphalt","abutters":"residential","maxspeed":"20 mph","sidewalk":"left","cycleway:left":"shared_lane","traffic_calming":"choker","proposed:motor_vehicle":"private","tfl_id":"RWG066581","osm_id":240509265},"geometry":{"type":"LineString","coordinates":[[-0.112214815919675,51.5266783014958],[-0.112407199984353,51.5265799947759],[-0.112422878705956,51.5265737744141]]}},{"type":"Feature","properties":{"bus":"yes","lit":"yes","foot":"yes","name":"Myddelton Street","access":"no","bicycle":"yes","highway":"unclassified","maxspeed":"20 mph","sidewalk":"both","motor_vehicle":"designated","tfl_id":"RWG066287","osm_id":4352300},"geometry":{"type":"LineString","coordinates":[[-0.1078295401425,51.5265365600024],[-0.107805699984993,51.5265592947759],[-0.107759394424674,51.5266021832178]]}},{"type":"Feature","properties":{"lit":"yes","ref":"A202","name":"Harleyford Road","lanes":"2","highway":"trunk","maxspeed":"20 mph","operator":"Transport for London","postal_code":"SE11","cycleway:left":"separate","cycleway:left:oneway":"no","tfl_id":"RWG055959","osm_id":11910018},"geometry":{"type":"LineString","coordinates":[[-0.117313600914162,51.4842546067419],[-0.117651985238713,51.4843921463428]]}},{"type":"Feature","properties":{"lit":"yes","name":"Webber Street","oneway":"yes","bicycle":"designated","highway":"residential","surface":"paving_stones","cycleway":"separate","maxspeed":"20 mph","sidewalk":"left","tfl_id":"RWG135156","osm_id":827047764},"geometry":{"type":"LineString","coordinates":[[-0.109404404974894,51.5022819772441],[-0.109420944011115,51.5022926339048]]}},{"type":"Feature","properties":{"lit":"yes","ref":"B126","name":"Cable Street","oneway":"yes","highway":"secondary","maxspeed":"20 mph","sidewalk":"left","cycleway:right":"separate","cycleway:right:oneway":"no","tfl_id":"RWG066656","osm_id":5148716},"geometry":{"type":"LineString","coordinates":[[-0.054258865010554,51.5110227549137],[-0.054317999992439,51.5110326947763],[-0.054462299992419,51.5110578947763],[-0.054568499992404,51.5110693947763],[-0.054660599992391,51.5110793947763],[-0.054746399992379,51.5110834947763],[-0.054775699992375,51.5110848947763],[-0.05510179999233,51.5110917947763],[-0.055197899992316,51.5110919947763],[-0.055608199992259,51.5110995947763],[-0.056185499992179,51.5111101947763],[-0.056401853710153,51.5111097025839]]}},{"type":"Feature","properties":{"lit":"yes","ref":"A11","name":"Whitechapel High Street","lanes":"2","oneway":"yes","highway":"trunk","surface":"asphalt","abutters":"retail","maxspeed":"30 mph","operator":"Transport for London","sidewalk":"left","cycleway:left":"lane","tfl_id":"RWG108357","osm_id":662524523},"geometry":{"type":"LineString","coordinates":[[-0.070231699990224,51.5157419947762],[-0.070306744437265,51.5157101395264]]}},{"type":"Feature","properties":{"lit":"yes","ref":"A11","name":"Whitechapel High Street","lanes":"2","oneway":"yes","highway":"trunk","surface":"asphalt","abutters":"retail","maxspeed":"30 mph","operator":"Transport for London","sidewalk":"left","cycleway:left":"separate","tfl_id":"RWG108357","osm_id":662524524},"geometry":{"type":"LineString","coordinates":[[-0.069974123871662,51.5158832381574],[-0.069994699990257,51.5158726947761],[-0.070132099990238,51.5157956947762],[-0.070231699990224,51.5157419947762]]}},{"type":"Feature","properties":{"lit":"yes","ref":"A302","name":"Great George Street","lanes":"1","oneway":"yes","highway":"primary","name:be":"Парламентская пл.","name:en":"Great George Street","name:ru":"Парламентская пл.","surface":"asphalt","alt_name":"Parliament Square","cycleway":"separate","junction":"circular","maxspeed":"20 mph","sidewalk":"separate","maxspeed:type":"GB:zone20","tfl_id":"RWG066306","osm_id":245380686},"geometry":{"type":"LineString","coordinates":[[-0.126487899982393,51.5009884947765],[-0.126434718606096,51.5009827695089]]}},{"type":"Feature","properties":{"lit":"yes","ref":"B126","name":"Cable Street","oneway":"yes","highway":"secondary","maxspeed":"20 mph","sidewalk":"left","cycleway:right":"separate","cycleway:right:oneway":"no","tfl_id":"RWG066024","osm_id":226429031},"geometry":{"type":"LineString","coordinates":[[-0.052352061700015,51.5108287880016],[-0.0524415999927,51.5108158947763],[-0.052681699992667,51.5107978947763],[-0.052900499992636,51.5107954947763],[-0.052909231911988,51.5107951702271]]}},{"type":"Feature","properties":{"lit":"yes","ref":"B126","name":"Cable Street","oneway":"yes","highway":"secondary","surface":"asphalt","maxspeed":"20 mph","sidewalk":"left","cycleway:right":"separate","cycleway:right:oneway":"no","tfl_id":"RWG066951","osm_id":226429029},"geometry":{"type":"LineString","coordinates":[[-0.066963872742677,51.5109111793625],[-0.067343299990626,51.5108789947763],[-0.06774659999057,51.5108490947763],[-0.067870833053891,51.5108406113631]]}},{"properties":{"lit":"yes","ref":"A1202","name":"Royal Mint Street","oneway":"yes","highway":"primary","maxspeed":"20 mph","sidewalk":"right","cycleway:left":"separate","cycleway:left:oneway":"no","tfl_id":"RWG066953","osm_id":243510987},"geometry":{"type":"LineString","coordinates":[[-0.072314933075971,51.5101774725855],[-0.071999599989978,51.5102156947763],[-0.071567399990038,51.5102585947763],[-0.071219550062937,51.5103140973073]]}},{"properties":{"lit":"yes","ref":"A1202","name":"Royal Mint Street","oneway":"yes","highway":"primary","maxspeed":"20 mph","sidewalk":"right","cycleway:left":"separate","cycleway:left:oneway":"no","tfl_id":"RWG066953","osm_id":243510987},"geometry":{"type":"LineString","coordinates":[[-0.070382441131904,51.5104874469602],[-0.069741199990292,51.5106225947763],[-0.069363999990344,51.5107014947763],[-0.069011099990394,51.5107601947763],[-0.068779599990426,51.5107914947762],[-0.068764695692296,51.5107932076878]]}},{"type":"Feature","properties":{"lit":"yes","ref":"B126","name":"Cable Street","oneway":"yes","highway":"secondary","surface":"asphalt","maxspeed":"20 mph","sidewalk":"left","cycleway:right":"separate","cycleway:right:oneway":"no","tfl_id":"RWG135094","osm_id":226429029},"geometry":{"type":"LineString","coordinates":[[-0.066255286310172,51.5109696003419],[-0.066376362343776,51.5109597065258]]}},{"type":"Feature","properties":{"lit":"yes","ref":"A11","name":"Mile End Road","oneway":"yes","highway":"trunk","maxspeed":"30 mph","operator":"Transport for London","cycleway:left":"separate","cycleway:right":"lane","tfl_id":"RWG073442","osm_id":874831188},"geometry":{"type":"LineString","coordinates":[[-0.045626732264416,51.5219865823784],[-0.045582867019211,51.5220160001998]]}},{"type":"Feature","properties":{"lit":"yes","name":"Chancel Street","oneway":"yes","highway":"residential","surface":"asphalt","maxspeed":"20 mph","tfl_id":"RWG082150","osm_id":537863427},"geometry":{"type":"LineString","coordinates":[[-0.103110273487938,51.5050981550551],[-0.103109699985647,51.5050955947764],[-0.103104699985648,51.5049234947764],[-0.103098099985649,51.5048389947764],[-0.103078799985651,51.5048141947764],[-0.103040899985657,51.5048073947764],[-0.10301349998566,51.5048001947764]]}},{"type":"Feature","properties":{"lit":"yes","name":"Lower Addison Gardens","oneway":"yes","highway":"residential","surface":"asphalt","maxspeed":"20 mph","sidewalk":"left","tfl_id":"RWG153006","osm_id":482142225},"geometry":{"type":"LineString","coordinates":[[-0.213921973439813,51.5026725012586],[-0.213939073051192,51.5026653999726]]}},{"type":"Feature","properties":{"lit":"yes","ref":"A302","name":"Westminster Bridge Road","oneway":"yes","highway":"primary","surface":"asphalt","cycleway":"separate","maxspeed":"20 mph","operator":"Transport for London","sidewalk":"separate","tfl_id":"RWG153735","osm_id":524789884},"geometry":{"type":"LineString","coordinates":[[-0.118270999983537,51.5007179947765],[-0.118332999983528,51.5007207947765],[-0.118521499983502,51.5007298947765],[-0.118528445111143,51.5007301598577]]}},{"type":"Feature","properties":{"lit":"yes","ref":"A302","name":"Westminster Bridge Road","busway":"lane","oneway":"yes","highway":"primary","surface":"asphalt","cycleway":"separate","maxspeed":"20 mph","operator":"Transport for London","sidewalk":"separate","tfl_id":"RWG153735","osm_id":216997282},"geometry":{"type":"LineString","coordinates":[[-0.11781530687583,51.5007016193094],[-0.118036399983569,51.5007095947765],[-0.118270999983537,51.5007179947765]]}},{"type":"Feature","properties":{"lit":"yes","ref":"A23","name":"Brixton Road","oneway":"yes","highway":"trunk","surface":"asphalt","cycleway":"separate","maxspeed":"30 mph","operator":"Transport for London","sidewalk":"both","class:bicycle:commute":"1","tfl_id":"RWG056424","osm_id":744514111},"geometry":{"type":"LineString","coordinates":[[-0.111478544950556,51.4824040791877],[-0.111531999984475,51.482426694777],[-0.111534210289515,51.4824371651558]]}},{"type":"Feature","properties":{"name":"Vauxhall Street","lanes":"1","oneway":"yes","highway":"residential","surface":"asphalt","maxspeed":"20 mph","postal_code":"SE11","cycleway:right":"track","oneway:bicycle":"no","cycleway:right:oneway":"-1","tfl_id":"RWG055994","osm_id":859124964},"geometry":{"type":"LineString","coordinates":[[-0.11645049998379,51.4866901947769],[-0.116157599983831,51.4861109947769],[-0.115890599983868,51.4855773947769],[-0.115762699983886,51.4852850947769],[-0.115561499983914,51.4848358947769]]}},{"type":"Feature","properties":{"lit":"yes","ref":"B300","name":"Baylis Road","highway":"secondary","surface":"asphalt","cycleway":"separate","maxspeed":"20 mph","sidewalk":"both","postal_code":"SE1","tfl_id":"RWG055900","osm_id":776655867},"geometry":{"type":"LineString","coordinates":[[-0.110909254868797,51.5005145811313],[-0.11084489998457,51.5005922947765],[-0.110805569015756,51.500645409001]]}},{"type":"Feature","properties":{"lit":"yes","ref":"B300","name":"Baylis Road","highway":"secondary","surface":"asphalt","cycleway":"separate","maxspeed":"20 mph","sidewalk":"both","postal_code":"SE1","tfl_id":"RWG055900","osm_id":833239789},"geometry":{"type":"LineString","coordinates":[[-0.110492384515557,51.5014967075363],[-0.11048889998462,51.5015183947765]]}},{"type":"Feature","properties":{"lit":"yes","ref":"B300","name":"Baylis Road","highway":"secondary","surface":"asphalt","cycleway":"lane","maxspeed":"20 mph","sidewalk":"both","postal_code":"SE1","tfl_id":"RWG055900","osm_id":808966797},"geometry":{"type":"LineString","coordinates":[[-0.11048889998462,51.5015183947765],[-0.110481030218379,51.5015733288408]]}},{"type":"Feature","properties":{"lit":"yes","name":"Trinity Rise","oneway":"yes","highway":"residential","surface":"asphalt","maxspeed":"20 mph","sidewalk":"both","traffic_calming":"cushion","tfl_id":"RWG102308","osm_id":506850033},"geometry":{"type":"LineString","coordinates":[[-0.111322116404366,51.4448935314995],[-0.111326799984503,51.4448923947779],[-0.111384299984495,51.4448783947779],[-0.111398571754082,51.4448758470906]]}},{"type":"Feature","properties":{"lit":"yes","ref":"A11","name":"Whitechapel High Street","lanes":"2","oneway":"yes","highway":"trunk","surface":"asphalt","abutters":"retail","maxspeed":"30 mph","operator":"Transport for London","sidewalk":"left","cycleway:left":"separate","tfl_id":"RWG152807","osm_id":316976824},"geometry":{"type":"LineString","coordinates":[[-0.070027823216955,51.5159468212181],[-0.069935571725307,51.5159900183385]]}},{"type":"Feature","properties":{"name":"Hartington Road","oneway":"yes","highway":"residential","maxspeed":"20 mph","tfl_id":"RWG056095","osm_id":739689730},"geometry":{"type":"LineString","coordinates":[[-0.126714512556469,51.478127958653],[-0.126905125848271,51.4776817750211]]}},{"properties":{"lit":"yes","ref":"A202","name":"Harleyford Road","lanes":"2","oneway":"yes","highway":"trunk","maxspeed":"20 mph","operator":"Transport for London","sidewalk":"both","postal_code":"SE11","cycleway:left":"separate","cycleway:left:oneway":"no","tfl_id":"RWG135202","osm_id":232676128},"geometry":{"type":"LineString","coordinates":[[-0.119216119835815,51.4850399001919],[-0.11954692510815,51.4851804457304]]}},{"properties":{"lit":"yes","ref":"A202","name":"Harleyford Road","lanes":"2","oneway":"yes","highway":"trunk","maxspeed":"20 mph","operator":"Transport for London","sidewalk":"both","postal_code":"SE11","cycleway:left":"separate","cycleway:left:oneway":"no","tfl_id":"RWG135202","osm_id":232676128},"geometry":{"type":"LineString","coordinates":[[-0.119807017432443,51.4852855258493],[-0.119812999983322,51.4852878947769],[-0.119819560838184,51.4852905935151]]}},{"type":"Feature","properties":{"lit":"yes","ref":"B300","name":"Union Street","oneway":"yes","bicycle":"designated","highway":"secondary","maxspeed":"20 mph","tfl_id":"RWG082013","osm_id":147680889},"geometry":{"type":"LineString","coordinates":[[-0.093690757858064,51.5037309669534],[-0.093409999986997,51.5036632947765],[-0.093040899987049,51.5035664947764],[-0.092855799987074,51.5035269947765],[-0.092468799987128,51.5034387947764],[-0.091930099987203,51.5033065947765],[-0.091854019803448,51.5032853395597]]}},{"type":"Feature","properties":{"lit":"yes","ref":"A11","name":"Mile End Road","oneway":"yes","highway":"trunk","maxspeed":"30 mph","operator":"Transport for London","sidewalk":"both","tfl_id":"RWG073269","osm_id":362227171},"geometry":{"type":"LineString","coordinates":[[-0.031846096862851,51.5258033229308],[-0.031643199995595,51.5258331947759],[-0.031492333209372,51.5258335382404]]}},{"type":"Feature","properties":{"lit":"yes","ref":"A11","name":"Mile End Road","highway":"trunk","maxspeed":"30 mph","operator":"Transport for London","sidewalk":"both","tfl_id":"RWG073269","osm_id":379089136},"geometry":{"type":"LineString","coordinates":[[-0.03088690784797,51.525961460223],[-0.030590699995742,51.5260266947759]]}},{"type":"Feature","properties":{"lit":"yes","ref":"A11","name":"Mile End Road","highway":"trunk","maxspeed":"30 mph","operator":"Transport for London","sidewalk":"both","tfl_id":"RWG073269","osm_id":82626051},"geometry":{"type":"LineString","coordinates":[[-0.030590699995742,51.5260266947759],[-0.030104137354749,51.5261256694809]]}},{"properties":{"lit":"yes","ref":"A11","name":"Mile End Road","highway":"trunk","cycleway":"separate","maxspeed":"30 mph","operator":"Transport for London","sidewalk":"both","tfl_id":"RWG073630","osm_id":37136556},"geometry":{"type":"LineString","coordinates":[[-0.053278352899211,51.5204055625301],[-0.053277533951119,51.520405716364]]}},{"properties":{"lit":"yes","ref":"A11","name":"Mile End Road","highway":"trunk","cycleway":"separate","maxspeed":"30 mph","operator":"Transport for London","sidewalk":"both","tfl_id":"RWG073630","osm_id":37136556},"geometry":{"type":"LineString","coordinates":[[-0.052238905805618,51.5206008325967],[-0.052181599992736,51.520611594776],[-0.051674099992807,51.520705994776],[-0.050885699992917,51.520876394776],[-0.05035659999299,51.520992694776]]}},{"type":"Feature","properties":{"lit":"yes","ref":"A3216","name":"Queenstown Road","oneway":"yes","highway":"primary","maxspeed":"20 mph","sidewalk":"separate","ref:GB:usrn":"22904132","tfl_id":"RWG056411","osm_id":149745414},"geometry":{"type":"LineString","coordinates":[[-0.148768763479193,51.4781407343807],[-0.148768199979291,51.4781465947771],[-0.148723399979298,51.4781636947771],[-0.148669199979305,51.4781923947771],[-0.148643199979309,51.4782219947771]]}},{"type":"Feature","properties":{"name":"Carriage Drive North","oneway":"yes","highway":"unclassified","surface":"asphalt","maxspeed":"12 mph","smoothness":"excellent","tfl_id":"RWG135157","osm_id":648221521},"geometry":{"type":"LineString","coordinates":[[-0.165229574574979,51.4796058161946],[-0.165250299976997,51.479569694777],[-0.165266899976995,51.479564694777],[-0.165283399976992,51.4795597947771]]}},{"type":"Feature","properties":{"lit":"yes","ref":"A3214","name":"Pimlico Road","lanes":"2","oneway":"yes","highway":"primary","surface":"asphalt","maxspeed":"20 mph","sidewalk":"left","maxspeed:type":"GB:zone20","tfl_id":"RWG056187","osm_id":343406595},"geometry":{"type":"LineString","coordinates":[[-0.150393276361204,51.4909699068464],[-0.150369999979068,51.4909744947768],[-0.150311199979076,51.4909809947767],[-0.150251699979085,51.4909735947768],[-0.150195799979093,51.4909621947767],[-0.149918966199007,51.4908864787462]]}},{"type":"Feature","properties":{"lit":"yes","ref":"A11","name":"Mile End Road","highway":"trunk","cycleway":"separate","maxspeed":"30 mph","operator":"Transport for London","sidewalk":"both","tfl_id":"RWG073413","osm_id":57725387},"geometry":{"type":"LineString","coordinates":[[-0.040505058034417,51.5228043813055],[-0.040372077006428,51.5228488339052]]}},{"type":"Feature","properties":{"lit":"yes","ref":"A11","name":"Bow Road","lanes":"1","oneway":"yes","highway":"trunk","maxspeed":"30 mph","operator":"Transport for London","sidewalk":"both","tfl_id":"RWG152921","osm_id":4951500},"geometry":{"type":"LineString","coordinates":[[-0.014348458593955,51.5294516372435],[-0.01440495789512,51.5294338838747]]}},{"type":"Feature","properties":{"lit":"yes","name":"Green Dale","bicycle":"designated","highway":"unclassified","surface":"asphalt","maxspeed":"20 mph","sidewalk":"both","tfl_id":"RWG107455","osm_id":645780100},"geometry":{"type":"LineString","coordinates":[[-0.084216399988277,51.4559049947776],[-0.084104399988293,51.4557342947776],[-0.08409671889539,51.4557225795004]]}},{"type":"Feature","properties":{"lit":"yes","name":"Green Dale","bicycle":"designated","highway":"unclassified","surface":"asphalt","maxspeed":"20 mph","sidewalk":"both","tfl_id":"RWG107455","osm_id":5045842},"geometry":{"type":"LineString","coordinates":[[-0.084231118574846,51.4559264204606],[-0.084216399988277,51.4559049947776]]}},{"type":"Feature","properties":{"bus":"no","hgv":"no","lit":"yes","name":"South Carriage Drive","goods":"destination","horse":"yes","highway":"residential","maxspeed":"20 mph","sidewalk":"left","maxspeed:type":"GB:zone20","cycleway:right":"separate","cycleway:right:oneway":"no","tfl_id":"RWG056339","osm_id":279553202},"geometry":{"type":"LineString","coordinates":[[-0.162155554477115,51.5024678793545],[-0.162265199977413,51.5024594947765],[-0.162335483444629,51.5024549303259]]}},{"type":"Feature","properties":{"bus":"no","hgv":"no","lit":"yes","name":"South Carriage Drive","goods":"destination","horse":"yes","highway":"unclassified","surface":"asphalt","maxspeed":"20 mph","sidewalk":"left","maxspeed:type":"GB:zone20","cycleway:right":"separate","cycleway:right:oneway":"no","tfl_id":"RWG056493","osm_id":323060773},"geometry":{"type":"LineString","coordinates":[[-0.173817800488292,51.5021751339972],[-0.173879894074541,51.5021743478309]]}},{"type":"Feature","properties":{"lit":"yes","name":"Dulwich Village","oneway":"yes","highway":"tertiary","maxspeed":"20 mph","tfl_id":"RWG107557","osm_id":4946699},"geometry":{"type":"LineString","coordinates":[[-0.085530559177215,51.4479780593987],[-0.085517041006169,51.4477667164712]]}},{"type":"Feature","properties":{"lit":"yes","name":"Townley Road","bicycle":"designated","highway":"tertiary","surface":"asphalt","maxspeed":"20 mph","sidewalk":"both","tfl_id":"RWG107458","osm_id":645779186},"geometry":{"type":"LineString","coordinates":[[-0.083828967143045,51.4553358186469],[-0.08376399998834,51.4552541947777]]}},{"type":"Feature","properties":{"lit":"yes","name":"Townley Road","bicycle":"designated","highway":"tertiary","surface":"asphalt","maxspeed":"20 mph","sidewalk":"both","tfl_id":"RWG107458","osm_id":525911167},"geometry":{"type":"LineString","coordinates":[[-0.083577299988366,51.4550228947776],[-0.083507319518767,51.4549607070741]]}},{"type":"Feature","properties":{"lit":"yes","name":"Townley Road","bicycle":"designated","highway":"tertiary","surface":"asphalt","maxspeed":"20 mph","sidewalk":"both","tfl_id":"RWG107458","osm_id":525911168},"geometry":{"type":"LineString","coordinates":[[-0.08376399998834,51.4552541947777],[-0.083671099988353,51.4551315947776],[-0.083610799988361,51.4550577947777],[-0.083577299988366,51.4550228947776]]}},{"properties":{"lit":"yes","name":"Alleyn Park","highway":"tertiary","surface":"asphalt","maxspeed":"20 mph","tfl_id":"RWG107538","osm_id":850609521},"geometry":{"type":"LineString","coordinates":[[-0.088029599987746,51.438753794778],[-0.088026263132123,51.438746383857]]}},{"properties":{"lit":"yes","name":"Alleyn Park","highway":"tertiary","surface":"asphalt","maxspeed":"20 mph","tfl_id":"RWG107538","osm_id":850609521},"geometry":{"type":"LineString","coordinates":[[-0.08800847106638,51.4386922072541],[-0.088000442795907,51.4386444176708]]}}]}