{"type":"FeatureCollection","features":[{"type":"Feature","properties":{"highway":"crossing","tfl_id":"RWG187271","crossing":"uncontrolled","segregated":"yes","osm_id":1865630001},"geometry":{"type":"Point","coordinates":[-0.080402,51.6261074]}},{"type":"Feature","properties":{"highway":"crossing","tfl_id":"RWG276576","crossing":"traffic_signals","osm_id":5587153724},"geometry":{"type":"Point","coordinates":[-0.0495982,51.6074438]}},{"type":"Feature","properties":{"highway":"crossing","tfl_id":"RWG276576","crossing":"traffic_signals","osm_id":5587153733},"geometry":{"type":"Point","coordinates":[-0.0495118,51.607394]}},{"type":"Feature","properties":{"highway":"crossing","tfl_id":"RWG276589","crossing":"uncontrolled","segregated":"yes","osm_id":5696698463},"geometry":{"type":"Point","coordinates":[-0.1078179,51.6187143]}},{"type":"Feature","properties":{"highway":"crossing","tfl_id":"RWG187227","crossing":"traffic_signals","segregated":"yes","osm_id":8057548219},"geometry":{"type":"Point","coordinates":[-0.0815643,51.6367859]}},{"type":"Feature","properties":{"highway":"crossing","tfl_id":"RWG187246","crossing":"traffic_signals","osm_id":6025803179},"geometry":{"type":"Point","coordinates":[-0.0280462,51.6628321]}},{"type":"Feature","properties":{"highway":"crossing","tfl_id":"RWG187246","crossing":"traffic_signals","osm_id":6025802565},"geometry":{"type":"Point","coordinates":[-0.0278802,51.6628266]}},{"type":"Feature","properties":{"highway":"crossing","tfl_id":"RWG187250","crossing":"traffic_signals","osm_id":1745361194},"geometry":{"type":"Point","coordinates":[-0.1358479,51.6112178]}},{"type":"Feature","properties":{"highway":"crossing","tfl_id":"RWG187250","crossing":"traffic_signals","osm_id":1745361215},"geometry":{"type":"Point","coordinates":[-0.1357272,51.611281]}},{"type":"Feature","properties":{"highway":"crossing","tfl_id":"RWG187252","crossing":"traffic_signals","osm_id":5898679366},"geometry":{"type":"Point","coordinates":[-0.0297215,51.6577131]}},{"type":"Feature","properties":{"highway":"crossing","tfl_id":"RWG187252","crossing":"traffic_signals","osm_id":5898679367},"geometry":{"type":"Point","coordinates":[-0.0298544,51.6576478]}},{"type":"Feature","properties":{"highway":"crossing","tfl_id":"RWG276588","crossing":"uncontrolled","segregated":"yes","osm_id":5696698461},"geometry":{"type":"Point","coordinates":[-0.1079992,51.6183199]}},{"type":"Feature","properties":{"highway":"crossing","tfl_id":"RWG187257","crossing":"uncontrolled","osm_id":366936279},"geometry":{"type":"Point","coordinates":[-0.1107901,51.6546968]}},{"type":"Feature","properties":{"highway":"crossing","tfl_id":"RWG187258","crossing":"uncontrolled","osm_id":5951134961},"geometry":{"type":"Point","coordinates":[-0.1120141,51.6542009]}},{"type":"Feature","properties":{"highway":"crossing","tfl_id":"RWG187232","crossing":"uncontrolled","osm_id":5768890107},"geometry":{"type":"Point","coordinates":[-0.0282798,51.6541945]}},{"type":"Feature","properties":{"highway":"crossing","tfl_id":"RWG187232","crossing":"uncontrolled","osm_id":6025807303},"geometry":{"type":"Point","coordinates":[-0.0282892,51.654233]}},{"type":"Feature","properties":{"highway":"crossing","tfl_id":"RWG187230","crossing":"uncontrolled","osm_id":5766643271},"geometry":{"type":"Point","coordinates":[-0.0294414,51.6575605]}},{"type":"Feature","properties":{"highway":"crossing","tfl_id":"RWG187231","crossing":"uncontrolled","osm_id":1164372511},"geometry":{"type":"Point","coordinates":[-0.0287733,51.6551566]}},{"type":"Feature","properties":{"highway":"crossing","tfl_id":"RWG187255","crossing":"uncontrolled","osm_id":262184211},"geometry":{"type":"Point","coordinates":[-0.1084007,51.6551113]}},{"type":"Feature","properties":{"highway":"crossing","tfl_id":"RWG123201","crossing":"uncontrolled","osm_id":1437944932},"geometry":{"type":"Point","coordinates":[0.213722,51.5923993]}},{"type":"Feature","properties":{"highway":"crossing","tfl_id":"RWG151103","crossing":"uncontrolled","osm_id":7950486114},"geometry":{"type":"Point","coordinates":[0.253069,51.5810221]}},{"type":"Feature","properties":{"highway":"crossing","tfl_id":"RWG151105","crossing":"uncontrolled","osm_id":2681903942},"geometry":{"type":"Point","coordinates":[0.2297823,51.6092309]}},{"type":"Feature","properties":{"highway":"crossing","tfl_id":"RWG206459","crossing":"traffic_signals","osm_id":1736053632},"geometry":{"type":"Point","coordinates":[-0.3130351,51.3520294]}},{"type":"Feature","properties":{"highway":"crossing","tfl_id":"RWG151107","crossing":"uncontrolled","osm_id":2681903959},"geometry":{"type":"Point","coordinates":[0.2299692,51.6094713]}},{"type":"Feature","properties":{"highway":"crossing","tfl_id":"RWG206468","crossing":"uncontrolled","osm_id":60032463},"geometry":{"type":"Point","coordinates":[-0.3058145,51.4485251]}},{"type":"Feature","properties":{"highway":"crossing","tfl_id":"RWG276583","crossing":"uncontrolled","segregated":"yes","osm_id":6047495969},"geometry":{"type":"Point","coordinates":[-0.0290502,51.5743348]}},{"type":"Feature","properties":{"highway":"crossing","tfl_id":"RWG276584","crossing":"uncontrolled","segregated":"yes","osm_id":6047495970},"geometry":{"type":"Point","coordinates":[-0.0296283,51.5751272]}},{"type":"Feature","properties":{"highway":"crossing","tfl_id":"RWG278156","crossing":"uncontrolled","osm_id":55434500},"geometry":{"type":"Point","coordinates":[-0.1838377,51.4139944]}},{"type":"Feature","properties":{"highway":"crossing","tfl_id":"RWG199222","crossing":"uncontrolled","osm_id":5610606427},"geometry":{"type":"Point","coordinates":[0.0862682,51.3575185]}},{"type":"Feature","properties":{"highway":"crossing","tfl_id":"RWG199222","crossing":"uncontrolled","osm_id":453750991},"geometry":{"type":"Point","coordinates":[0.0862619,51.3575622]}},{"type":"Feature","properties":{"highway":"crossing","tfl_id":"RWG999513","crossing":"uncontrolled","osm_id":1640809649},"geometry":{"type":"Point","coordinates":[0.1381171,51.5300038]}},{"type":"Feature","properties":{"highway":"crossing","tfl_id":"RWG184393","crossing":"traffic_signals","osm_id":6020342370},"geometry":{"type":"Point","coordinates":[0.1890746,51.4620625]}},{"type":"Feature","properties":{"highway":"crossing","tfl_id":"RWG187284","crossing":"uncontrolled","segregated":"yes","osm_id":3748440221},"geometry":{"type":"Point","coordinates":[-0.045099,51.5625343]}},{"type":"Feature","properties":{"highway":"crossing","tfl_id":"RWG276579","crossing":"uncontrolled","osm_id":235725652},"geometry":{"type":"Point","coordinates":[-0.0076973,51.6168956]}},{"type":"Feature","properties":{"highway":"crossing","tfl_id":"RWG276585","crossing":"uncontrolled","segregated":"yes","osm_id":130240108},"geometry":{"type":"Point","coordinates":[0.0135102,51.5667862]}},{"type":"Feature","properties":{"highway":"crossing","tfl_id":"RWG276585","crossing":"uncontrolled","segregated":"yes","osm_id":130239849},"geometry":{"type":"Point","coordinates":[0.0134163,51.5667343]}},{"type":"Feature","properties":{"highway":"crossing","tfl_id":"RWG199208","crossing":"uncontrolled","osm_id":506356495},"geometry":{"type":"Point","coordinates":[-0.0484778,51.484463]}},{"type":"Feature","properties":{"highway":"crossing","tfl_id":"RWG199173","crossing":"traffic_signals","osm_id":26821840},"geometry":{"type":"Point","coordinates":[-0.0229461,51.4791517]}},{"type":"Feature","properties":{"disused:bicycle":"yes","disused:highway":"crossing","disused:crossing":"traffic_signals","disused:crossing_ref":"toucan","highway":"crossing","tfl_id":"RWG199173","crossing":"traffic_signals","osm_id":3128371415},"geometry":{"type":"Point","coordinates":[-0.0230903,51.4791972]}},{"type":"Feature","properties":{"highway":"crossing","tfl_id":"RWG199160","crossing":"traffic_signals","segregated":"yes","osm_id":5597578900},"geometry":{"type":"Point","coordinates":[7.56e-05,51.4451322]}},{"type":"Feature","properties":{"highway":"crossing","tfl_id":"RWG199215","crossing":"uncontrolled","segregated":"yes","osm_id":426783850},"geometry":{"type":"Point","coordinates":[0.1125754,51.4090894]}},{"type":"Feature","properties":{"highway":"crossing","tfl_id":"RWG199217","crossing":"uncontrolled","osm_id":6040258147},"geometry":{"type":"Point","coordinates":[0.1040352,51.4072323]}},{"type":"Feature","properties":{"highway":"crossing","tfl_id":"RWG220926","crossing":"uncontrolled","osm_id":5859982220},"geometry":{"type":"Point","coordinates":[0.0693786,51.5761164]}},{"type":"Feature","properties":{"highway":"crossing","tfl_id":"RWG184446","crossing":"traffic_signals","osm_id":3991736148},"geometry":{"type":"Point","coordinates":[0.104883,51.4985685]}},{"type":"Feature","properties":{"highway":"crossing","tfl_id":"RWG154558","crossing":"uncontrolled","osm_id":6460053398},"geometry":{"type":"Point","coordinates":[0.0525929,51.5873137]}},{"type":"Feature","properties":{"highway":"crossing","tfl_id":"RWG184434","crossing":"traffic_signals","osm_id":2144312600},"geometry":{"type":"Point","coordinates":[0.0089913,51.4930719]}},{"type":"Feature","properties":{"highway":"crossing","tfl_id":"RWG291103","crossing":"uncontrolled","osm_id":3800193256},"geometry":{"type":"Point","coordinates":[-0.0424584,51.4843862]}},{"type":"Feature","properties":{"highway":"crossing","tfl_id":"RWG290345","crossing":"uncontrolled","osm_id":5728941005},"geometry":{"type":"Point","coordinates":[0.0132149,51.5082301]}},{"type":"Feature","properties":{"highway":"crossing","tfl_id":"RWG290345","crossing":"uncontrolled","osm_id":2211145528},"geometry":{"type":"Point","coordinates":[0.0131579,51.5082925]}},{"type":"Feature","properties":{"highway":"crossing","tfl_id":"RWG154549","crossing":"uncontrolled","osm_id":6014185240},"geometry":{"type":"Point","coordinates":[0.0044142,51.5447401]}},{"type":"Feature","properties":{"highway":"crossing","tfl_id":"RWG199204","crossing":"uncontrolled","osm_id":506356491},"geometry":{"type":"Point","coordinates":[-0.0462033,51.4844262]}},{"type":"Feature","properties":{"highway":"crossing","tfl_id":"RWG154566","crossing":"uncontrolled","osm_id":4672118028},"geometry":{"type":"Point","coordinates":[-0.0069023,51.53823]}},{"type":"Feature","properties":{"highway":"crossing","tfl_id":"RWG184484","crossing":"uncontrolled","osm_id":892856442},"geometry":{"type":"Point","coordinates":[0.0408963,51.5044553]}},{"type":"Feature","properties":{"highway":"crossing","tfl_id":"RWG205327","crossing":"uncontrolled","osm_id":1561475046},"geometry":{"type":"Point","coordinates":[0.0855981,51.357472]}},{"type":"Feature","properties":{"highway":"crossing","tfl_id":"RWG205325","crossing":"uncontrolled","osm_id":1933806442},"geometry":{"type":"Point","coordinates":[0.08792,51.3522705]}},{"type":"Feature","properties":{"highway":"crossing","tfl_id":"RWG205328","crossing":"uncontrolled","osm_id":1561475202},"geometry":{"type":"Point","coordinates":[0.0856183,51.3575483]}},{"type":"Feature","properties":{"highway":"crossing","tfl_id":"RWG999343","crossing":"uncontrolled","osm_id":6746899420},"geometry":{"type":"Point","coordinates":[0.0400904,51.3830727]}},{"type":"Feature","properties":{"highway":"crossing","tfl_id":"RWG184346","crossing":"traffic_signals","osm_id":282392671},"geometry":{"type":"Point","coordinates":[0.0722568,51.5225354]}},{"type":"Feature","properties":{"highway":"crossing","tfl_id":"RWG290351","crossing":"uncontrolled","segregated":"yes","osm_id":8946406196},"geometry":{"type":"Point","coordinates":[0.0142385,51.5081732]}},{"type":"Feature","properties":{"highway":"crossing","tfl_id":"RWG205335","crossing":"uncontrolled","osm_id":4081940993},"geometry":{"type":"Point","coordinates":[0.0670123,51.3607151]}},{"type":"Feature","properties":{"highway":"crossing","tfl_id":"RWG205330","crossing":"uncontrolled","bicycle":"dismount","osm_id":4081947511},"geometry":{"type":"Point","coordinates":[0.0551831,51.3651072]}},{"type":"Feature","properties":{"highway":"crossing","tfl_id":"RWG218288","crossing":"uncontrolled","segregated":"yes","osm_id":1748004206},"geometry":{"type":"Point","coordinates":[-0.0969103,51.3724097]}},{"type":"Feature","properties":{"highway":"crossing","tfl_id":"RWG218288","crossing":"uncontrolled","segregated":"yes","osm_id":1748004210},"geometry":{"type":"Point","coordinates":[-0.0969394,51.372496]}},{"type":"Feature","properties":{"highway":"crossing","tfl_id":"RWG218243","crossing":"uncontrolled","segregated":"yes","osm_id":630875960},"geometry":{"type":"Point","coordinates":[-0.0320055,51.3576697]}},{"type":"Feature","properties":{"highway":"crossing","tfl_id":"RWG218243","crossing":"uncontrolled","segregated":"yes","osm_id":630875957},"geometry":{"type":"Point","coordinates":[-0.0318802,51.3577118]}},{"type":"Feature","properties":{"highway":"crossing","tfl_id":"RWG184356","crossing":"traffic_signals","osm_id":1363822418},"geometry":{"type":"Point","coordinates":[0.0756213,51.5152929]}},{"type":"Feature","properties":{"highway":"crossing","tfl_id":"RWG236110","crossing":"traffic_signals","osm_id":4576141234},"geometry":{"type":"Point","coordinates":[-0.4585761,51.4809598]}},{"type":"Feature","properties":{"highway":"crossing","tfl_id":"RWG236195","crossing":"traffic_signals","bicycle":"dismount","osm_id":1320986940},"geometry":{"type":"Point","coordinates":[-0.4912757,51.466539]}},{"type":"Feature","properties":{"highway":"crossing","tfl_id":"RWG236195","crossing":"traffic_signals","bicycle":"dismount","osm_id":1320986911},"geometry":{"type":"Point","coordinates":[-0.4912993,51.4664629]}},{"type":"Feature","properties":{"highway":"crossing","tfl_id":"RWG236103","crossing":"traffic_signals","osm_id":1645281463},"geometry":{"type":"Point","coordinates":[-0.458252,51.4807075]}},{"type":"Feature","properties":{"highway":"crossing","tfl_id":"RWG236196","crossing":"uncontrolled","bicycle":"dismount","osm_id":1320986946},"geometry":{"type":"Point","coordinates":[-0.4909908,51.4694816]}},{"type":"Feature","properties":{"highway":"crossing","tfl_id":"RWG236196","crossing":"uncontrolled","bicycle":"dismount","osm_id":1320986918},"geometry":{"type":"Point","coordinates":[-0.4909865,51.4693711]}},{"type":"Feature","properties":{"highway":"crossing","tfl_id":"RWG218313","crossing":"traffic_signals","osm_id":1751778078},"geometry":{"type":"Point","coordinates":[-0.090583,51.3752744]}},{"type":"Feature","properties":{"highway":"crossing","tfl_id":"RWG291338","crossing":"uncontrolled","osm_id":1832899997},"geometry":{"type":"Point","coordinates":[-0.4127899,51.4912228]}},{"type":"Feature","properties":{"highway":"crossing","tfl_id":"RWG236171","crossing":"uncontrolled","segregated":"yes","osm_id":4576141235},"geometry":{"type":"Point","coordinates":[-0.4577891,51.4807175]}},{"type":"Feature","properties":{"highway":"crossing","tfl_id":"RWG218303","crossing":"uncontrolled","osm_id":4729565027},"geometry":{"type":"Point","coordinates":[-0.1390167,51.3173618]}},{"type":"Feature","properties":{"foot":"yes","bicycle":"yes","highway":"crossing","crossing":"traffic_signals","crossing_ref":"toucan","tactile_paving":"yes","tfl_id":"RWG236018","osm_id":2180808894},"geometry":{"type":"Point","coordinates":[-0.3722088,51.4780192]}},{"type":"Feature","properties":{"foot":"yes","bicycle":"yes","highway":"crossing","crossing":"traffic_signals","crossing_ref":"toucan","tfl_id":"RWG236018","osm_id":2180808892},"geometry":{"type":"Point","coordinates":[-0.3724693,51.4778573]}},{"type":"Feature","properties":{"highway":"crossing","tfl_id":"RWG236128","crossing":"uncontrolled","osm_id":30450210},"geometry":{"type":"Point","coordinates":[-0.3232723,51.484538]}},{"type":"Feature","properties":{"highway":"crossing","tfl_id":"RWG236128","crossing":"uncontrolled","osm_id":30450164},"geometry":{"type":"Point","coordinates":[-0.3235169,51.4845172]}},{"type":"Feature","properties":{"highway":"crossing","tfl_id":"RWG218266","crossing":"uncontrolled","osm_id":1627168717},"geometry":{"type":"Point","coordinates":[-0.1706303,51.3775325]}},{"type":"Feature","properties":{"highway":"crossing","tfl_id":"RWG293165","crossing":"uncontrolled","osm_id":919492092},"geometry":{"type":"Point","coordinates":[-0.254081,51.6247702]}},{"type":"Feature","properties":{"highway":"crossing","tfl_id":"RWG236112","crossing":"traffic_signals","osm_id":6647646663},"geometry":{"type":"Point","coordinates":[-0.4682211,51.4816583]}},{"type":"Feature","properties":{"highway":"crossing","tfl_id":"RWG236158","crossing":"uncontrolled","osm_id":6161628152},"geometry":{"type":"Point","coordinates":[-0.422693,51.4761059]}},{"type":"Feature","properties":{"highway":"crossing","tfl_id":"RWG218298","crossing":"uncontrolled","segregated":"yes","osm_id":1912459728},"geometry":{"type":"Point","coordinates":[-0.1252646,51.3608218]}},{"type":"Feature","properties":{"highway":"crossing","tfl_id":"RWG218259","crossing":"uncontrolled","osm_id":8213727788},"geometry":{"type":"Point","coordinates":[-0.1760267,51.3863543]}},{"type":"Feature","properties":{"highway":"crossing","tfl_id":"RWG218355","crossing":"traffic_signals","osm_id":266740760},"geometry":{"type":"Point","coordinates":[-0.2008377,51.3685961]}},{"type":"Feature","properties":{"highway":"crossing","tfl_id":"RWG236132","crossing":"uncontrolled","osm_id":6170689597},"geometry":{"type":"Point","coordinates":[-0.3407827,51.4532771]}},{"type":"Feature","properties":{"highway":"crossing","tfl_id":"RWG236042","crossing":"traffic_signals","osm_id":1681545643},"geometry":{"type":"Point","coordinates":[-0.2580382,51.4818656]}},{"type":"Feature","properties":{"highway":"crossing","tfl_id":"RWG291782","crossing":"traffic_signals","osm_id":2209666009},"geometry":{"type":"Point","coordinates":[-0.0151053,51.4236338]}},{"type":"Feature","properties":{"highway":"crossing","tfl_id":"RWG218296","crossing":"uncontrolled","segregated":"yes","osm_id":1644606806},"geometry":{"type":"Point","coordinates":[-0.1611523,51.3631556]}},{"type":"Feature","properties":{"highway":"crossing","tfl_id":"RWG236643","crossing":"traffic_signals","osm_id":2319817825},"geometry":{"type":"Point","coordinates":[-0.3681462,51.5492293]}},{"type":"Feature","properties":{"highway":"crossing","tfl_id":"RWG236646","crossing":"traffic_signals","osm_id":249128149},"geometry":{"type":"Point","coordinates":[-0.3790372,51.5326069]}},{"type":"Feature","properties":{"highway":"crossing","tfl_id":"RWG218237","crossing":"uncontrolled","osm_id":269260912},"geometry":{"type":"Point","coordinates":[-0.1684311,51.3417751]}},{"type":"Feature","properties":{"highway":"crossing","tfl_id":"RWG236068","crossing":"traffic_signals","osm_id":7942317446},"geometry":{"type":"Point","coordinates":[-0.3367895,51.4540453]}},{"type":"Feature","properties":{"highway":"crossing","tfl_id":"RWG236068","crossing":"traffic_signals","osm_id":7942317441},"geometry":{"type":"Point","coordinates":[-0.3367637,51.4541661]}},{"type":"Feature","properties":{"highway":"crossing","tfl_id":"RWG279002","crossing":"uncontrolled","osm_id":1151682417},"geometry":{"type":"Point","coordinates":[-0.2353819,51.6017073]}},{"type":"Feature","properties":{"highway":"crossing","tfl_id":"RWG279002","crossing":"uncontrolled","osm_id":4944187622},"geometry":{"type":"Point","coordinates":[-0.2354518,51.6016525]}},{"type":"Feature","properties":{"highway":"crossing","tfl_id":"RWG279004","crossing":"uncontrolled","osm_id":2674161209},"geometry":{"type":"Point","coordinates":[-0.0637136,51.5863381]}},{"type":"Feature","properties":{"highway":"crossing","tfl_id":"RWG273953","crossing":"uncontrolled","osm_id":3087175511},"geometry":{"type":"Point","coordinates":[-0.2828636,51.5266873]}},{"type":"Feature","properties":{"highway":"crossing","tfl_id":"RWG273953","crossing":"uncontrolled","osm_id":83792973},"geometry":{"type":"Point","coordinates":[-0.2826855,51.5266727]}},{"type":"Feature","properties":{"highway":"crossing","tfl_id":"RWG236614","crossing":"uncontrolled","osm_id":7094904445},"geometry":{"type":"Point","coordinates":[-0.4145296,51.5099613]}},{"type":"Feature","properties":{"highway":"crossing","tfl_id":"RWG236615","crossing":"uncontrolled","osm_id":7094904438},"geometry":{"type":"Point","coordinates":[-0.4152955,51.5091594]}},{"type":"Feature","properties":{"highway":"crossing","tfl_id":"RWG273913","crossing":"traffic_signals","osm_id":250802385},"geometry":{"type":"Point","coordinates":[-0.2620579,51.5226444]}},{"type":"Feature","properties":{"highway":"crossing","tfl_id":"RWG279005","crossing":"uncontrolled","osm_id":2674161213},"geometry":{"type":"Point","coordinates":[-0.0635653,51.5873501]}},{"type":"Feature","properties":{"highway":"crossing","tfl_id":"RWG278959","crossing":"traffic_signals","osm_id":1862219084},"geometry":{"type":"Point","coordinates":[-0.089578,51.5908808]}},{"type":"Feature","properties":{"highway":"crossing","tfl_id":"RWG218260","crossing":"uncontrolled","osm_id":6089076448},"geometry":{"type":"Point","coordinates":[-0.1753708,51.3857925]}},{"type":"Feature","properties":{"highway":"crossing","tfl_id":"RWG278980","crossing":"traffic_signals","osm_id":242700039},"geometry":{"type":"Point","coordinates":[-0.2352643,51.6022823]}},{"type":"Feature","properties":{"highway":"crossing","tfl_id":"RWG292165","crossing":"uncontrolled","osm_id":7342619959},"geometry":{"type":"Point","coordinates":[-0.3604043,51.5177132]}},{"type":"Feature","properties":{"highway":"crossing","tfl_id":"RWG999328","crossing":"traffic_signals","osm_id":266742397},"geometry":{"type":"Point","coordinates":[-0.2007255,51.3786369]}},{"type":"Feature","properties":{"highway":"crossing","tfl_id":"RWG273954","crossing":"uncontrolled","osm_id":774480530},"geometry":{"type":"Point","coordinates":[-0.2800443,51.5264845]}},{"type":"Feature","properties":{"highway":"crossing","tfl_id":"RWG273954","crossing":"uncontrolled","osm_id":1777475835},"geometry":{"type":"Point","coordinates":[-0.2798582,51.5265045]}},{"type":"Feature","properties":{"highway":"crossing","tfl_id":"RWG236644","crossing":"uncontrolled","segregated":"yes","osm_id":929924897},"geometry":{"type":"Point","coordinates":[-0.3895623,51.5353604]}},{"type":"Feature","properties":{"highway":"crossing","tfl_id":"RWG292164","crossing":"uncontrolled","osm_id":7342619945},"geometry":{"type":"Point","coordinates":[-0.3600961,51.5180184]}},{"type":"Feature","properties":{"highway":"crossing","tfl_id":"RWG273922","crossing":"traffic_signals","osm_id":288041137},"geometry":{"type":"Point","coordinates":[-0.2722081,51.5100016]}},{"type":"Feature","properties":{"highway":"crossing","tfl_id":"RWG236601","crossing":"uncontrolled","segregated":"yes","osm_id":2578642657},"geometry":{"type":"Point","coordinates":[-0.430835,51.5020651]}},{"type":"Feature","properties":{"highway":"crossing","tfl_id":"RWG236601","crossing":"uncontrolled","segregated":"yes","osm_id":2578642656},"geometry":{"type":"Point","coordinates":[-0.4307038,51.5020668]}},{"type":"Feature","properties":{"highway":"crossing","tfl_id":"RWG236667","crossing":"uncontrolled","osm_id":6333496577},"geometry":{"type":"Point","coordinates":[-0.4280684,51.5241541]}},{"type":"Feature","properties":{"highway":"crossing","tfl_id":"RWG236668","crossing":"uncontrolled","segregated":"yes","osm_id":7094904433},"geometry":{"type":"Point","coordinates":[-0.4180532,51.5072561]}},{"type":"Feature","properties":{"highway":"crossing","tfl_id":"RWG236612","crossing":"uncontrolled","osm_id":7094934222},"geometry":{"type":"Point","coordinates":[-0.4143706,51.5101836]}},{"type":"Feature","properties":{"highway":"crossing","tfl_id":"RWG236613","crossing":"uncontrolled","osm_id":7199101969},"geometry":{"type":"Point","coordinates":[-0.4142617,51.5101507]}},{"type":"Feature","properties":{"highway":"crossing","tfl_id":"RWG236616","crossing":"uncontrolled","osm_id":7094904466},"geometry":{"type":"Point","coordinates":[-0.416041,51.5083637]}},{"type":"Feature","properties":{"highway":"crossing","tfl_id":"RWG236617","crossing":"uncontrolled","osm_id":7094934226},"geometry":{"type":"Point","coordinates":[-0.4170886,51.5075781]}},{"type":"Feature","properties":{"highway":"crossing","tfl_id":"RWG236598","crossing":"uncontrolled","segregated":"yes","osm_id":179039816},"geometry":{"type":"Point","coordinates":[-0.4300055,51.5022379]}},{"type":"Feature","properties":{"highway":"crossing","tfl_id":"RWG236598","crossing":"uncontrolled","segregated":"yes","osm_id":179039816},"geometry":{"type":"Point","coordinates":[-0.4300055,51.5022379]}},{"type":"Feature","properties":{"highway":"crossing","tfl_id":"RWG236636","crossing":"traffic_signals","osm_id":529712134},"geometry":{"type":"Point","coordinates":[-0.4190484,51.5219679]}},{"type":"Feature","properties":{"highway":"crossing","tfl_id":"RWG236670","crossing":"uncontrolled","segregated":"yes","osm_id":345391727},"geometry":{"type":"Point","coordinates":[-0.444295,51.5634008]}},{"type":"Feature","properties":{"highway":"crossing","tfl_id":"RWG236638","crossing":"uncontrolled","segregated":"yes","osm_id":1789733999},"geometry":{"type":"Point","coordinates":[-0.3900204,51.5254947]}},{"type":"Feature","properties":{"highway":"crossing","tfl_id":"RWG089491","crossing":"uncontrolled","segregated":"yes","osm_id":3007020966},"geometry":{"type":"Point","coordinates":[-0.1749258,51.5440802]}},{"type":"Feature","properties":{"highway":"crossing","tfl_id":"RWG089491","crossing":"uncontrolled","segregated":"yes","osm_id":6217692384},"geometry":{"type":"Point","coordinates":[-0.1748084,51.5440763]}},{"type":"Feature","properties":{"highway":"crossing","tfl_id":"RWG236652","crossing":"traffic_signals","segregated":"yes","osm_id":25726657},"geometry":{"type":"Point","coordinates":[-0.4639207,51.5173496]}},{"type":"Feature","properties":{"highway":"crossing","tfl_id":"RWG236653","crossing":"uncontrolled","segregated":"yes","osm_id":869409038},"geometry":{"type":"Point","coordinates":[-0.3921947,51.5258665]}},{"type":"Feature","properties":{"highway":"crossing","tfl_id":"RWG236674","crossing":"uncontrolled","segregated":"yes","osm_id":804264406},"geometry":{"type":"Point","coordinates":[-0.4421678,51.5663716]}},{"type":"Feature","properties":{"highway":"crossing","tfl_id":"RWG236630","crossing":"traffic_signals","osm_id":3191674472},"geometry":{"type":"Point","coordinates":[-0.4666241,51.5027258]}},{"type":"Feature","properties":{"highway":"crossing","tfl_id":"RWG236634","crossing":"traffic_signals","osm_id":6102919899},"geometry":{"type":"Point","coordinates":[-0.3816638,51.5289641]}},{"type":"Feature","properties":{"highway":"crossing","tfl_id":"RWG236671","crossing":"uncontrolled","segregated":"yes","osm_id":7833561218},"geometry":{"type":"Point","coordinates":[-0.4440369,51.5637134]}},{"type":"Feature","properties":{"highway":"crossing","tfl_id":"RWG236672","crossing":"uncontrolled","osm_id":5685985228},"geometry":{"type":"Point","coordinates":[-0.4438679,51.5640053]}},{"type":"Feature","properties":{"highway":"crossing","tfl_id":"RWG236673","crossing":"uncontrolled","segregated":"yes","osm_id":804264407},"geometry":{"type":"Point","coordinates":[-0.4428481,51.5653975]}},{"type":"Feature","properties":{"highway":"crossing","tfl_id":"RWG236625","crossing":"traffic_signals","osm_id":1451185542},"geometry":{"type":"Point","coordinates":[-0.4513143,51.5029838]}},{"type":"Feature","properties":{"highway":"crossing","tfl_id":"RWG236618","crossing":"uncontrolled","segregated":"yes","osm_id":7094934192},"geometry":{"type":"Point","coordinates":[-0.417801,51.5071741]}},{"type":"Feature","properties":{"highway":"crossing","tfl_id":"RWG236669","crossing":"uncontrolled","segregated":"yes","osm_id":26972755},"geometry":{"type":"Point","coordinates":[-0.478008,51.5421597]}},{"type":"Feature","properties":{"highway":"crossing","tfl_id":"RWG236609","crossing":"uncontrolled","segregated":"yes","osm_id":7094904441},"geometry":{"type":"Point","coordinates":[-0.4178613,51.5074057]}},{"type":"Feature","properties":{"highway":"crossing","tfl_id":"RWG236610","crossing":"uncontrolled","segregated":"yes","osm_id":7094904477},"geometry":{"type":"Point","coordinates":[-0.4177054,51.5073647]}},{"type":"Feature","properties":{"highway":"crossing","tfl_id":"RWG038284","crossing":"traffic_signals","segregated":"yes","osm_id":3393313581},"geometry":{"type":"Point","coordinates":[-0.1461436,51.5367128]}},{"type":"Feature","properties":{"highway":"crossing","tfl_id":"RWG236606","crossing":"uncontrolled","segregated":"yes","osm_id":7094904475},"geometry":{"type":"Point","coordinates":[-0.418741,51.5070308]}},{"type":"Feature","properties":{"highway":"crossing","tfl_id":"RWG236607","crossing":"uncontrolled","segregated":"yes","osm_id":7094934202},"geometry":{"type":"Point","coordinates":[-0.4185084,51.50716]}},{"type":"Feature","properties":{"highway":"crossing","tfl_id":"RWG152114","crossing":"uncontrolled","segregated":"yes","osm_id":6279835276},"geometry":{"type":"Point","coordinates":[-0.1756919,51.5396119]}},{"type":"Feature","properties":{"highway":"crossing","tfl_id":"RWG152114","crossing":"uncontrolled","segregated":"yes","osm_id":6279835282},"geometry":{"type":"Point","coordinates":[-0.1758211,51.5396159]}},{"type":"Feature","properties":{"highway":"crossing","tfl_id":"RWG152114","crossing":"uncontrolled","segregated":"yes","osm_id":6279835272},"geometry":{"type":"Point","coordinates":[-0.1757033,51.5395655]}},{"type":"Feature","properties":{"highway":"crossing","tfl_id":"RWG152114","crossing":"uncontrolled","segregated":"yes","osm_id":6279835281},"geometry":{"type":"Point","coordinates":[-0.1758293,51.5395749]}},{"type":"Feature","properties":{"highway":"crossing","tfl_id":"RWG236608","crossing":"uncontrolled","segregated":"yes","osm_id":248964851},"geometry":{"type":"Point","coordinates":[-0.41883,51.5072142]}},{"type":"Feature","properties":{"highway":"crossing","tfl_id":"RWG153063","crossing":"uncontrolled","segregated":"yes","osm_id":435104735},"geometry":{"type":"Point","coordinates":[-0.0939389,51.5206969]}},{"type":"Feature","properties":{"highway":"crossing","tfl_id":"RWG153063","crossing":"uncontrolled","segregated":"yes","osm_id":10607132},"geometry":{"type":"Point","coordinates":[-0.0939571,51.5207533]}},{"type":"Feature","properties":{"highway":"crossing","tfl_id":"RWG065984","crossing":"uncontrolled","segregated":"yes","osm_id":20626301},"geometry":{"type":"Point","coordinates":[-0.0912441,51.5104759]}},{"type":"Feature","properties":{"highway":"crossing","tfl_id":"RWG065984","crossing":"uncontrolled","segregated":"yes","osm_id":4085778920},"geometry":{"type":"Point","coordinates":[-0.0912254,51.5105213]}},{"type":"Feature","properties":{"bicycle":"yes","crossing":"uncontrolled","proposed:highway":"crossing","highway":"crossing","tfl_id":"RWG042169","segregated":"yes","osm_id":7952848699},"geometry":{"type":"Point","coordinates":[-0.0192551,51.545159]}},{"type":"Feature","properties":{"highway":"crossing","tfl_id":"RWG151001","crossing":"uncontrolled","segregated":"yes","osm_id":331325427},"geometry":{"type":"Point","coordinates":[-0.109965,51.5387307]}},{"type":"Feature","properties":{"highway":"crossing","tfl_id":"RWG151001","crossing":"uncontrolled","segregated":"yes","osm_id":331325419},"geometry":{"type":"Point","coordinates":[-0.1100575,51.5387362]}},{"type":"Feature","properties":{"highway":"crossing","tfl_id":"RWG151001","crossing":"uncontrolled","segregated":"yes","osm_id":331325430},"geometry":{"type":"Point","coordinates":[-0.1100123,51.5387001]}},{"type":"Feature","properties":{"highway":"crossing","tfl_id":"RWG151001","crossing":"uncontrolled","segregated":"yes","osm_id":3172419527},"geometry":{"type":"Point","coordinates":[-0.1099116,51.5386863]}},{"type":"Feature","properties":{"highway":"crossing","tfl_id":"RWG151000","crossing":"uncontrolled","segregated":"yes","osm_id":331325419},"geometry":{"type":"Point","coordinates":[-0.1100575,51.5387362]}},{"type":"Feature","properties":{"highway":"crossing","tfl_id":"RWG151000","crossing":"uncontrolled","segregated":"yes","osm_id":331325430},"geometry":{"type":"Point","coordinates":[-0.1100123,51.5387001]}},{"type":"Feature","properties":{"highway":"crossing","tfl_id":"RWG151000","crossing":"uncontrolled","segregated":"yes","osm_id":331325427},"geometry":{"type":"Point","coordinates":[-0.109965,51.5387307]}},{"type":"Feature","properties":{"highway":"crossing","tfl_id":"RWG151000","crossing":"uncontrolled","segregated":"yes","osm_id":3172419527},"geometry":{"type":"Point","coordinates":[-0.1099116,51.5386863]}},{"type":"Feature","properties":{"highway":"crossing","tfl_id":"RWG018098","crossing":"uncontrolled","segregated":"yes","osm_id":102069},"geometry":{"type":"Point","coordinates":[-0.1753646,51.5127697]}},{"type":"Feature","properties":{"highway":"crossing","tfl_id":"RWG055847","crossing":"traffic_signals","segregated":"yes","osm_id":6762589363},"geometry":{"type":"Point","coordinates":[-0.1590951,51.513325]}},{"type":"Feature","properties":{"highway":"crossing","tfl_id":"RWG999924","crossing":"traffic_signals","segregated":"yes","osm_id":4729448869},"geometry":{"type":"Point","coordinates":[-0.0972003,51.511906]}},{"type":"Feature","properties":{"highway":"crossing","tfl_id":"RWG999924","crossing":"traffic_signals","segregated":"yes","osm_id":1938819294},"geometry":{"type":"Point","coordinates":[-0.0972303,51.5119062]}},{"type":"Feature","properties":{"highway":"crossing","tfl_id":"RWG999924","crossing":"traffic_signals","segregated":"yes","osm_id":107644},"geometry":{"type":"Point","coordinates":[-0.0972179,51.5118412]}},{"type":"Feature","properties":{"highway":"crossing","tfl_id":"RWG073159","crossing":"traffic_signals","segregated":"yes","osm_id":4035081935},"geometry":{"type":"Point","coordinates":[-0.0841727,51.5263594]}},{"type":"Feature","properties":{"highway":"crossing","tfl_id":"RWG055874","crossing":"traffic_signals","segregated":"yes","osm_id":364263},"geometry":{"type":"Point","coordinates":[-0.1150849,51.4956119]}},{"type":"Feature","properties":{"highway":"crossing","tfl_id":"RWG999925","crossing":"traffic_signals","segregated":"yes","osm_id":1938819294},"geometry":{"type":"Point","coordinates":[-0.0972303,51.5119062]}},{"type":"Feature","properties":{"highway":"crossing","tfl_id":"RWG999925","crossing":"traffic_signals","segregated":"yes","osm_id":4729448869},"geometry":{"type":"Point","coordinates":[-0.0972003,51.511906]}},{"type":"Feature","properties":{"highway":"crossing","tfl_id":"RWG999925","crossing":"traffic_signals","segregated":"yes","osm_id":107644},"geometry":{"type":"Point","coordinates":[-0.0972179,51.5118412]}},{"type":"Feature","properties":{"highway":"crossing","tfl_id":"RWG042511","crossing":"traffic_signals","segregated":"yes","osm_id":25509425},"geometry":{"type":"Point","coordinates":[-0.2289883,51.4925048]}},{"type":"Feature","properties":{"highway":"crossing","tfl_id":"RWG102603","crossing":"traffic_signals","segregated":"yes","osm_id":6762589361},"geometry":{"type":"Point","coordinates":[-0.1590086,51.5134627]}},{"type":"Feature","properties":{"highway":"crossing","tfl_id":"RWG102603","crossing":"traffic_signals","segregated":"yes","osm_id":6762589359},"geometry":{"type":"Point","coordinates":[-0.1588411,51.5133636]}},{"type":"Feature","properties":{"highway":"crossing","tfl_id":"RWG081859","crossing":"uncontrolled","segregated":"yes","osm_id":25472725},"geometry":{"type":"Point","coordinates":[-0.1036703,51.4957712]}},{"type":"Feature","properties":{"highway":"crossing","tfl_id":"RWG135325","crossing":"traffic_signals","segregated":"yes","osm_id":419806574},"geometry":{"type":"Point","coordinates":[-0.1210276,51.4943505]}},{"type":"Feature","properties":{"highway":"crossing","tfl_id":"RWG108301","crossing":"uncontrolled","segregated":"yes","osm_id":2030035701},"geometry":{"type":"Point","coordinates":[-0.0447515,51.5115201]}},{"type":"Feature","properties":{"highway":"crossing","tfl_id":"RWG082685","crossing":"uncontrolled","segregated":"yes","osm_id":24923378},"geometry":{"type":"Point","coordinates":[-0.1045794,51.5019071]}},{"type":"Feature","properties":{"highway":"crossing","tfl_id":"RWG108013","crossing":"uncontrolled","segregated":"yes","osm_id":25472956},"geometry":{"type":"Point","coordinates":[-0.1023717,51.4953951]}},{"type":"Feature","properties":{"highway":"crossing","tfl_id":"RWG108014","crossing":"uncontrolled","segregated":"yes","osm_id":25472956},"geometry":{"type":"Point","coordinates":[-0.1023717,51.4953951]}},{"type":"Feature","properties":{"highway":"crossing","tfl_id":"RWG150709","crossing":"uncontrolled","segregated":"yes","osm_id":25472584},"geometry":{"type":"Point","coordinates":[-0.1057224,51.4964463]}},{"type":"Feature","properties":{"highway":"crossing","tfl_id":"RWG108060","crossing":"traffic_signals","segregated":"yes","osm_id":1868411754},"geometry":{"type":"Point","coordinates":[-0.1009656,51.4956211]}},{"type":"Feature","properties":{"highway":"crossing","tfl_id":"RWG108060","crossing":"traffic_signals","segregated":"yes","osm_id":1868411754},"geometry":{"type":"Point","coordinates":[-0.1009656,51.4956211]}},{"type":"Feature","properties":{"highway":"crossing","tfl_id":"RWG081848","crossing":"uncontrolled","segregated":"yes","osm_id":2217388361},"geometry":{"type":"Point","coordinates":[-0.0919944,51.5010777]}},{"type":"Feature","properties":{"highway":"crossing","tfl_id":"RWG081848","crossing":"uncontrolled","segregated":"yes","osm_id":5220719449},"geometry":{"type":"Point","coordinates":[-0.092027,51.5011305]}},{"type":"Feature","properties":{"highway":"crossing","tfl_id":"RWG081856","crossing":"traffic_signals","osm_id":7443798291},"geometry":{"type":"Point","coordinates":[-0.0714425,51.4926882]}},{"type":"Feature","properties":{"highway":"crossing","tfl_id":"RWG153836","crossing":"uncontrolled","segregated":"yes","osm_id":2684347255},"geometry":{"type":"Point","coordinates":[-0.1002874,51.4969194]}},{"type":"Feature","properties":{"highway":"crossing","tfl_id":"RWG153836","crossing":"uncontrolled","segregated":"yes","osm_id":6001787526},"geometry":{"type":"Point","coordinates":[-0.1003531,51.4969977]}},{"type":"Feature","properties":{"highway":"crossing","tfl_id":"RWG081877","crossing":"traffic_signals","segregated":"yes","osm_id":2684369336},"geometry":{"type":"Point","coordinates":[-0.0997305,51.4966064]}},{"type":"Feature","properties":{"highway":"crossing","tfl_id":"RWG081877","crossing":"traffic_signals","segregated":"yes","osm_id":2684369319},"geometry":{"type":"Point","coordinates":[-0.099645,51.4965536]}},{"type":"Feature","properties":{"highway":"crossing","tfl_id":"RWG081877","crossing":"traffic_signals","segregated":"yes","osm_id":2684369324},"geometry":{"type":"Point","coordinates":[-0.0996719,51.4966922]}},{"type":"Feature","properties":{"highway":"crossing","tfl_id":"RWG081877","crossing":"traffic_signals","segregated":"yes","osm_id":2684369308},"geometry":{"type":"Point","coordinates":[-0.0995819,51.4966461]}},{"type":"Feature","properties":{"highway":"crossing","tfl_id":"RWG081858","crossing":"uncontrolled","segregated":"yes","osm_id":2467649384},"geometry":{"type":"Point","coordinates":[-0.1049538,51.4961873]}},{"type":"Feature","properties":{"highway":"crossing","tfl_id":"RWG109565","crossing":"traffic_signals","osm_id":5270468377},"geometry":{"type":"Point","coordinates":[-0.1737718,51.4589805]}},{"type":"Feature","properties":{"highway":"crossing","tfl_id":"RWG109566","crossing":"traffic_signals","osm_id":5270468386},"geometry":{"type":"Point","coordinates":[-0.1739563,51.4587963]}},{"type":"Feature","properties":{"rcn":"yes","name":"Vauxhall Bridge","rcn_name":"Vauxhall Bridge","highway":"crossing","tfl_id":"RWG055891","crossing":"traffic_signals","segregated":"yes","osm_id":3781134797},"geometry":{"type":"Point","coordinates":[-0.1293214,51.4886983]}},{"type":"Feature","properties":{"highway":"crossing","tfl_id":"RWG055891","crossing":"traffic_signals","segregated":"yes","osm_id":3781134798},"geometry":{"type":"Point","coordinates":[-0.1294631,51.4887583]}},{"type":"Feature","properties":{"highway":"crossing","tfl_id":"RWG088628","crossing":"traffic_signals","osm_id":5270468377},"geometry":{"type":"Point","coordinates":[-0.1737718,51.4589805]}},{"type":"Feature","properties":{"highway":"crossing","tfl_id":"RWG055879","crossing":"traffic_signals","segregated":"yes","osm_id":3781134801},"geometry":{"type":"Point","coordinates":[-0.1307857,51.4893464]}},{"type":"Feature","properties":{"highway":"crossing","tfl_id":"RWG055866","crossing":"uncontrolled","segregated":"yes","osm_id":3502507862},"geometry":{"type":"Point","coordinates":[-0.1504253,51.4909636]}},{"type":"Feature","properties":{"highway":"crossing","tfl_id":"RWG109567","crossing":"traffic_signals","osm_id":418407894},"geometry":{"type":"Point","coordinates":[-0.1741322,51.4588533]}},{"type":"Feature","properties":{"highway":"crossing","tfl_id":"RWG109567","crossing":"traffic_signals","osm_id":5270468386},"geometry":{"type":"Point","coordinates":[-0.1739563,51.4587963]}},{"type":"Feature","properties":{"highway":"crossing","tfl_id":"RWG107380","crossing":"uncontrolled","segregated":"yes","osm_id":111963315},"geometry":{"type":"Point","coordinates":[-0.0897491,51.4631512]}},{"type":"Feature","properties":{"highway":"crossing","tfl_id":"RWG199545","crossing":"uncontrolled","segregated":"yes","osm_id":15657653},"geometry":{"type":"Point","coordinates":[-0.1350472,51.4301488]}},{"type":"Feature","properties":{"highway":"crossing","tfl_id":"RWG199545","crossing":"uncontrolled","segregated":"yes","osm_id":15657653},"geometry":{"type":"Point","coordinates":[-0.1350472,51.4301488]}},{"type":"Feature","properties":{"highway":"crossing","tfl_id":"RWG199545","crossing":"uncontrolled","segregated":"yes","osm_id":15657653},"geometry":{"type":"Point","coordinates":[-0.1350472,51.4301488]}},{"type":"Feature","properties":{"highway":"crossing","tfl_id":"RWG236621","crossing":"traffic_signals","segregated":"yes","osm_id":3134969694},"geometry":{"type":"Point","coordinates":[-0.4117702,51.5191539]}},{"type":"Feature","properties":{"highway":"crossing","tfl_id":"RWG236621","crossing":"traffic_signals","segregated":"yes","osm_id":3134969686},"geometry":{"type":"Point","coordinates":[-0.411786,51.5190511]}}]}