{"type":"FeatureCollection","features":[{"type":"Feature","properties":{"name":"Quakers Walk","bicycle":"dismount","highway":"service","surface":"paved","tfl_id":"RWG150584","osm_id":1074229580},"geometry":{"type":"LineString","coordinates":[[-0.085662720441994,51.6405666826023],[-0.085748899988064,51.6404449947731]]}},{"type":"Feature","properties":{"oneway":"no","highway":"footway","surface":"asphalt","segregated":"yes","bicycle":"dismount","tfl_id":"RWG187799","osm_id":580674706},"geometry":{"type":"LineString","coordinates":[[-0.055099141714063,51.6684986653329],[-0.055054599992336,51.6686102947724]]}},{"type":"Feature","properties":{"oneway":"no","highway":"footway","surface":"paving_stones","segregated":"no","bicycle":"dismount","tfl_id":"RWG187799","osm_id":1117507012},"geometry":{"type":"LineString","coordinates":[[-0.055054599992336,51.6686102947724],[-0.054971099992348,51.6688193947725]]}},{"type":"Feature","properties":{"oneway":"no","highway":"steps","surface":"concrete","segregated":"no","tunnel":"yes","bicycle":"dismount","tfl_id":"RWG150626","osm_id":234560958},"geometry":{"type":"LineString","coordinates":[[-0.081313032475275,51.6250106348679],[-0.081412799988667,51.6247593947735]]}},{"type":"Feature","properties":{"foot":"no","oneway":"no","highway":"steps","surface":"paved","tunnel":"yes","bicycle":"dismount","tfl_id":"RWG150626","osm_id":766166212},"geometry":{"type":"LineString","coordinates":[[-0.080839199988747,51.6251928947735],[-0.080939522868539,51.6249158953019]]}},{"type":"Feature","properties":{"lit":"yes","foot":"designated","name":"Robin Hood Way","oneway":"no","bicycle":"dismount","footway":"sidewalk","highway":"steps","surface":"asphalt","segregated":"no","tfl_id":"RWG206949","osm_id":732228429},"geometry":{"type":"LineString","coordinates":[[-0.256725470709325,51.4325436600544],[-0.256719899964264,51.4325155947782],[-0.256687699964269,51.4323001947782],[-0.256666975370381,51.4321301971184]]}},{"type":"Feature","properties":{"oneway":"no","highway":"footway","surface":"asphalt","tracktype":"grade1","segregated":"no","bicycle":"dismount","tfl_id":"RWG290152","osm_id":585987980},"geometry":{"type":"LineString","coordinates":[[0.072045580083709,51.5674842008924],[0.072015999989975,51.5674998947749],[0.071879340979396,51.5675784117239]]}},{"type":"Feature","properties":{"lit":"yes","layer":"-1","oneway":"no","tunnel":"yes","bicycle":"dismount","highway":"steps","surface":"asphalt","segregated":"no","tfl_id":"RWG999455","osm_id":138576044},"geometry":{"type":"LineString","coordinates":[[0.044999399993736,51.5755356947747],[0.045305599993693,51.5755012947747]]}},{"type":"Feature","properties":{"bicycle":"dismount","highway":"service","surface":"grass","tfl_id":"RWG205374","osm_id":643773666},"geometry":{"type":"LineString","coordinates":[[-0.037914489220731,51.3917818231219],[-0.037945099994718,51.3914437947792]]}},{"type":"Feature","properties":{"access":"yes","bicycle":"dismount","highway":"service","surface":"asphalt","motor_vehicle":"no","tfl_id":"RWG219961","osm_id":1074229573},"geometry":{"type":"LineString","coordinates":[[-0.113862210957633,51.413386290127],[-0.113743199984167,51.4134800947787]]}},{"type":"Feature","properties":{"highway":"service","surface":"asphalt","bicycle":"dismount","tfl_id":"RWG219968","osm_id":13853990},"geometry":{"type":"LineString","coordinates":[[-0.118867037134299,51.4144345364866],[-0.118882099983451,51.4144580947787],[-0.118883299983451,51.4145509947787]]}},{"type":"Feature","properties":{"foot":"yes","bicycle":"dismount","highway":"service","surface":"asphalt","tfl_id":"RWG220273","osm_id":169137625},"geometry":{"type":"LineString","coordinates":[[-0.069292736141536,51.3625941053986],[-0.069284299990356,51.36258359478],[-0.069237299990362,51.36255249478],[-0.069170099990371,51.36250799478]]}},{"type":"Feature","properties":{"lit":"yes","oneway":"no","bicycle":"dismount","highway":"footway","tunnel":"yes","tfl_id":"RWG236429","osm_id":8377923},"geometry":{"type":"LineString","coordinates":[[-0.459919499935979,51.4954881947766],[-0.460030399935963,51.4956163947767]]}},{"type":"Feature","properties":{"oneway":"no","highway":"steps","segregated":"no","tunnel":"yes","bicycle":"dismount","tfl_id":"RWG220091","osm_id":140557838},"geometry":{"type":"LineString","coordinates":[[-0.107206199985077,51.3723222947797],[-0.107243599985072,51.3723194947797],[-0.107374499985053,51.3723159947797],[-0.107419667552849,51.3723431513138]]}},{"type":"Feature","properties":{"foot":"yes","name":"Downs Court Road","bicycle":"dismount","highway":"service","surface":"asphalt","maxspeed":"30 mph","prow_ref":"LB Croydon FP 28","designation":"public_footpath","tfl_id":"RWG220139","osm_id":8315121},"geometry":{"type":"LineString","coordinates":[[-0.103912467886176,51.330683954785],[-0.103896699985537,51.3307473947808],[-0.103940599985531,51.3313259947807]]}},{"type":"Feature","properties":{"lit":"yes","bicycle":"dismount","highway":"service","service":"driveway","surface":"asphalt","prow_ref":"LB Croydon FP 94","designation":"public_footpath","tfl_id":"RWG220179","osm_id":42036472},"geometry":{"type":"LineString","coordinates":[[-0.142147321830348,51.3204055473076],[-0.142194899980206,51.320469894781],[-0.142257299980198,51.320533494781],[-0.142291199980193,51.320557094781]]}},{"type":"Feature","properties":{"lit":"yes","foot":"yes","highway":"footway","surface":"asphalt","prow_ref":"LB Croydon FP 560","est_width":"2.5m","segregated":"no","designation":"public_footpath","bicycle":"dismount","tfl_id":"RWG220212","osm_id":708151765},"geometry":{"type":"LineString","coordinates":[[-0.042321294822566,51.354505589029],[-0.042279099994115,51.3544277947802],[-0.042302754700171,51.3543968824435]]}},{"type":"Feature","properties":{"oneway":"no","bicycle":"dismount","highway":"footway","segregated":"yes","tfl_id":"RWG236224","osm_id":640165327},"geometry":{"type":"LineString","coordinates":[[-0.28242082572074,51.4928381394251],[-0.282420599960687,51.4929288947767],[-0.28242526650072,51.492968366667]]}},{"type":"Feature","properties":{"name":"Park Place Drive","bicycle":"dismount","highway":"service","surface":"asphalt","tfl_id":"RWG236228","osm_id":1074229568},"geometry":{"type":"LineString","coordinates":[[-0.282167599960722,51.4979289947766],[-0.281969070277122,51.4979809594482]]}},{"type":"Feature","properties":{"lit":"no","foot":"designated","oneway":"no","bicycle":"dismount","highway":"footway","surface":"asphalt","segregated":"no","tfl_id":"RWG280737","osm_id":164467581},"geometry":{"type":"LineString","coordinates":[[-0.220287199969336,51.5796247947746],[-0.219449899969452,51.5792415947746]]}},{"type":"Feature","properties":{"lit":"yes","foot":"designated","name":"Great West Road","oneway":"no","bicycle":"dismount","footway":"sidewalk","highway":"footway","segregated":"no","tfl_id":"RWG236371","osm_id":314914087},"geometry":{"type":"LineString","coordinates":[[-0.24607019836807,51.4895745521694],[-0.246073899965746,51.4895703947768],[-0.246082099965745,51.4895316947768],[-0.246066008331527,51.4894287254561]]}},{"properties":{"lit":"no","foot":"designated","oneway":"no","bicycle":"dismount","highway":"footway","maxheight":"1.7 m","segregated":"no","tunnel":"yes","tfl_id":"RWG236425","osm_id":276094259},"geometry":{"type":"LineString","coordinates":[[-0.36673709994895,51.441656094778],[-0.36686692833482,51.4416941491619]]}},{"properties":{"lit":"no","foot":"designated","oneway":"no","bicycle":"dismount","highway":"footway","maxheight":"1.7 m","segregated":"no","tunnel":"yes","tfl_id":"RWG236425","osm_id":276094259},"geometry":{"type":"LineString","coordinates":[[-0.366954541325013,51.4417198296479],[-0.367166662553829,51.4417820050284]]}},{"properties":{"lit":"no","foot":"designated","oneway":"no","bicycle":"dismount","highway":"footway","maxheight":"1.7 m","segregated":"no","tunnel":"yes","tfl_id":"RWG236425","osm_id":276094259},"geometry":{"type":"LineString","coordinates":[[-0.367212072931981,51.4417953153662],[-0.367304799948871,51.441822494778]]}},{"type":"Feature","properties":{"highway":"service","service":"driveway","bicycle":"dismount","tfl_id":"RWG236280","osm_id":1114918331},"geometry":{"type":"LineString","coordinates":[[-0.395746811682963,51.4690247023782],[-0.395801899944904,51.4689372947773],[-0.395854599944897,51.4686909947773],[-0.395934285725138,51.468318346801]]}},{"type":"Feature","properties":{"lit":"yes","oneway":"no","highway":"footway","surface":"asphalt","cycleway":"sidewalk","segregated":"yes","bicycle":"dismount","tfl_id":"RWG280937","osm_id":393242439},"geometry":{"type":"LineString","coordinates":[[-0.247660720363451,51.5488240375114],[-0.247611599965532,51.5489375947754],[-0.247623359723709,51.5489736921337]]}},{"properties":{"oneway":"no","highway":"footway","bicycle":"dismount","tfl_id":"RWG293110","osm_id":43624954},"geometry":{"type":"LineString","coordinates":[[-0.284728499960365,51.6231752947735],[-0.284762079368034,51.6231830293573]]}},{"properties":{"oneway":"no","highway":"footway","bicycle":"dismount","tfl_id":"RWG293110","osm_id":43624954},"geometry":{"type":"LineString","coordinates":[[-0.284749415478967,51.6232195458542],[-0.28393601818857,51.6230089285594]]}},{"type":"Feature","properties":{"lit":"yes","oneway":"no","highway":"footway","surface":"asphalt","cycleway":"sidewalk","segregated":"yes","bicycle":"dismount","tfl_id":"RWG280936","osm_id":1090758696},"geometry":{"type":"LineString","coordinates":[[-0.249999718487587,51.5476103351263],[-0.249803099965227,51.5475373947754],[-0.249790111954893,51.547538237311]]}},{"properties":{"foot":"yes","highway":"service","bicycle":"dismount","tfl_id":"RWG278781","osm_id":182344207},"geometry":{"type":"LineString","coordinates":[[-0.067455809218496,51.3848265506554],[-0.067410999990616,51.3848249947794],[-0.067366942788337,51.3848322431034]]}},{"properties":{"foot":"yes","highway":"service","bicycle":"dismount","tfl_id":"RWG278781","osm_id":182344207},"geometry":{"type":"LineString","coordinates":[[-0.067046146241194,51.3849681785281],[-0.067009599990672,51.3849844947794],[-0.066960096462167,51.3850066053581]]}},{"type":"Feature","properties":{"name":"Riverside Gardens","bicycle":"dismount","highway":"service","tfl_id":"RWG280725","osm_id":519371681},"geometry":{"type":"LineString","coordinates":[[-0.211000469406949,51.5915333600454],[-0.210966499970633,51.5914841947743],[-0.210885999970644,51.5913983947743],[-0.210877099970646,51.5913932947743],[-0.210794536105517,51.5913459779865]]}},{"type":"Feature","properties":{"lit":"no","oneway":"no","bicycle":"dismount","highway":"footway","surface":"asphalt","tunnel":"yes","tfl_id":"RWG280833","osm_id":164577705},"geometry":{"type":"LineString","coordinates":[[-0.209750892854328,51.5703636594762],[-0.209661699970815,51.5703948947748],[-0.20953442888296,51.5704350982892]]}},{"type":"Feature","properties":{"lit":"yes","foot":"yes","bicycle":"dismount","highway":"footway","surface":"asphalt","tfl_id":"RWG281001","osm_id":31900605},"geometry":{"type":"LineString","coordinates":[[-0.228287799968222,51.5729077947748],[-0.228401299968206,51.5728342947748],[-0.228537299968187,51.5728060947748],[-0.228619999968176,51.5727447947748],[-0.228639899968173,51.5727137947748]]}},{"type":"Feature","properties":{"lit":"yes","foot":"yes","layer":"1","bridge":"yes","bicycle":"dismount","highway":"footway","surface":"asphalt","tfl_id":"RWG281001","osm_id":31900602},"geometry":{"type":"LineString","coordinates":[[-0.228076599968251,51.5731434947748],[-0.228139099968243,51.5731419947748],[-0.228185399968236,51.5731108947748],[-0.228199899968234,51.5730692947747],[-0.228287799968222,51.5729077947748]]}},{"type":"Feature","properties":{"lit":"yes","foot":"yes","bicycle":"dismount","highway":"footway","surface":"asphalt","tfl_id":"RWG281001","osm_id":24553031},"geometry":{"type":"LineString","coordinates":[[-0.227243049583201,51.5730065976839],[-0.227384499968348,51.5730172947748],[-0.228076599968251,51.5731434947748]]}},{"type":"Feature","properties":{"lit":"no","foot":"yes","layer":"1","bridge":"yes","bicycle":"dismount","highway":"footway","surface":"asphalt","tfl_id":"RWG281002","osm_id":31900700},"geometry":{"type":"LineString","coordinates":[[-0.228145099968242,51.5725634947748],[-0.227354799968352,51.5721814947748],[-0.227330699968355,51.5721779947748],[-0.227307599968359,51.5721862947748],[-0.227112099968386,51.5723652947748],[-0.226835799968424,51.5725090947748]]}},{"type":"Feature","properties":{"lit":"yes","foot":"yes","bicycle":"dismount","highway":"footway","surface":"asphalt","tfl_id":"RWG281002","osm_id":24576013},"geometry":{"type":"LineString","coordinates":[[-0.228639899968173,51.5727137947748],[-0.228323499968217,51.5726317947748],[-0.228145099968242,51.5725634947748]]}},{"type":"Feature","properties":{"lit":"yes","foot":"yes","bicycle":"dismount","highway":"footway","surface":"asphalt","tfl_id":"RWG281002","osm_id":552675357},"geometry":{"type":"LineString","coordinates":[[-0.226835799968424,51.5725090947748],[-0.226672199968447,51.5725720947747],[-0.226503199968471,51.5726172947748],[-0.226452718957346,51.5726270250986]]}},{"type":"Feature","properties":{"name":"Oldfields Road","oneway":"no","highway":"footway","bicycle":"dismount","tfl_id":"RWG220208","osm_id":1074229570},"geometry":{"type":"LineString","coordinates":[[-0.203217771429532,51.3762850017389],[-0.203307599733896,51.3760202476504]]}},{"type":"Feature","properties":{"foot":"designated","bicycle":"dismount","highway":"steps","surface":"paved","tfl_id":"RWG236240","osm_id":851501528},"geometry":{"type":"LineString","coordinates":[[-0.358034477888582,51.4460889027694],[-0.357984199950168,51.4461184947779],[-0.357965499950171,51.4461088947779],[-0.357875199950183,51.4461725947779],[-0.357791799950195,51.4462455947779],[-0.357779859618891,51.4462783861369]]}},{"type":"Feature","properties":{"lit":"no","oneway":"no","highway":"footway","surface":"asphalt","segregated":"no","bicycle":"dismount","tfl_id":"RWG280975","osm_id":68874858},"geometry":{"type":"LineString","coordinates":[[-0.226036264696755,51.5989546336957],[-0.226033599968536,51.5989538947741],[-0.226070999968531,51.5988881947741],[-0.226009599968539,51.5988728947741]]}},{"type":"Feature","properties":{"highway":"footway","bicycle":"dismount","tfl_id":"RWG275774","osm_id":630300185},"geometry":{"type":"LineString","coordinates":[[-0.29446531491265,51.5953278572764],[-0.29439019995902,51.5952502947742],[-0.294377399959022,51.5952275947742],[-0.294362699959024,51.5952218947742]]}},{"type":"Feature","properties":{"name":"Fox Lane","bicycle":"dismount","highway":"service","surface":"asphalt","tfl_id":"RWG275847","osm_id":314250806},"geometry":{"type":"LineString","coordinates":[[-0.297277254953695,51.5240146739433],[-0.297206312792065,51.5241478787912]]}},{"type":"Feature","properties":{"name":"Oldfields Road","oneway":"no","highway":"footway","bicycle":"dismount","tfl_id":"RWG220243","osm_id":959766204},"geometry":{"type":"LineString","coordinates":[[-0.203501128857649,51.375572175482],[-0.203531699971668,51.3754623947796],[-0.203661272191752,51.3753018710114]]}},{"type":"Feature","properties":{"foot":"yes","width":"1.5","oneway":"no","highway":"footway","surface":"asphalt","bicycle":"dismount","tfl_id":"RWG220249","osm_id":646636565},"geometry":{"type":"LineString","coordinates":[[-0.167783675105637,51.3715525631704],[-0.167855266987421,51.3714171884336]]}},{"type":"Feature","properties":{"lit":"yes","foot":"yes","highway":"steps","surface":"paved","segregated":"no","bicycle":"dismount","tfl_id":"RWG280979","osm_id":603916236},"geometry":{"type":"LineString","coordinates":[[-0.235199382648084,51.6021059747449],[-0.235189399967261,51.602225594774],[-0.235195134677663,51.6022504451904]]}},{"type":"Feature","properties":{"layer":"-1","oneway":"no","tunnel":"yes","highway":"footway","segregated":"no","bicycle":"dismount","tfl_id":"RWG237875","osm_id":30098472},"geometry":{"type":"LineString","coordinates":[[-0.366250799949017,51.5078711947764],[-0.366140541920263,51.5075548869262]]}},{"type":"Feature","properties":{"highway":"footway","bicycle":"dismount","tfl_id":"RWG293104","osm_id":42845166},"geometry":{"type":"LineString","coordinates":[[-0.331610732487077,51.5774454124776],[-0.331618899953838,51.5774402947746],[-0.3318674148833,51.5773974689751]]}},{"type":"Feature","properties":{"highway":"service","bicycle":"dismount","tfl_id":"RWG237894","osm_id":42428597},"geometry":{"type":"LineString","coordinates":[[-0.40928131035312,51.5184580365258],[-0.409227399943035,51.5184406947761],[-0.40912059994305,51.5184063947761],[-0.409116328774445,51.5183894385645]]}},{"properties":{"lit":"no","foot":"yes","oneway":"no","bicycle":"dismount","highway":"footway","surface":"asphalt","segregated":"no","tfl_id":"RWG290867","osm_id":140571026},"geometry":{"type":"LineString","coordinates":[[-0.181862324097004,51.3974315479551],[-0.18182429997469,51.3974166947791],[-0.181667520292051,51.397359874585]]}},{"properties":{"lit":"no","foot":"yes","oneway":"no","bicycle":"dismount","highway":"footway","surface":"asphalt","segregated":"no","tfl_id":"RWG290867","osm_id":140571026},"geometry":{"type":"LineString","coordinates":[[-0.180082922583505,51.3969224563403],[-0.18002779997494,51.3969093947791]]}},{"properties":{"access":"no","bicycle":"dismount","highway":"service","maxspeed":"5 mph","tfl_id":"RWG280851","osm_id":334243422},"geometry":{"type":"LineString","coordinates":[[-0.191472699973347,51.5684246947749],[-0.19132949456677,51.5684186762535]]}},{"properties":{"access":"no","bicycle":"dismount","highway":"service","maxspeed":"5 mph","tfl_id":"RWG280851","osm_id":334243422},"geometry":{"type":"LineString","coordinates":[[-0.191022001819062,51.5684109295244],[-0.190858799973432,51.5684069947749],[-0.190487281364794,51.5683979635796]]}},{"properties":{"access":"no","bicycle":"dismount","highway":"service","maxspeed":"5 mph","tfl_id":"RWG280851","osm_id":334243422},"geometry":{"type":"LineString","coordinates":[[-0.190029356679569,51.5683868604759],[-0.190022499973549,51.5683866947749],[-0.189698599973594,51.5684071947749],[-0.18958269997361,51.5684144947749],[-0.189573935420279,51.5684150500569]]}},{"type":"Feature","properties":{"bicycle":"dismount","highway":"track","surface":"dirt","tracktype":"grade5","tfl_id":"RWG221355","osm_id":577620626},"geometry":{"type":"LineString","coordinates":[[0.023068899996789,51.5769895947747],[0.023263099996762,51.5770097947746],[0.023888499996675,51.5771042947747],[0.023948999996666,51.5771862947747]]}},{"type":"Feature","properties":{"name":"Westway","oneway":"no","footway":"sidewalk","highway":"footway","surface":"asphalt","segregated":"no","tunnel":"yes","bicycle":"dismount","tfl_id":"RWG102672","osm_id":780382578},"geometry":{"type":"LineString","coordinates":[[-0.230738771722389,51.5146770561044],[-0.231172399967821,51.5146388947762],[-0.23168009996775,51.5145986947762],[-0.231784538605627,51.514592775808]]}},{"type":"Feature","properties":{"lit":"yes","foot":"yes","name":"Grand Avenue","image":"https://archive.org/details/city-of-london-2019-05-06/DSCN0241.JPG","access":"permissive","bicycle":"dismount","covered":"yes","highway":"service","surface":"asphalt","vehicle":"destination","maxspeed":"20 mph","postal_code":"EC1","tfl_id":"RWG108436","osm_id":204645297},"geometry":{"type":"LineString","coordinates":[[-0.101084399985929,51.5190356947761],[-0.101108199985926,51.5190669947761],[-0.101567430127293,51.51962950202]]}},{"properties":{"lit":"no","foot":"yes","bicycle":"dismount","highway":"service","surface":"asphalt","maxspeed":"12 mph","sidewalk":"both","cycle_network":"GB:London:Greenways","tfl_id":"RWG280813","osm_id":449260677},"geometry":{"type":"LineString","coordinates":[[-0.103960745336141,51.5717463097799],[-0.103974499985527,51.5717928947748],[-0.103984999985525,51.5718259947748],[-0.103989356466686,51.5718626704278]]}},{"properties":{"lit":"no","foot":"yes","bicycle":"dismount","highway":"service","surface":"asphalt","maxspeed":"12 mph","sidewalk":"both","cycle_network":"GB:London:Greenways","tfl_id":"RWG280813","osm_id":449260677},"geometry":{"type":"LineString","coordinates":[[-0.104033267328792,51.5722323385807],[-0.104036599985518,51.5722603947748]]}},{"type":"Feature","properties":{"bicycle":"dismount","highway":"service","tfl_id":"RWG280813","osm_id":1018542481},"geometry":{"type":"LineString","coordinates":[[-0.103495999985593,51.5716896947748],[-0.103638599985573,51.5716542947748],[-0.103723499985562,51.5716456947748],[-0.103974499985527,51.5717928947748]]}},{"type":"Feature","properties":{"access":"private","bicycle":"dismount","highway":"service","tfl_id":"RWG280813","osm_id":132706770},"geometry":{"type":"LineString","coordinates":[[-0.10294199998567,51.5719370947748],[-0.102934899985671,51.5718357947748],[-0.103021599985659,51.5718015947748],[-0.103262899985626,51.5717452947748],[-0.103495999985593,51.5716896947748]]}},{"type":"Feature","properties":{"bicycle":"dismount","highway":"service","tfl_id":"RWG280813","osm_id":1018542480},"geometry":{"type":"LineString","coordinates":[[-0.103120099985646,51.5721422947748],[-0.103005999985661,51.5720617947748],[-0.10294559998567,51.5719824947748],[-0.10294199998567,51.5719370947748]]}},{"properties":{"bicycle":"dismount","highway":"service","surface":"asphalt","tracktype":"grade1","tfl_id":"RWG290159","osm_id":586055558},"geometry":{"type":"LineString","coordinates":[[0.069535599504082,51.5675279895209],[0.069498099990326,51.5675127947749],[0.069460400770765,51.5674975100272]]}},{"properties":{"bicycle":"dismount","highway":"service","surface":"asphalt","tracktype":"grade1","tfl_id":"RWG290159","osm_id":586055558},"geometry":{"type":"LineString","coordinates":[[0.068926768961043,51.5672811541333],[0.068880499990412,51.5672623947749],[0.068843268114347,51.5672466662149]]}},{"properties":{"bicycle":"dismount","highway":"service","surface":"asphalt","tracktype":"grade1","tfl_id":"RWG290159","osm_id":586055558},"geometry":{"type":"LineString","coordinates":[[0.067697332944792,51.5667743987216],[0.067660099990582,51.5667590947749],[0.067615938581272,51.5667409395363]]}},{"properties":{"bicycle":"dismount","highway":"service","surface":"asphalt","tracktype":"grade1","tfl_id":"RWG290159","osm_id":586055558},"geometry":{"type":"LineString","coordinates":[[0.067450067468294,51.56666864494],[0.067364299990623,51.5666286947749],[0.067353399990624,51.5666235947749],[0.067331285170827,51.5666098082651]]}},{"properties":{"bicycle":"dismount","highway":"service","surface":"asphalt","tfl_id":"RWG290159","osm_id":59472756},"geometry":{"type":"LineString","coordinates":[[0.066339081136608,51.5665904690032],[0.06638049999076,51.5666011947749],[0.066431262045842,51.566636922993]]}},{"properties":{"bicycle":"dismount","highway":"service","surface":"asphalt","tfl_id":"RWG290159","osm_id":59472756},"geometry":{"type":"LineString","coordinates":[[0.066906845299188,51.5668335735668],[0.066944899990681,51.5668484947749],[0.067000959871292,51.5668698789279]]}},{"properties":{"bicycle":"dismount","highway":"service","surface":"asphalt","tfl_id":"RWG290159","osm_id":59472756},"geometry":{"type":"LineString","coordinates":[[0.067556101954293,51.5670816384371],[0.067613399990588,51.5671034947749],[0.067656299990582,51.5671209947749],[0.067739759174175,51.567153463975]]}},{"properties":{"bicycle":"dismount","highway":"service","surface":"asphalt","tfl_id":"RWG290159","osm_id":59472756},"geometry":{"type":"LineString","coordinates":[[0.068363843196185,51.5675268115839],[0.06838769999048,51.5675503947749],[0.068432204813396,51.5675512925667]]}},{"properties":{"bicycle":"dismount","highway":"service","surface":"asphalt","tfl_id":"RWG290159","osm_id":59472756},"geometry":{"type":"LineString","coordinates":[[0.06884590059955,51.5675768227273],[0.068885099990411,51.5675903947749],[0.068936200647199,51.5676080778443]]}},{"properties":{"bicycle":"dismount","highway":"service","surface":"asphalt","tfl_id":"RWG290159","osm_id":59472756},"geometry":{"type":"LineString","coordinates":[[0.069637486951979,51.5678507529816],[0.0696823999903,51.5678662947749],[0.069721515977696,51.5678799755052]]}},{"properties":{"bicycle":"dismount","highway":"service","surface":"asphalt","tfl_id":"RWG290159","osm_id":59472756},"geometry":{"type":"LineString","coordinates":[[0.070708786890136,51.5680169535169],[0.070671899990162,51.5680013947749],[0.070609680654486,51.5679751642817]]}},{"properties":{"bicycle":"dismount","highway":"service","surface":"asphalt","tfl_id":"RWG290159","osm_id":59472756},"geometry":{"type":"LineString","coordinates":[[0.069993819922158,51.5677155282483],[0.069956499990262,51.5676997947749],[0.069890799990271,51.5676720947749],[0.069846499990277,51.5676539947749],[0.069789036785711,51.5676306961551]]}},{"type":"Feature","properties":{"highway":"service","bicycle":"dismount","tfl_id":"RWG290157","osm_id":139904767},"geometry":{"type":"LineString","coordinates":[[0.06594909999082,51.5648619947749],[0.066063999990804,51.564882694775],[0.066121499990796,51.564893094775],[0.066192199990786,51.564908294775],[0.066440599990751,51.564970094775],[0.066467499990748,51.564978494775],[0.066511082076607,51.5649842536173]]}},{"properties":{"bicycle":"dismount","highway":"service","surface":"asphalt","tfl_id":"RWG280753","osm_id":367015304},"geometry":{"type":"LineString","coordinates":[[-0.135146399981187,51.5928110947743],[-0.135221799981177,51.5928773947743],[-0.135300926975905,51.5929614651068]]}},{"properties":{"bicycle":"dismount","highway":"service","surface":"asphalt","tfl_id":"RWG280753","osm_id":367015304},"geometry":{"type":"LineString","coordinates":[[-0.135420161226468,51.5930881480407],[-0.135442699981146,51.5931120947742],[-0.135459499981144,51.5931311947743]]}},{"properties":{"highway":"service","surface":"asphalt","bicycle":"dismount","tfl_id":"RWG280753","osm_id":700878131},"geometry":{"type":"LineString","coordinates":[[-0.134765583152282,51.5923984245257],[-0.134809099981234,51.5924436947743],[-0.134844074761163,51.5924817907741]]}},{"properties":{"highway":"service","surface":"asphalt","bicycle":"dismount","tfl_id":"RWG280753","osm_id":700878131},"geometry":{"type":"LineString","coordinates":[[-0.13512472265406,51.5927874830937],[-0.135146399981187,51.5928110947743],[-0.135079936060637,51.5928358908332]]}},{"properties":{"highway":"service","surface":"asphalt","bicycle":"dismount","tfl_id":"RWG280753","osm_id":700878131},"geometry":{"type":"LineString","coordinates":[[-0.13458374094685,51.5925188510327],[-0.134540245860029,51.5924699493319]]}},{"type":"Feature","properties":{"oneway":"no","highway":"footway","surface":"asphalt","segregated":"no","bicycle":"dismount","tfl_id":"RWG290147","osm_id":60210012},"geometry":{"type":"LineString","coordinates":[[0.066134228716181,51.573860981853],[0.06623579999078,51.5737668947748],[0.066213426449835,51.5737427428199]]}},{"properties":{"highway":"service","bicycle":"dismount","tfl_id":"RWG290160","osm_id":139904767},"geometry":{"type":"LineString","coordinates":[[0.066120722742617,51.5648929541944],[0.066121499990796,51.564893094775],[0.066192199990786,51.564908294775],[0.066210012069238,51.5649127262852]]}},{"properties":{"highway":"service","bicycle":"dismount","tfl_id":"RWG290160","osm_id":139904767},"geometry":{"type":"LineString","coordinates":[[0.066398932811449,51.5649597283087],[0.066440599990751,51.564970094775],[0.066467499990748,51.564978494775],[0.066487078094263,51.5649810817832]]}},{"properties":{"highway":"service","bicycle":"dismount","tfl_id":"RWG290160","osm_id":139904767},"geometry":{"type":"LineString","coordinates":[[0.067260022295844,51.5652954463573],[0.067291099990633,51.5653182947749],[0.067323188069367,51.5653375235229]]}},{"type":"Feature","properties":{"foot":"permissive","name":"Canal Walk","layer":"-1","oneway":"no","highway":"steps","bicycle":"dismount","tfl_id":"RWG018266","osm_id":1020455298},"geometry":{"type":"LineString","coordinates":[[-0.179032151086598,51.5199830088609],[-0.179227299975051,51.519987094776]]}},{"properties":{"highway":"service","bicycle":"dismount","tfl_id":"RWG290156","osm_id":139904767},"geometry":{"type":"LineString","coordinates":[[0.066426759355539,51.5649666513341],[0.066440599990751,51.564970094775],[0.066467499990748,51.564978494775],[0.066512770539143,51.5649844767271]]}},{"properties":{"highway":"service","bicycle":"dismount","tfl_id":"RWG290156","osm_id":139904767},"geometry":{"type":"LineString","coordinates":[[0.067190059905308,51.5652440097488],[0.067291099990633,51.5653182947749],[0.067323323607502,51.565337604744]]}},{"properties":{"bicycle":"dismount","highway":"service","tfl_id":"RWG290155","osm_id":585987982},"geometry":{"type":"LineString","coordinates":[[0.070969250301458,51.5671048108849],[0.071005899990116,51.5671208947749],[0.071039098619428,51.5671394647726]]}},{"properties":{"bicycle":"dismount","highway":"service","tfl_id":"RWG290155","osm_id":585987982},"geometry":{"type":"LineString","coordinates":[[0.071193290687205,51.5672257136061],[0.071230799990085,51.5672466947749],[0.071293971796483,51.5672613463557]]}},{"type":"Feature","properties":{"bicycle":"dismount","highway":"service","tfl_id":"RWG290153","osm_id":585987982},"geometry":{"type":"LineString","coordinates":[[0.070490599990188,51.5669068947749],[0.070585499990174,51.5669370947749],[0.070775299990148,51.5670196947749],[0.071005899990116,51.5671208947749],[0.071230799990085,51.5672466947749],[0.071501999990047,51.5673095947749],[0.071678599990022,51.5673208947749],[0.071842799989999,51.5673473947749],[0.07205199998997,51.5674807947749]]}},{"type":"Feature","properties":{"bicycle":"dismount","highway":"service","surface":"asphalt","tfl_id":"RWG290153","osm_id":101930131},"geometry":{"type":"LineString","coordinates":[[0.07205199998997,51.5674807947749],[0.071863699989997,51.5673580947749],[0.071894182301543,51.5673402583872]]}},{"type":"Feature","properties":{"bicycle":"dismount","highway":"service","surface":"asphalt","tracktype":"grade1","tfl_id":"RWG290154","osm_id":507745132},"geometry":{"type":"LineString","coordinates":[[0.067935299990543,51.564595094775],[0.068120799990518,51.564709694775],[0.068305599990492,51.5648406947749],[0.068483199990467,51.5649418947749],[0.068663399990442,51.565026894775],[0.069047799990388,51.5651598947749],[0.069700799990298,51.5653543947749],[0.069989999990257,51.5654738947749],[0.070166399990233,51.5656004947749],[0.070442199990194,51.5658963947749],[0.070665299990163,51.5660175947749],[0.070941499990125,51.5660805947749],[0.071237799990084,51.5661661947749],[0.071441399990055,51.5662643947749],[0.071630599990029,51.5663825947749],[0.072000499989977,51.5666397947749],[0.072134599989959,51.5667540947749],[0.072287699989937,51.5668118947749],[0.072563299989899,51.5668647947749],[0.072680099989883,51.5669263947749],[0.072835999989861,51.5670236947749]]}},{"properties":{"oneway":"no","highway":"footway","surface":"asphalt","segregated":"no","bicycle":"dismount","tfl_id":"RWG038543","osm_id":19061512},"geometry":{"type":"LineString","coordinates":[[-0.157294080698637,51.5570271578949],[-0.15725609997811,51.5570420947751],[-0.157219239068099,51.5570578581945]]}},{"properties":{"oneway":"no","highway":"footway","surface":"asphalt","segregated":"no","bicycle":"dismount","tfl_id":"RWG038543","osm_id":19061512},"geometry":{"type":"LineString","coordinates":[[-0.154912658275211,51.5580442472933],[-0.154875599978441,51.5580600947751],[-0.154838937107507,51.5580765463957]]}},{"properties":{"oneway":"no","highway":"footway","surface":"asphalt","segregated":"no","bicycle":"dismount","tfl_id":"RWG038543","osm_id":19061512},"geometry":{"type":"LineString","coordinates":[[-0.153749116204563,51.5585761865171],[-0.153703399978604,51.5585971947751],[-0.153659589496887,51.558616035139]]}},{"properties":{"oneway":"no","highway":"footway","surface":"asphalt","segregated":"no","bicycle":"dismount","tfl_id":"RWG038543","osm_id":19061512},"geometry":{"type":"LineString","coordinates":[[-0.153492636345016,51.5586878319984],[-0.153441099978641,51.5587099947751],[-0.153407416243054,51.5587281043326]]}},{"properties":{"oneway":"no","highway":"footway","surface":"asphalt","segregated":"no","bicycle":"dismount","tfl_id":"RWG038543","osm_id":19061512},"geometry":{"type":"LineString","coordinates":[[-0.153245701568052,51.5588150477128],[-0.153199299978674,51.5588399947751],[-0.153165558008999,51.558858125266]]}},{"properties":{"oneway":"no","highway":"footway","surface":"asphalt","segregated":"no","bicycle":"dismount","tfl_id":"RWG038543","osm_id":19061512},"geometry":{"type":"LineString","coordinates":[[-0.152767265521547,51.5590721382582],[-0.15273179997874,51.5590911947751],[-0.152698108247518,51.559109304688]]}},{"type":"Feature","properties":{"bicycle":"dismount","highway":"service","service":"parking_aisle","tfl_id":"RWG038553","osm_id":116402179},"geometry":{"type":"LineString","coordinates":[[-0.150224999979089,51.5561144947751],[-0.150586299979038,51.5559623947752]]}},{"type":"Feature","properties":{"bicycle":"dismount","highway":"service","service":"parking_aisle","tfl_id":"RWG038553","osm_id":116402181},"geometry":{"type":"LineString","coordinates":[[-0.15035489997907,51.5562418947752],[-0.150731899979018,51.5560972947752]]}},{"type":"Feature","properties":{"bicycle":"dismount","highway":"service","tfl_id":"RWG038553","osm_id":116402177},"geometry":{"type":"LineString","coordinates":[[-0.150224999979089,51.5561144947751],[-0.15035489997907,51.5562418947752],[-0.150396099979065,51.5562712947752]]}},{"type":"Feature","properties":{"oneway":"yes","bicycle":"dismount","highway":"service","tfl_id":"RWG038553","osm_id":116402183},"geometry":{"type":"LineString","coordinates":[[-0.150016499979118,51.5560897947752],[-0.150120499979103,51.5560759947752],[-0.150176299979095,51.5560869947752],[-0.150224999979089,51.5561144947751]]}},{"type":"Feature","properties":{"oneway":"yes","bicycle":"dismount","highway":"service","tfl_id":"RWG038553","osm_id":116402184},"geometry":{"type":"LineString","coordinates":[[-0.150396099979065,51.5562712947752],[-0.150378299979067,51.5562888947752],[-0.150336699979073,51.5563072947752],[-0.15028409997908,51.5563153947752],[-0.150174499979096,51.5563130947752]]}},{"type":"Feature","properties":{"bicycle":"dismount","highway":"service","tfl_id":"RWG038553","osm_id":23816349},"geometry":{"type":"LineString","coordinates":[[-0.150887999978996,51.5572988947751],[-0.150695199979023,51.5570862947751],[-0.150523299979047,51.5568491947752],[-0.150414299979062,51.5566987947751],[-0.150300299979078,51.5564896947752],[-0.15021649997909,51.5563714947751],[-0.150174499979096,51.5563130947752],[-0.150016499979118,51.5560897947752],[-0.14985799997914,51.5558470947752],[-0.149632599979171,51.5555066947752],[-0.149559699979181,51.5554347947752]]}},{"type":"Feature","properties":{"bicycle":"dismount","highway":"steps","surface":"grass","tracktype":"grade5","tfl_id":"RWG089532","osm_id":57942559},"geometry":{"type":"LineString","coordinates":[[-0.168440199976553,51.5660898947749],[-0.168022799976611,51.5660131947749],[-0.167440899976692,51.5661383947749],[-0.166888899976769,51.5662704947749],[-0.166355499976843,51.5663029947749],[-0.166027199976889,51.5664212947749],[-0.165881799976909,51.5666159947749],[-0.165273799976994,51.5666692947749],[-0.164934299977041,51.5668849947749],[-0.164964199977037,51.5670657947749],[-0.165050399977025,51.5671770947749]]}},{"type":"Feature","properties":{"oneway":"yes","bicycle":"dismount","highway":"service","maxspeed":"12 mph","tfl_id":"RWG280818","osm_id":17972371},"geometry":{"type":"LineString","coordinates":[[-0.104036599985518,51.5722603947748],[-0.104208299985494,51.5722647947748],[-0.104367399985472,51.5722705947748],[-0.104421799985464,51.5723035947748]]}},{"type":"Feature","properties":{"oneway":"yes","bicycle":"dismount","highway":"service","maxspeed":"12 mph","tfl_id":"RWG280818","osm_id":17543416},"geometry":{"type":"LineString","coordinates":[[-0.104421799985464,51.5723035947748],[-0.104363599985472,51.5723358947748],[-0.104182299985498,51.5723294947748],[-0.104048599985516,51.5723286947748]]}},{"type":"Feature","properties":{"foot":"yes","bicycle":"dismount","highway":"service","surface":"asphalt","maxspeed":"12 mph","cycle_network":"GB:London:Greenways","tfl_id":"RWG280818","osm_id":146504358},"geometry":{"type":"LineString","coordinates":[[-0.101293427179684,51.5739340316063],[-0.101370399985889,51.5739056947747],[-0.101712299985842,51.5738806947747],[-0.101915499985813,51.5738574947747],[-0.101948499985809,51.5738536947747],[-0.10222779998577,51.5738026947747],[-0.102426799985742,51.5737504947747],[-0.102626699985714,51.5736979947748],[-0.10279859998569,51.5736390947748],[-0.103063599985653,51.5735482947747],[-0.1034444999856,51.5733894947747],[-0.103691299985566,51.5732068947748],[-0.103945499985531,51.5729268947748],[-0.104053399985516,51.5726592947748],[-0.104048599985516,51.5723286947748]]}},{"type":"Feature","properties":{"foot":"yes","bicycle":"dismount","highway":"service","surface":"asphalt","maxspeed":"12 mph","cycle_network":"GB:London:Greenways","tfl_id":"RWG280818","osm_id":146504697},"geometry":{"type":"LineString","coordinates":[[-0.09870489998626,51.5730060947748],[-0.098926299986229,51.5731407947748],[-0.099304199986177,51.5733589947747],[-0.099582099986138,51.5734939947747],[-0.100004799986079,51.5736464947747],[-0.100327799986034,51.5737444947747],[-0.100692599985983,51.5738366947747],[-0.100750099985975,51.5738432947747],[-0.10100179998594,51.5739102947747],[-0.101009478093074,51.5739130324102]]}},{"properties":{"foot":"designated","oneway":"no","bicycle":"dismount","highway":"footway","surface":"asphalt","maxspeed":"10 mph","segregated":"yes","tfl_id":"RWG102663","osm_id":510826494},"geometry":{"type":"LineString","coordinates":[[-0.190427893522068,51.5228668354903],[-0.190255699973516,51.522904794776],[-0.190187388993885,51.5229077752905]]}},{"properties":{"foot":"designated","oneway":"no","bicycle":"dismount","highway":"footway","surface":"asphalt","maxspeed":"10 mph","segregated":"yes","tfl_id":"RWG102663","osm_id":510826494},"geometry":{"type":"LineString","coordinates":[[-0.190106105072917,51.5229113218345],[-0.190028799973548,51.522914694776],[-0.189731299973589,51.522910894776],[-0.189644990037032,51.5228929334178]]}},{"type":"Feature","properties":{"foot":"yes","bicycle":"dismount","highway":"service","tfl_id":"RWG119536","osm_id":828514613},"geometry":{"type":"LineString","coordinates":[[-0.145664599979723,51.4575056947776],[-0.145676099979722,51.4574668947776],[-0.145654099979725,51.4572595947776],[-0.145496899979747,51.4570533947776],[-0.145497779632691,51.4570312777967]]}},{"type":"Feature","properties":{"oneway":"no","bicycle":"dismount","highway":"footway","surface":"asphalt","bikeability:level":"1","tfl_id":"RWG119536","osm_id":10498534},"geometry":{"type":"LineString","coordinates":[[-0.144365499979904,51.4561252947776],[-0.1443972999799,51.4561297947776],[-0.144483399979888,51.4561592947776],[-0.144532299979881,51.4561744947776],[-0.144544699979879,51.4561785947776],[-0.144556999979878,51.4561826947776],[-0.14496949997982,51.4563308947776],[-0.145987099979678,51.4566325947776],[-0.146281599979637,51.4567280947776]]}},{"properties":{"lit":"yes","oneway":"no","highway":"footway","surface":"asphalt","bikeability:level":"1","bicycle":"dismount","tfl_id":"RWG119536","osm_id":506091297},"geometry":{"type":"LineString","coordinates":[[-0.147970082302626,51.4577171452914],[-0.147969999979402,51.4577592947776],[-0.147973354271191,51.4577768590713]]}},{"properties":{"lit":"yes","oneway":"no","highway":"footway","surface":"asphalt","bikeability:level":"1","bicycle":"dismount","tfl_id":"RWG119536","osm_id":506091297},"geometry":{"type":"LineString","coordinates":[[-0.14807205507368,51.4581255039334],[-0.148082899979387,51.4581715947776],[-0.148085151595799,51.4581810153364]]}},{"properties":{"lit":"yes","oneway":"no","highway":"footway","surface":"asphalt","bikeability:level":"1","bicycle":"dismount","tfl_id":"RWG119536","osm_id":506091297},"geometry":{"type":"LineString","coordinates":[[-0.148341273894072,51.4597434417994],[-0.148357299979348,51.4597894947775]]}},{"type":"Feature","properties":{"bicycle":"dismount","highway":"service","surface":"asphalt","tfl_id":"RWG119536","osm_id":506096604},"geometry":{"type":"LineString","coordinates":[[-0.142135599980215,51.4600954947775],[-0.142196099980206,51.4600765947775],[-0.142249799980199,51.4600598947775],[-0.142366999980182,51.4600186947775],[-0.142736199980131,51.4599297947775],[-0.142944866121846,51.4598848486754]]}},{"properties":{"name":"Wildwood Terrace","bicycle":"dismount","highway":"service","surface":"dirt","tfl_id":"RWG038491","osm_id":29578512},"geometry":{"type":"LineString","coordinates":[[-0.181527414743626,51.5681278631441],[-0.181781199974696,51.5684802947749],[-0.181788377917497,51.5684942051437]]}},{"properties":{"name":"Wildwood Terrace","bicycle":"dismount","highway":"service","surface":"dirt","tfl_id":"RWG038491","osm_id":29578512},"geometry":{"type":"LineString","coordinates":[[-0.181734191296696,51.5687822464967],[-0.181641399974715,51.5688665947749],[-0.181541274117602,51.5689220467962]]}},{"properties":{"name":"Wildwood Terrace","bicycle":"dismount","highway":"service","surface":"dirt","tfl_id":"RWG038491","osm_id":29578512},"geometry":{"type":"LineString","coordinates":[[-0.180949143975278,51.5692513525893],[-0.180877022962805,51.5692988145827]]}},{"properties":{"foot":"yes","name":"Sandy Road","horse":"yes","bicycle":"dismount","highway":"track","surface":"unpaved","tracktype":"grade2","tfl_id":"RWG280846","osm_id":19061514},"geometry":{"type":"LineString","coordinates":[[-0.184260214262695,51.5672660031963],[-0.184272899974349,51.5672632947749],[-0.184277503413215,51.5672624152891]]}},{"properties":{"foot":"yes","name":"Sandy Road","horse":"yes","bicycle":"dismount","highway":"track","surface":"unpaved","tracktype":"grade2","tfl_id":"RWG280846","osm_id":19061514},"geometry":{"type":"LineString","coordinates":[[-0.186424754996893,51.566483394066],[-0.186448099974046,51.5664451947749],[-0.186463352148698,51.566418900482]]}},{"properties":{"foot":"yes","name":"Sandy Road","horse":"yes","bicycle":"dismount","highway":"track","surface":"unpaved","tracktype":"grade2","tfl_id":"RWG280846","osm_id":19061514},"geometry":{"type":"LineString","coordinates":[[-0.186474197701369,51.5664002030643],[-0.18648939997404,51.5663739947749],[-0.186505848916392,51.566347943992]]}},{"type":"Feature","properties":{"access":"private","bicycle":"dismount","highway":"service","service":"driveway","tfl_id":"RWG280846","osm_id":548380570},"geometry":{"type":"LineString","coordinates":[[-0.181024955820242,51.5642582232304],[-0.1810352999748,51.564347394775],[-0.181053699974797,51.564386194775],[-0.181091399974792,51.564429294775],[-0.181155299974783,51.564464694775],[-0.181228599974773,51.564488994775],[-0.181412724403318,51.5645284229016]]}},{"properties":{"access":"private","bicycle":"dismount","highway":"service","service":"driveway","tfl_id":"RWG280846","osm_id":548380569},"geometry":{"type":"LineString","coordinates":[[-0.180809026248054,51.5647867634293],[-0.180760199974838,51.564670694775],[-0.180756699974838,51.564637194775],[-0.180781999974835,51.564540194775],[-0.180779199974835,51.564503094775],[-0.180698999974846,51.564369494775],[-0.180647699974854,51.564279994775],[-0.180642309133769,51.5642623378182]]}},{"properties":{"access":"private","bicycle":"dismount","highway":"service","service":"driveway","tfl_id":"RWG280846","osm_id":548380569},"geometry":{"type":"LineString","coordinates":[[-0.180643672945123,51.5642463218696],[-0.180645599974854,51.564238894775],[-0.180665699974851,51.564222694775],[-0.180696099974847,51.564212594775],[-0.180731099974842,51.564208594775],[-0.180986352452677,51.5642047784132]]}},{"type":"Feature","properties":{"access":"private","bicycle":"dismount","highway":"service","service":"driveway","tfl_id":"RWG280846","osm_id":1060172952},"geometry":{"type":"LineString","coordinates":[[-0.180468499974879,51.564395194775],[-0.180547699974868,51.564386694775],[-0.180614399974858,51.564379594775],[-0.180698999974846,51.564369494775]]}},{"properties":{"width":"5 m","bicycle":"dismount","highway":"service","surface":"compacted","tfl_id":"RWG280839","osm_id":30048348},"geometry":{"type":"LineString","coordinates":[[-0.166117399976876,51.5726207947748],[-0.166704099976795,51.5724525947748],[-0.167038799976748,51.5722924947748],[-0.167145899976733,51.5721824947748],[-0.167236199976721,51.5720897947748],[-0.167545099976678,51.5717859947748],[-0.167650599976663,51.5716809947748],[-0.16774529997665,51.5715813947748],[-0.167843599976636,51.5715383947748],[-0.167965899976619,51.5715264947748],[-0.1681034999766,51.5715663947748],[-0.16812599827471,51.5715756275687]]}},{"properties":{"width":"5 m","bicycle":"dismount","highway":"service","surface":"compacted","tfl_id":"RWG280839","osm_id":30048348},"geometry":{"type":"LineString","coordinates":[[-0.168792890353398,51.5716268290059],[-0.168897799976489,51.5716262947748],[-0.169106345906285,51.5716087808593]]}},{"properties":{"width":"5 m","bicycle":"dismount","highway":"service","surface":"compacted","tfl_id":"RWG280839","osm_id":30048348},"geometry":{"type":"LineString","coordinates":[[-0.170140875678292,51.571694722445],[-0.170222799976305,51.5717450947748],[-0.170265941442027,51.5717642058118]]}},{"properties":{"width":"5 m","bicycle":"dismount","highway":"service","surface":"compacted","tfl_id":"RWG280839","osm_id":30048348},"geometry":{"type":"LineString","coordinates":[[-0.170725909861713,51.5718084685464],[-0.17090036277301,51.5717667126226]]}},{"properties":{"width":"5 m","bicycle":"dismount","highway":"service","surface":"compacted","tfl_id":"RWG280839","osm_id":30048348},"geometry":{"type":"LineString","coordinates":[[-0.171502049112957,51.5718025869513],[-0.171789099976087,51.5718849947748],[-0.171974799976061,51.5719444947748],[-0.171975179721639,51.5719448086036]]}},{"type":"Feature","properties":{"bicycle":"dismount","highway":"service","tfl_id":"RWG280839","osm_id":19786452},"geometry":{"type":"LineString","coordinates":[[-0.166471199976827,51.5716389947748],[-0.166339199976845,51.5716558947748],[-0.166134899976874,51.5716839947748],[-0.166153499976871,51.5716975947748],[-0.16645049997683,51.5719752947748],[-0.166463499976828,51.5720085947748],[-0.166457499976829,51.5720673947748],[-0.166393499976838,51.5721896947748],[-0.166368299976841,51.5722078947748],[-0.166120399976876,51.5724205947747],[-0.165991699976894,51.5725914947748],[-0.166117399976876,51.5726207947748],[-0.165989399976894,51.5728951947748]]}},{"type":"Feature","properties":{"access":"private","bicycle":"dismount","highway":"service","tfl_id":"RWG280839","osm_id":427809353},"geometry":{"type":"LineString","coordinates":[[-0.165247099976997,51.5727260947748],[-0.165249599976997,51.5727142947748],[-0.165269099976994,51.5722941947748]]}},{"type":"Feature","properties":{"access":"destination","bicycle":"dismount","highway":"service","tfl_id":"RWG280839","osm_id":370557141},"geometry":{"type":"LineString","coordinates":[[-0.164591599977089,51.5721030947748],[-0.164000399977171,51.5720950947748],[-0.16364849997722,51.5720737947748]]}},{"type":"Feature","properties":{"bicycle":"dismount","highway":"service","tfl_id":"RWG280839","osm_id":30048707},"geometry":{"type":"LineString","coordinates":[[-0.164616999977085,51.5725945947748],[-0.164621399977084,51.5725830947748],[-0.164660799977079,51.5721034947748],[-0.164591599977089,51.5721030947748]]}}]}